X,Y,objectid,facility_name,facility_type,licensee,address,city,state,island,phone,license_num,license_exp,males,females,capacity,amb_type,wheelchair_appr,diet_type
-157.864657406015,21.3440714936576,1,3 J's,Type I Expanded Adult Residential Care Home,Geronimo Castillo,1624 Perry Street,Honolulu,Hawaii,Oahu,8088486592,1334-C,2022/07/31 00:00:00+00,2,1,5,Ambulatory,Yes,Special
-157.947627473806,21.3877875547986,2,808 Adult Residential Care Home/Expanded Care LLC,Type I Expanded Adult Residential Care Home,Novelyn Llarenas,98-209 Kanuku Street,Aiea,Hawaii,Oahu,8086999865,1344-C,2022/08/31 00:00:00+00,0,1,5,Ambulatory,Yes,Special
-157.93442434628,21.3826049987489,3,888 Adult Residential Care Home,Type I Expanded Adult Residential Care Home,Victor Laforteza,98-550 Kaamilo Street,Aiea,Hawaii,Oahu,8088883559,1647-C,2022/03/31 00:00:00+00,,,5,,No,
-155.064845846891,19.6869192968099,4,A & C Care Home,Type I Expanded Adult Residential Care Home,Armando Tabile,2294 Awapuhi Street,Hilo,Hawaii,Big Island,8082098308,1554-C,2022/08/31 00:00:00+00,5,1,5,Ambulatory,Yes,Special
-158.035510912296,21.4955904871877,5,A Better Living,Type I Expanded Adult Residential Care Home,Mary Ann McMurray,83 Kilani Avenue,Wahiawa,Hawaii,Oahu,8086218635,1244-C,2022/02/28 00:00:00+00,4,4,5,Ambulatory,Yes,Special
-157.920622621087,21.3667834491437,6,A.C.T.G. Gallegos IV,Type I Expanded Adult Residential Care Home,Teofista Gallegos,1530 Piikea Street,Honolulu,Hawaii,Oahu,8084238808,1341-C,2022/06/30 00:00:00+00,1,1,5,Ambulatory,Yes,Special
-157.998048552999,21.3936198041332,7,A.M.A. Care Home LLC,Type I Expanded Adult Residential Care Home,Abigail Aganon,94-392 Kahuanani Street,Waipahu,Hawaii,Oahu,8086765473,1611-C,2022/06/30 00:00:00+00,5,5,5,Ambulatory,Yes,Regular
-157.926891328168,21.3606446226786,8,AAA Care Home,Type I  Adult Residential Care Home,Melita Manalang,4368 Laakea Street,Honolulu,Hawaii,Oahu,8082057131,1606-C,2022/05/31 00:00:00+00,5,5,5,Fully Ambulatory,Yes,Special
-157.958132201799,21.3876788927898,9,"Abad, Edna",Type I  Adult Residential Care Home,Edna Abad,98-312 Kaluamoi Drive,Pearl City,Hawaii,Oahu,8084871080,1135-C,2022/07/31 00:00:00+00,2,0,4,Fully Ambulatory,No,Special
-158.009708269191,21.3920772007771,10,Abbie's,Type I Expanded Adult Residential Care Home,Florecita Peralta,94-579 Apii Place,Waipahu,Hawaii,Oahu,8086769349,479-C,2022/08/31 00:00:00+00,0,1,5,Ambulatory,No,Special
-155.068361409611,19.6759353982035,11,"Acedo, Melba",Type I  Adult Residential Care Home,Melba Daak,2501-A Kinoole Street,Hilo,Hawaii,Big Island,8089812909,714-C,2022/03/31 00:00:00+00,0,1,4,Ambulatory,No,Special
-157.876438714308,21.3425139408649,12,"Acnam's Care Home, LLC",Type I Expanded Adult Residential Care Home,Castora Acnam,2467 North School Street,Honolulu,Hawaii,Oahu,8088453589,1041-C,2022/07/31 00:00:00+00,2,2,5,Ambulatory,Yes,Special
-157.922192788332,21.3653451381009,13,ACT Care Services LLC,Type I Expanded Adult Residential Care Home,Antonette Sarmiento,1453 Uila Street,Honolulu,Hawaii,Oahu,8085948177,1624-C,2021/12/31 00:00:00+00,4,4,5,Ambulatory,Yes,Special
-157.922324519438,21.3652332827948,14,ACTG ARCH #2,Type II Expanded Adult Residential Care Home,Teofista Gallegos,1447 Uila Street,Honolulu,Hawaii,Oahu,8084225888,1205-C,2022/06/30 00:00:00+00,1,1,8,Ambulatory,Yes,Special
-158.026436072855,21.3807651144419,15,Adele Care Home,Type I  Expanded Adult Residential Care Home,Walter A. Corpuz,94-252 Kipou Street,Waipahu,Hawaii,Oahu,8083545152,1648-C,2022/03/31 00:00:00+00,,,5,,No,
-157.872719995237,21.341425440623,16,Adult Res Care Home,Type I Expanded Adult Residential Care Home,Delia Laurena,1654 Hauiki Street,Honolulu,Hawaii,Oahu,8088459373,1428-C,2022/06/30 00:00:00+00,2,2,5,Ambulatory,Yes,Special
-158.001637468482,21.3964649357474,17,"Agraan, Gliseria",Type I Expanded Adult Residential Care Home,Gliseria Agraan,94-1266 Hiapo Street,Waipahu,Hawaii,Oahu,8086761567,1200-C,2022/07/31 00:00:00+00,3,3,5,Ambulatory,Yes,Special
-159.457430811771,21.9047679320703,18,"Aguinaldo, Evangeline",Type I  Adult Residential Care Home,Evangeline Aguinaldo,3787 Mamaki Street,Koloa,Hawaii,Kauai,8087422044,984-C,2022/05/31 00:00:00+00,0,0,3,Ambulatory,No,Special
-157.922009966911,21.3578932949707,19,Aguinaldo's,Type I Expanded Adult Residential Care Home,Serafina Aguinaldo,4406 Likini Street,Honolulu,Hawaii,Oahu,8084232196,1175-C,2022/02/28 00:00:00+00,2,2,5,Ambulatory,Yes,Special
-157.895708422754,21.3634661709411,20,Ai ARCH,Type I Expanded Adult Residential Care Home,Josephine Harris,1329 Ala Aolani Street,Honolulu,Hawaii,Oahu,8084896453,1369-C,2022/03/31 00:00:00+00,0,0,5,Ambulatory,Yes,Special
-157.805460000144,21.393746999602,21,Aida's,Type I Expanded Adult Residential Care Home,Zenaida Bautista,45-552 Liula Street,Kaneohe,Hawaii,Oahu,8082351637,640-C,2022/02/28 00:00:00+00,3,3,5,Ambulatory,Yes,Special
-157.927720499738,21.3852510000662,22,"Aiea Adult Residential Care Home, LLC",Type I Expanded Adult Residential Care Home,Rowena Lat,98-845 Iliee Street,Aiea,Hawaii,Oahu,8084781876,1650-C,2022/03/31 00:00:00+00,,,5,,No,
-157.907398500449,21.3930000002529,23,Aiea Heights Senior Living,Type II Expanded Adult Residential Care Home,Satoru Izatsu,99-1657 Aiea Heights Drive,Aiea,Hawaii,Oahu,8084885521,112-C,2022/08/31 00:00:00+00,1,1,22,Fully Ambulatory,Yes,Special
-157.751085311775,21.2823127191343,24,Aina Haina ARCH,Type I Expanded Adult Residential Care Home,Lan Chen,237 East Hind Drive,Honolulu,Hawaii,Oahu,8083583354,1456-C,2022/04/30 00:00:00+00,3,2,5,Ambulatory,Yes,Special
-157.750687183943,21.2818686801926,25,Aina Haina Quality Living,Type II Expanded Adult Residential Care Home,Jabs Ryan,5304 Limu Place,Honolulu,Hawaii,Oahu,8083734141,1458-C,2021/11/30 00:00:00+00,3,2,8,Ambulatory,Yes,Special
-154.997471406157,19.5672864262421,26,AJS Expanded Care Home,Type I Expanded Adult Residential Care Home,Angelica Salom,16-1566 Keaau-Pahoa Road,Keeau,Hawaii,Big Island,8089824595,1645-C,2022/02/28 00:00:00+00,,,4,,No,
-156.497094417849,20.9213758071753,27,Akalei Hale,Type I  Adult Residential Care Home,Elisa Villanueva,61 Hoauna Street,Wailuku,Hawaii,Maui,8082441381,645-C,2022/01/31 00:00:00+00,2,2,5,Ambulatory,No,Special
-157.993123499577,21.4015139998588,28,"Alaag, L.L.C. ARCH",Type I  Adult Residential Care Home,Linda Guting,94-1032 A Lumikula Street,Waipahu,Hawaii,Oahu,8086778669,481-C,2022/09/30 00:00:00+00,1,1,5,Ambulatory,No,Special
-157.997315775192,21.3963031480714,29,Alde Care Home,Type I  Adult Residential Care Home,Delia Lampitoc,94-1475 Hiapo Street,Waipahu,Hawaii,Oahu,8086710531,1065-C,2021/11/30 00:00:00+00,1,1,5,Ambulatory,No,Special
-157.920753230874,21.373584455026,30,Aletha's Expanded ARCH,Type I Expanded Adult Residential Care Home,Florence Fayloga,99-631 Ulune Street,Aiea,Hawaii,Oahu,8084871706,1400-C,2022/06/30 00:00:00+00,2,1,5,Ambulatory,Yes,Special
-157.920322634975,21.3642645082902,31,Alfe,Type I Expanded Adult Residential Care Home,Virginia Baptista,1464 Puanakau Street,Honolulu,Hawaii,Oahu,8084228157,1353-C,2022/01/31 00:00:00+00,1,1,5,Ambulatory,Yes,Special
-157.920322634975,21.3642645082902,32,Alfe II,Type I Expanded Adult Residential Care Home,Bernadette Heafner,1464 Puanakau Street,Honolulu,Hawaii,Oahu,8084228568,1425-C,2022/02/28 00:00:00+00,3,2,5,Ambulatory,Yes,Special
-155.140897199462,19.675790916268,33,"Aliga, Nelly",Type I Expanded Adult Residential Care Home,Nelly Aliga,174 Lukia Street,Hilo,Hawaii,Big Island,8089356208,1069-C,2022/04/30 00:00:00+00,0,0,5,Ambulatory,Yes,Special
-159.342857549665,22.1003274746699,34,"All Hearts ARCH, L.L.C.",Type I  Adult Residential Care Home,Lalaine Rabaino,5962 Kawaihau Road,Kapaa,Hawaii,Kauai,8088227907,1392-C,2022/04/30 00:00:00+00,3,2,4,Ambulatory,Yes,Regular
-158.012402058733,21.3926493993845,35,"Allcare Senior Services, Inc.",Type I Expanded Adult Residential Care Home,Christie Garcia,94-920 Kumuao Street,Waipahu,Hawaii,Oahu,8083124791,1602-C,2022/04/30 00:00:00+00,4,4,4,Fully Ambulatory,No,Special
-158.183290141658,21.4387180393938,36,Aloha ARCH,Type I Expanded Adult Residential Care Home,Marlyn Acuram,86-107 Hoaha Street,Waianae,Hawaii,Oahu,8086962430,1287-C,2022/03/31 00:00:00+00,0,3,5,Ambulatory,Yes,Special
-158.01455107137,21.3210132839485,37,"Aloha Lifeline ARCH/E-ARCH, LLC",Type I Expanded Adult Residential Care Home,Romera Jornacion,91-983 Ikulani Street,Ewa Beach,Hawaii,Oahu,8086895031,1418-C,2022/01/31 00:00:00+00,1,1,5,Ambulatory,Yes,Special
-157.959382943987,21.4048596732862,38,Aloha Nui Care Home LLC,Type I  Adult Residential Care Home,Min Hye Takamatsu,1662 Hookani Street,Pearl City,Hawaii,Oahu,8082847978,1585-C,2021/11/30 00:00:00+00,5,5,5,Ambulatory,Yes,Special
-157.899713497428,21.3548725417975,39,"Amodo, Gloria",Type I  Adult Residential Care Home,Gloria Amodo,1437 Ala Leleu Street,Honolulu,Hawaii,Oahu,8088394107,955-C,2022/02/28 00:00:00+00,2,0,4,Fully Ambulatory,No,Special
-155.471721433857,20.0794037427316,40,"Anastacio, Faye V.",Type I  Adult Residential Care Home,Faye Anastacio,45-507 Kahili Street,Honokaa,Hawaii,Big Island,8087757324,859-C,2021/12/31 00:00:00+00,0,0,3,Fully Ambulatory,No,Special
-158.002451141409,21.3812734080151,41,"Ancheta, Imelda",Type I Expanded Adult Residential Care Home,Imelda Ancheta,94-854 Awanei Street,Waipahu,Hawaii,Oahu,8086777486,1239-C,2022/02/28 00:00:00+00,1,2,5,Ambulatory,Yes,Special
-157.722522133024,21.3756708839208,42,Angel Home For Seniors,Type I Expanded Adult Residential Care Home,Arcelie Cabel,1315 Kupau Street,Kailua,Hawaii,Oahu,8082217766,1395-C,2022/05/31 00:00:00+00,1,2,5,Ambulatory,Yes,Special
-158.005371280401,21.3863602636359,43,Anne-Drew's Gentle,Type I Expanded Adult Residential Care Home,Mary Jeanne Onato,94-921 Kahuailani Street,Waipahu,Hawaii,Oahu,8086783936,1367-C,2021/12/31 00:00:00+00,1,1,5,Ambulatory,Yes,Special
-158.019166561564,21.3856442653,44,Annelyn Raval,Type I Expanded Adult Residential Care Home,Annelyn Raval,94-362 Apowale Street,Waipahu,Hawaii,Oahu,8084977103,844-C,2022/04/30 00:00:00+00,1,1,5,Ambulatory,No,Regular
-155.814546421942,20.2289791898248,45,"Ano Ano, L.L.C.",Type I  Adult Residential Care Home,Melton Marc,"54-2489 Kynnersley Road, Lot C",Kapaau,Hawaii,Big Island,8088845265,1507-C,2021/11/30 00:00:00+00,3,3,5,Ambulatory,Yes,Special
-158.002731000268,21.3983190000503,46,Apostol Care Home ARCH,Type I Expanded Adult Residential Care Home,Edwin Apostol,94-1244 Hinaea Street,Waipahu,Hawaii,Oahu,8086715217,1466-C,2022/10/31 00:00:00+00,3,0,5,Ambulatory,Yes,Special
-157.880169747736,21.342798597882,47,"Apuya, Roger",Type I  Adult Residential Care Home,Roger Apuya,2517 Hoenui Street,Honolulu,Hawaii,Oahu,8088455472,1362-C,2022/10/31 00:00:00+00,0,0,5,Ambulatory,No,Special
-158.021383814773,21.3887573134243,48,Armando Biacan Care Home,Type I Expanded Adult Residential Care Home,Armando Biacan,94-565 Loaa Street,Waipahu,Hawaii,Oahu,,1636-C,2021/12/31 00:00:00+00,,,,,No,
-155.071079431763,19.6913962558244,49,Arzaga's Adult Residential Care LLC,Type I Expanded Adult Residential Care Home,Noemi Arzaga,57 Maikai Street,Hilo,Hawaii,Big Island,8089357680,1623-C,2021/12/31 00:00:00+00,5,5,5,Ambulatory,Yes,Regular
-158.174825128659,21.4153675466049,50,"Atanes, Remedios",Type I  Adult Residential Care Home,Remedios Atanes,87-542 Manuu Street,Waianae,Hawaii,Oahu,8086684214,589-C,2022/08/31 00:00:00+00,0,0,4,Ambulatory,No,Special
-157.935383081731,21.3821487127539,51,Aumoa Care Home LLC,Type I  Adult Residential Care Home,Maria Ross,98-562 Kaimu Loop,Aiea,Hawaii,Oahu,8084254962,1598-C,2021/12/31 00:00:00+00,5,5,5,Ambulatory,Yes,Special
-157.86298727782,21.3326324747906,52,"Aupuni Hale Hoolu, LLC",Type I Expanded Adult Residential Care Home,Vilma Yun,1805 Aupuni Street,Honolulu,Hawaii,Oahu,8088412202,1490-C,2022/08/31 00:00:00+00,4,4,5,Ambulatory,Yes,Special
-155.003954230424,19.5790178121349,53,Aurora Patao ARCH,Type I Expanded Adult Residential Care Home,Aurora Patao,15-1395 29th Avenue,Keaau,Hawaii,Big Island,8089666881,1057-C,2021/12/31 00:00:00+00,0,3,5,Ambulatory,Yes,Special
-158.01368447177,21.3224738743249,54,Aurora's,Type I Expanded Adult Residential Care Home,Aurora Alejandro,91-1112 Kiwi Street,Ewa Beach,Hawaii,Oahu,8086895936,1111-C,2022/08/31 00:00:00+00,0,1,5,Ambulatory,No,Special
-157.016086678336,21.0916076979202,55,"Badua, Lily",Type I Expanded Adult Residential Care Home,Lily Badua,260 Ala Malama Avenue,Kaunakakai,Hawaii,Molokai,8085535581,874-C,2021/11/30 00:00:00+00,0,0,5,Fully Ambulatory,No,Special
-157.863438517524,21.3444966541488,56,"Bala, Leticia",Type I Expanded Adult Residential Care Home,Leticia Bala,1617 Machado Street,Honolulu,Hawaii,Oahu,8088430113,731-C,2022/07/31 00:00:00+00,2,2,5,Ambulatory,Yes,Special
-158.000756022842,21.3272538992435,57,Balico's,Type I Expanded Adult Residential Care Home,Leticia Balico,91-1204 Kauiki Street,Ewa Beach,Hawaii,Oahu,8086897494,1388-C,2022/12/31 00:00:00+00,2,1,5,Ambulatory,Yes,Special
-155.099777630193,19.8308254820033,58,"Baptista, Myrna",Type I  Adult Residential Care Home,Myrna Baptista,28-2845 Makahana Street,Pepeekeo,Hawaii,Big Island,8089873287,576-C,2022/10/31 00:00:00+00,0,0,3,Ambulatory,No,Special
-157.868124612021,21.3427696895565,59,"Bautista, Dolores",Type I  Adult Residential Care Home,Dolores Bautista,1939 Waikahe Place,Honolulu,Hawaii,Oahu,8088471610,979-C,2022/05/31 00:00:00+00,0,0,3,Ambulatory,No,Special
-158.001769051843,21.3223858329908,60,"Baybayan, Rosita",Type I  Adult Residential Care Home,Rosita Baybayan,91-810 Haiamu Street,Ewa Beach,Hawaii,Oahu,8086898662,658-C,2021/11/30 00:00:00+00,1,1,5,Ambulatory,Yes,Regular
-157.820690325652,21.3066338216296,61,Beckwith Manoa Senior Care,Type I  Adult Residential Care Home,Beverley Young,2375 Beckwith Street,Honolulu,Hawaii,Oahu,8084978489,1548-C,2022/09/30 00:00:00+00,5,5,5,Fully Ambulatory,Yes,Special
-158.0003720482,21.3985683279479,62,"Beltran, Milagros",Type I Expanded Adult Residential Care Home,Milagros Beltran,94-1382 Henokea Street,Waipahu,Hawaii,Oahu,8086710354,590-C,2022/09/30 00:00:00+00,0,0,5,Ambulatory,Yes,Special
-158.004220857136,21.3949843482007,63,"Billena, Mathilda",Type I  Adult Residential Care Home,Mathilda Billena,94-1169 Limahana Street,Waipahu,Hawaii,Oahu,8086710670,569-C,2022/02/28 00:00:00+00,1,0,5,Ambulatory,No,Regular
-157.854136248913,21.316333829775,64,Birds of Paradise Home Corp.,Type I  Adult Residential Care Home,Mely Co,50 Hialoa Street,Honolulu,Hawaii,Oahu,8082254182,1616-C,2022/09/30 00:00:00+00,3,3,3,Fully Ambulatory,No,Special
-158.003663074791,21.3904793692676,65,Blandina S. Retuta LLC,Type I Expanded Adult Residential Care Home,Blandina Retuta,94-1116 Kahuailani Street,Waipahu,Hawaii,Oahu,8086764419,1019-C,2022/05/31 00:00:00+00,0,0,5,Ambulatory,Yes,Special
-158.031158552182,21.3329968640904,66,Blue Ocean Care Home,Type I  Adult Residential Care Home,Sook Yang Lee Kimoto,91-1030 Keoneae Place,Ewa Beach,Hawaii,Oahu,8087836340,1498-C,2022/06/30 00:00:00+00,2,2,3,Ambulatory,No,Special
-158.016750726585,21.3841324654362,67,"Bolosan, Carmelita",Type I  Adult Residential Care Home,Carmelita Bolosan,94-087 Waikele Loop,Waipahu,Hawaii,Oahu,8086712983,845-C,2022/12/31 00:00:00+00,0,1,5,Ambulatory,No,Special
-158.016661381754,21.3835704086023,68,"Bolosan, Domie",Type I  Adult Residential Care Home,Domie Bolosan,94-039 Waikele Loop,Waipahu,Hawaii,Oahu,8086773743,785-C,2022/09/30 00:00:00+00,0,0,4,Fully Ambulatory,No,Special
-155.912210410222,19.4966121495835,69,Buenavista Adult Residential Care Home,Type I Expanded Adult Residential Care Home,Sandy Buenavista,81-2010 Haku Nui Road,Captain Cook,Hawaii,Big Island,8083232281,1320-C,2021/12/31 00:00:00+00,0,1,4,Ambulatory,Yes,Special
-158.012311472832,21.3925419023492,70,Bueno #2,Type I Expanded Adult Residential Care Home,Felicitas Caballero,94-916 Kumuao Street,Waipahu,Hawaii,Oahu,8086789514,1240-C,2022/05/31 00:00:00+00,0,0,5,Ambulatory,Yes,Special
-157.873169170482,21.3393448166037,71,"Bumanglag, Violeta",Type I  Adult Residential Care Home,Violeta Bumanglag,2152 North School Street,Honolulu,Hawaii,Oahu,8088451397,732-C,2022/07/31 00:00:00+00,0,0,5,Ambulatory,No,Regular
-157.858728091373,21.3483430481653,72,"Cabico, Aurora",Type I  Adult Residential Care Home,Aurora Cabico,1721 Merkle Street,Honolulu,Hawaii,Oahu,8088450113,966-C,2022/08/31 00:00:00+00,0,0,5,Ambulatory,No,Regular
-158.018598542759,21.3858810736819,73,"Cabico, Milagros",Type I  Adult Residential Care Home,Milagros Cabico,94-418 Pilimai Street,Waipahu,Hawaii,Oahu,8086712656,832-C,2022/10/31 00:00:00+00,1,1,5,Ambulatory,Yes,Special
-157.864619242941,21.3322198247005,74,"Cabico-Perez, Loraine",Type I  Adult Residential Care Home,Loraine Cabico-Perez,1318 Alani Street,Honolulu,Hawaii,Oahu,8088416584,1079-C,2022/10/31 00:00:00+00,1,0,5,Ambulatory,No,Special
-158.003472673352,21.3914616094203,75,Cabingabang Care Home,Type I Expanded Adult Residential Care Home,Delia Cabingabang,94-1121 Waipahu Street,Waipahu,Hawaii,Oahu,8086717379,543-C,2022/10/31 00:00:00+00,1,0,5,Ambulatory,No,Special
-158.005463317925,21.3963841270758,76,"Cacal, Evelyn",Type I Expanded Adult Residential Care Home,Evelyn Cacal,94-1161 Hinaea Street,Waipahu,Hawaii,Oahu,8086765756,678-C,2022/09/30 00:00:00+00,0,0,5,Ambulatory,No,Special
-157.946695293113,21.3920918582847,77,Cachola Adult Residential Care Home,Type I Expanded Adult Residential Care Home,Madelaine Cachola,98-314 Ponokaulike Street,Aiea,Hawaii,Oahu,8087840242,1576-C,2022/05/31 00:00:00+00,4,4,5,Ambulatory,Yes,Special
-157.864718062774,21.3283523304218,78,Callo Care Home,Type I Expanded Adult Residential Care Home,Teresita Callo,1027 A Lowell Place,Honolulu,Hawaii,Oahu,8088431240,1289-C,2022/04/30 00:00:00+00,2,0,5,Ambulatory,Yes,Special
-157.933061747989,21.3778267223449,79,Calucag ARCH-I,Type I Expanded Adult Residential Care Home,"Calucag Care Home, Inc.",99-042 Ieie Place,Aiea,Hawaii,Oahu,8084841335,1280-C,2022/10/31 00:00:00+00,1,1,5,Ambulatory,Yes,Special
-157.793505950297,21.2773772403785,80,Calucag III,Type I Expanded Adult Residential Care Home,"Kaimuki Care Home, L.L.C.",1050 18th Avenue,Honolulu,Hawaii,Oahu,8082278985,1423-C,2022/03/31 00:00:00+00,3,2,5,Ambulatory,Yes,Special
-155.91220103157,19.496678810408,81,Captain Cook Care Home,Type I  Adult Residential Care Home,Daniel Higuchi,81-1993 Haku Nui Road,Captain Cook,Hawaii,Big Island,8082380494,1514-C,2022/06/30 00:00:00+00,1,2,5,Ambulatory,Yes,Special
-156.476251998797,20.8792012316913,82,Care Homes By Hale Makua,Type II Adult Residential Care Home,Trisha Akahi,472 Kaulana Street,Kahului,Hawaii,Maui,8082431700,1509-C,2022/01/31 00:00:00+00,10,10,22,Ambulatory,Yes,Special
-157.82030099968,21.3071490003786,83,"Caring Manoa, L.L.C.",Type II Expanded Adult Residential Care Home,Todd Pang,2383 Beckwith Street,Honolulu,Hawaii,Oahu,8087798871,1488-C,2022/07/31 00:00:00+00,0,0,8,Ambulatory,Yes,Special
-157.9573439623,21.3867640168437,84,Caring Touch ARCH/Expanded ARCH,Type I Expanded Adult Residential Care Home,Leslie Ann Ballesteros,98-131 Kaluamoi Street,Pearl City,Hawaii,Oahu,,1631-C,2022/02/28 00:00:00+00,,,,,No,
-158.005987861958,21.3913853837677,85,Carmelita's,Type I Expanded Adult Residential Care Home,Carmelita Casil,94-1020 Hapapa Street,Waipahu,Hawaii,Oahu,8086710756,615-C,2022/02/28 00:00:00+00,1,0,5,Ambulatory,No,Special
-157.993455050408,21.4035233459211,86,"Castanaga, Imelda",Type I Expanded Adult Residential Care Home,Imelda Castanaga,94-972 Lumimoe Street,Waipahu,Hawaii,Oahu,8086712551,549-C,2021/11/30 00:00:00+00,1,0,5,Ambulatory,Yes,Special
-159.36853036962,21.9846298568534,87,Castro's,Type I  Adult Residential Care Home,Julie Castro,3354 Eono Street,Lihue,Hawaii,Kauai,8082454890,1298-C,2022/06/30 00:00:00+00,2,2,5,Fully Ambulatory,No,Regular
-157.795684213158,21.4062137070887,88,"CEJ Charity ARCH-EC, L.L.C.",Type I Expanded Adult Residential Care Home,Carolyn Lazo,45-415 Kulauli Street,Kaneohe,Hawaii,Oahu,8082002109,1260-C,2022/10/31 00:00:00+00,1,1,5,Ambulatory,Yes,Special
-157.997948944962,21.3884244597794,89,Charity Adult Residential Care Home,Type I Expanded Adult Residential Care Home,Nette De Castro,94-232 Moena Place,Waipahu,Hawaii,Oahu,8087442697,1496-C,2022/04/30 00:00:00+00,4,4,5,Ambulatory,Yes,Special
-157.918675678104,21.3653061000261,90,Charity Adult Residential Care Home/E-ARCH II,Type I Expanded Adult Residential Care Home,Nette de Castro,1563 Molina Street,Honolulu,Hawaii,Oahu,8084921945,1595-C,2022/10/31 00:00:00+00,1,1,5,Ambulatory,Yes,Special
-157.919769855338,21.3664424889372,91,"Comfort Care Home, L.L.C.",Type I Expanded Adult Residential Care Home,Richard Miller,1543 Haloa Drive,Honolulu,Hawaii,Oahu,8084221947,1503-C,2022/10/31 00:00:00+00,3,3,5,Ambulatory,Yes,Special
-158.010882029677,21.3942538929702,92,Connie's,Type I Expanded Adult Residential Care Home,Cion Battulayan,94-1040 Kuhaulua Street,Waipahu,Hawaii,Oahu,8086800001,676-C,2022/01/31 00:00:00+00,1,0,5,Ambulatory,No,Special
-157.867018637195,21.3413784306981,93,Cora's,Type I  Adult Residential Care Home,Corazon Ingel,1711 Ema Place,Honolulu,Hawaii,Oahu,8088418596,363-C,2022/04/30 00:00:00+00,1,1,5,Ambulatory,No,Special
-155.091138609825,19.7419440303093,94,"Corpuz, Olivia",Type I  Adult Residential Care Home,Olivia Corpuz-Santos,664-D Wainaku Avenue,Hilo,Hawaii,Big Island,8089613938,958-C,2022/03/31 00:00:00+00,0,0,2,Fully Ambulatory,No,Special
-157.919190703596,21.3660453129504,95,CP Gallegos,Type I Expanded Adult Residential Care Home,Catalina Gallegos,1550 Epukane Street,Honolulu,Hawaii,Oahu,8084236262,1416-C,2021/12/31 00:00:00+00,2,1,5,Ambulatory,Yes,Special
-155.082987375471,19.6810726698513,96,"Cua, Lilia",Type I  Adult Residential Care Home,Lilia Cua,464 Heahea Street,Hilo,Hawaii,Big Island,8089595432,597-C,2021/11/30 00:00:00+00,0,1,5,Ambulatory,No,Special
-158.011557416567,21.3827946272897,97,Cuaresma ARCH,Type I  Adult Residential Care Home,Julia Cuaresma,94-548 Farrington Highway,Waipahu,Hawaii,Oahu,8086767232,1061-C,2021/12/31 00:00:00+00,0,1,5,Ambulatory,No,Special
-158.113668127619,21.3435451879023,98,"Daguimol, Shirley",Type I  Adult Residential Care Home,Daguimol Shirley,92-603 Malahuna Loop,Makakilo,Hawaii,Oahu,8086825244,688-C,2022/02/28 00:00:00+00,0,0,5,Ambulatory,No,Special
-157.861146327786,21.3447216843879,99,"Daligcon, Norma",Type I Expanded Adult Residential Care Home,Norma Daligcon,1586 Lehua Street,Honolulu,Hawaii,Oahu,8088481542,1062-C,2022/08/31 00:00:00+00,2,2,5,Ambulatory,Yes,Special
-158.176234687303,21.4189016001843,100,Daquip Care Home,Type I  Adult Residential Care Home,Eunice Daquip,87-132 Palani Street,Waianae,Hawaii,Oahu,8086964462,1151-C,2021/12/31 00:00:00+00,0,0,5,Ambulatory,No,Special
-158.002150431546,21.3827010053904,101,"De Vera, Loretta",Type I  Adult Residential Care Home,Loretta De Vera,94-865 Mokuahi Street,Waipahu,Hawaii,Oahu,8086715191,783-C,2022/09/30 00:00:00+00,1,0,5,Ambulatory,No,Special
-157.914556080918,21.3666553127389,102,Debora's,Type I Expanded Adult Residential Care Home,Castro Debora,1773 Piikea Street,Honolulu,Hawaii,Oahu,8084225684,1323-C,2022/11/30 00:00:00+00,2,3,5,Ambulatory,Yes,Special
-157.993164325876,21.3913103059403,103,"Deguzman, Lydia",Type I  Adult Residential Care Home,Lydia Deguzman,94-293 Kahualena Street,Waipahu,Hawaii,Oahu,8086760681,499-C,2022/03/31 00:00:00+00,0,1,5,Ambulatory,No,Special
-157.890187548946,21.5896832037667,104,Dignity Senior Living At Oceanside Hawaii,Type II Expanded Adult Residential Care Home,Albert Chen,53-594 Kamehameha Highway,Hauula,Hawaii,Oahu,8082931100,1528-C,2022/03/31 00:00:00+00,5,5,26,Ambulatory,Yes,Special
-157.95222348803,21.4009902068061,105,"Domingo, Maria-Theresa C.",Type I Expanded Adult Residential Care Home,Maria-Theresa Domingo,98-1651 Hoomaike Street,Pearl City,Hawaii,Oahu,8084553365,1321-C,2021/11/30 00:00:00+00,0,1,5,Ambulatory,Yes,Special
-155.981086139582,19.6746792251243,106,Domingo's Care Home,Type I Expanded Adult Residential Care Home,Myrna Domingo,74-828 Ulua'oa Street,Kailua-Kona,Hawaii,Big Island,8083298203,1309-C,2022/08/31 00:00:00+00,2,2,5,Ambulatory,Yes,Special
-157.925396946915,21.3527323855518,107,"Downey, Norma",Type I  Adult Residential Care Home,Norma Downey,4038 Salt Lake Boulevard,Honolulu,Hawaii,Oahu,8084237854,862-C,2021/12/31 00:00:00+00,1,0,4,Fully Ambulatory,No,Special
-155.083328676625,19.6823952097693,108,"Duldulao, Carina",Type I  Adult Residential Care Home,Carina Duldulao,417 Ehehene Place,Hilo,Hawaii,Big Island,8089599996,674-C,2021/12/31 00:00:00+00,0,0,4,Ambulatory,No,Special
-157.917866332603,21.3463587418611,109,D-Well Care Services,Type I Expanded Adult Residential Care Home,Maria Dingle,3443 Likini Street,Honolulu,Hawaii,Oahu,8083911433,1578-C,2022/05/31 00:00:00+00,5,5,5,Ambulatory,Yes,Special
-155.982909409718,19.675376497424,110,E & J Adult Residential Care Home,Type I Expanded Adult Residential Care Home,Evangeline Reyes,74-797 Ulua'oa Street,Kailua-Kona,Hawaii,Big Island,8083341437,1442-C,2022/05/31 00:00:00+00,2,1,5,Ambulatory,Yes,Special
-157.854667195442,21.357014878423,111,E & R,Type I Expanded Adult Residential Care Home,Remedios Brion,3034 Kalihi Street,Honolulu,Hawaii,Oahu,8088426115,1185-C,2022/05/31 00:00:00+00,0,1,5,Ambulatory,Yes,Special
-157.670678159953,21.3031387613329,112,E. F. Nicomedes,Type I Expanded Adult Residential Care Home,Edna Nicomedes,1271 Kaeleku Street,Honolulu,Hawaii,Oahu,8083956410,1219-C,2022/05/31 00:00:00+00,2,2,5,Ambulatory,No,Special
-158.012130152634,21.3932442038994,113,E. Mabini ARCH,Type I Expanded Adult Residential Care Home,Eden Mabini,94-1083 Kuhaulua Street,Waipahu,Hawaii,Oahu,8086789549,1296-C,2022/05/31 00:00:00+00,2,2,5,Ambulatory,Yes,Special
-157.938636350988,21.3940371688985,114,E. Ramos (ARCH),Type I  Adult Residential Care Home,Ramos Erlinda,98-063 Puaole Place,Aiea,Hawaii,Oahu,8084880878,1086-C,2022/02/28 00:00:00+00,0,2,5,Ambulatory,Yes,Special
-158.003800714851,21.3902353133649,115,Ed & Rose,Type I Expanded Adult Residential Care Home,Rosalinda Ramos,94-1112 Kahuailani Street,Waipahu,Hawaii,Oahu,8086769336,1384-C,2022/10/31 00:00:00+00,2,2,5,Ambulatory,Yes,Special
-157.992689582736,21.4059525203583,116,Eden Lei's,Type I Expanded Adult Residential Care Home,Editha Galacgac,94-1095 Lumiaina Street,Waipahu,Hawaii,Oahu,8086777160,1405-C,2022/07/31 00:00:00+00,1,1,5,Ambulatory,Yes,Special
-155.083412479953,19.6884548167925,117,Edita Castro,Type I Expanded Adult Residential Care Home,Edita Castro,201 Kuhilani Street,Hilo,Hawaii,Big Island,8089594976,1127-C,2022/06/30 00:00:00+00,0,1,4,Ambulatory,Yes,Special
-158.030150342068,21.3822774388901,118,"Editha Rogelio Tapat ARCH, LLC",Type I Expanded Adult Residential Care Home,Editha Tapat,94-432 Kipou Street,Waipahu,Hawaii,Oahu,8086717804,1486-C,2022/06/30 00:00:00+00,2,1,4,Ambulatory,Yes,Special
-155.099249686105,19.6757285469224,119,Elisa Cabal,Type I Expanded Adult Residential Care Home,Elisa Cabal,228 Hookano Street,Hilo,Hawaii,Big Island,8089812638,1326-C,2022/01/31 00:00:00+00,0,0,5,Ambulatory,Yes,Special
-155.045858481279,19.6122740010381,120,"Ellazar, Estela",Type I Expanded Adult Residential Care Home,Estella Ellazar,17-162 Ipuaiwaha Street,Keaau,Hawaii,Big Island,8089669264,653-C,2022/10/31 00:00:00+00,0,1,5,Ambulatory,Yes,Special
-157.995069393286,21.4065329927498,121,Emmanuel-Grace Care Home,Type I  Adult Residential Care Home,Glenda Mercado,94-882 Lumiholoi Street,Waipahu,Hawaii,Oahu,8084921284,1649-C,2022/03/31 00:00:00+00,,,5,,No,
-158.024588103164,21.383800460575,122,Emma-Rose Adult Residential Care Home,Type I  Adult Residential Care Home,Belma Unay,94-379 Haaa Street,Waipahu,Hawaii,Oahu,8086773015,1579-C,2022/05/31 00:00:00+00,5,5,5,Fully Ambulatory,Yes,Special
-158.010559231104,21.4411591880048,123,"Emmy's Care Home, LLC",Type I Expanded Adult Residential Care Home,Emalyn Esteban,94-382 Kaholo Street,Mililani,Hawaii,Oahu,8083768019,1404-C,2022/01/31 00:00:00+00,3,2,5,Ambulatory,Yes,Special
-157.87337844906,21.3361121616043,124,Erlinda's,Type I Expanded Adult Residential Care Home,Erlinda Isidro,2020 Uhu Street,Honolulu,Hawaii,Oahu,8088427886,1390-C,2022/03/31 00:00:00+00,2,2,4,Ambulatory,Yes,Special
-157.994376627597,21.3947679175665,125,Espinoza's,Type I Expanded Adult Residential Care Home,Maria Espinoza,94-1273 Kahuanui Street,Waipahu,Hawaii,Oahu,8086767313,1274-C,2022/07/31 00:00:00+00,0,1,5,Ambulatory,Yes,Special
-158.113025947446,21.3424868146901,126,Estabillo Adult Residential Care Home,Type I Expanded Adult Residential Care Home,Mary Ann Estabillo,92-691 Paakai Street,Kapolei,Hawaii,Oahu,8086821002,1588-C,2022/05/31 00:00:00+00,5,5,5,Ambulatory,Yes,Special
-158.007351692765,21.3954847318818,127,Esta's,Type I Expanded Adult Residential Care Home,Esta Lina,94-1110 Hinaea Street,Waipahu,Hawaii,Oahu,8086773607,598-C,2021/11/30 00:00:00+00,1,0,5,Ambulatory,Yes,Special
-157.016358760004,21.0918856048237,128,Estrelita Luczon,Type I  Adult Residential Care Home,Estrelita Luczon,249-A Ala Malama Avenue,Kaunakakai,Hawaii,Molokai,8085533077,1027-C,2021/11/30 00:00:00+00,0,0,5,Fully Ambulatory,No,Special
-158.014684094719,21.3224673551039,129,Evelyn Valdez,Type I Expanded Adult Residential Care Home,Evelyn Valdez,91-1129 Kiwi Street,Ewa Beach,Hawaii,Oahu,8086895997,978-C,2022/05/31 00:00:00+00,0,2,5,Ambulatory,Yes,Special
-158.010464177804,21.3902643684051,130,Evelyn's,Type I  Adult Residential Care Home,Evelyn Paco,94-824 Kumukula Street,Waipahu,Hawaii,Oahu,8086718725,1042-C,2022/10/31 00:00:00+00,2,2,5,Ambulatory,No,Special
-158.000441782445,21.3905579722754,131,Fabia ARCH EC,Type I Expanded Adult Residential Care Home,Kelsey Yamada,94-301 Hilihua Way,Waipahu,Hawaii,,,1644-C,2022/02/28 00:00:00+00,,,,,No,
-157.756892087719,21.2850808752585,132,Faith Harbor Adult Care,Type I Expanded Adult Residential Care Home,Yelena Munzlinger,5229 Liwai Street,Honolulu,Hawaii,Oahu,8083817880,1575-C,2022/07/31 00:00:00+00,5,1,5,Ambulatory,Yes,Special
-158.024446583732,21.3859324868637,133,Fajotina E-ARCH,Type I Expanded Adult Residential Care Home,Lilia Fajotina,94-438 Hoaeae Street,Waipahu,Hawaii,Oahu,8086767399,1209-C,2021/12/31 00:00:00+00,1,1,5,Ambulatory,Yes,Special
-157.880898000103,21.3382080003461,134,Family Ties,Type I Expanded Adult Residential Care Home,Mary-Ann Bali,1103-A Kahauiki Place,Honolulu,Hawaii,Oahu,8088411674,1377-C,2022/06/30 00:00:00+00,0,0,5,Ambulatory,Yes,Special
-157.88074078292,21.3387968769239,135,Family Ties Adult Residential Care Home,Type I Expanded Adult Residential Care Home,Felizardo Bali,1119 Kahauiki Place,Honolulu,Hawaii,Oahu,8088438544,1481-C,2022/04/30 00:00:00+00,3,2,5,Ambulatory,Yes,Special
-157.920470958263,21.3513654541938,136,"Felarca Care Home, LLC",Type I Expanded Adult Residential Care Home,Daniel Felarca,4679 Likini Street,Honolulu,Hawaii,Oahu,8088335630,1570-C,2022/10/31 00:00:00+00,3,3,5,Ambulatory,Yes,Special
-157.962789532618,21.4194579035884,137,Fely Irons' Adult Residential Care Home,Type I  Adult Residential Care Home,Fely Irons,2036 Komo Mai Drive,Pearl City,Hawaii,Oahu,8084557321,1497-C,2022/04/30 00:00:00+00,2,2,5,Ambulatory,Yes,Special
-155.121657694274,19.7000708878449,138,"Fernandez, Carlina",Type I Expanded Adult Residential Care Home,Carlina Fernandez,137B Hokulani Street,Hilo,Hawaii,Big Island,8089645275,522-C,2022/06/30 00:00:00+00,0,0,5,Ambulatory,Yes,Special
-157.997528999635,21.3941069999594,139,Fernando Care Home,Type I  Adult Residential Care Home,Perlita Fernando,94-1351 Waipahu Street,Waipahu,Hawaii,Oahu,8086714912,619-C,2022/01/31 00:00:00+00,0,2,4,Ambulatory,No,Special
-157.86620793454,21.3427180685806,140,Ferrer,Type I Expanded Adult Residential Care Home,Erlinda Ferrer,1701 Elua Street,Honolulu,Hawaii,Oahu,8088459980,1307-C,2022/09/30 00:00:00+00,2,2,5,Ambulatory,Yes,Special
-158.015778575295,21.3111208278667,141,Fidelibus Cottage,Type I Expanded Adult Residential Care Home,Dhy-Jeelen Fidelibus,91-827 Oama Street,Ewa Beach,Hawaii,Oahu,8086640947,1424-C,2022/03/31 00:00:00+00,4,4,5,Ambulatory,Yes,Special
-157.997564935935,21.3887420675518,142,"Fiesta, Floreliza C.",Type I Expanded Adult Residential Care Home,Floreliza Fiesta,94-232 Lehoula Place,Waipahu,Hawaii,Oahu,8088887012,1273-C,2022/07/31 00:00:00+00,0,1,5,Ambulatory,Yes,Special
-157.973755499968,21.4031699998505,143,Flojo Quality Affordable Care Home,Type I Expanded Adult Residential Care Home,Cecile Flojo,1159 Kuokoa Street,Pearl City,Hawaii,Oahu,8084552853,1293-C,2022/05/31 00:00:00+00,1,1,5,Ambulatory,Yes,Special
-158.009543000184,21.3918454643208,144,"Fronda, Myrna",Type I Expanded Adult Residential Care Home,Myrna Fronda,94-571 Apii Place,Waipahu,Hawaii,Oahu,8086767858,1013-C,2021/12/31 00:00:00+00,0,1,5,Ambulatory,Yes,Special
-158.02645591119,21.512769589134,145,Fuji Japan Care Home LLC,Type I Expanded Adult Residential Care Home,Chieko Riccio,134 Hoopiha Place,Wahiawa,Hawaii,Oahu,8086225015,1573-C,2022/02/28 00:00:00+00,5,5,5,Ambulatory,Yes,Special
-155.089888121762,19.6856906863221,146,G. Inocencio's,Type I  Adult Residential Care Home,Gloria Inocencio,1262 Komohana Street,Hilo,Hawaii,Big Island,8089595962,1282-C,2022/01/31 00:00:00+00,0,0,4,Ambulatory,No,Special
-157.997849730636,21.3834045629535,147,Gabriel Care Home,Type I Expanded Adult Residential Care Home,Juliet Gabriel,94-1034 Awanani Street,Waipahu,Hawaii,Oahu,8086770123,927-C,2022/03/31 00:00:00+00,1,1,5,Ambulatory,Yes,Special
-155.097064938435,19.7841661069938,148,"Gabriel, Claire",Type I  Adult Residential Care Home,Claire Gabriel,27-358 Anderton Camp Road,Papaikou,Hawaii,Big Island,8089645268,962-C,2022/04/30 00:00:00+00,0,0,4,Ambulatory,No,Special
-155.065859811003,19.686030442323,149,"Gacula, Jessie",Type I  Adult Residential Care Home,Jessie Gacula,55 Ahona Place,Hilo,Hawaii,Big Island,8089810250,553-C,2022/06/30 00:00:00+00,0,0,5,Ambulatory,No,Special
-157.999528111745,21.3926467019422,150,"Galamgam, Crescencia",Type I  Adult Residential Care Home,Crescencia Galamgam,94-1278 Peke Place,Waipahu,Hawaii,Oahu,8086711847,895-C,2022/01/31 00:00:00+00,0,0,4,Fully Ambulatory,No,Special
-158.028262684304,21.3799780487704,151,Galan's Care Home,Type I Expanded Adult Residential Care Home,Juanita Galan,94-324 Kipou Street,Waipahu,Hawaii,Oahu,8086718337,1109-C,2022/07/31 00:00:00+00,0,2,5,Ambulatory,Yes,Special
-155.979691416541,19.6742799973891,152,Galanto's ARCH,Type I Expanded Adult Residential Care Home,Elsa Galanto,74-846 Uluaoa Street,Kailua-Kona,Hawaii,Big Island,8083262356,1228-C,2022/07/31 00:00:00+00,2,2,5,Ambulatory,Yes,Special
-157.997861403912,21.3971337017066,153,"Galario, Violeta",Type I  Adult Residential Care Home,Violeta Galario,94-1440 Hiapo Street,Waipahu,Hawaii,Oahu,8088887753,878-C,2021/12/31 00:00:00+00,1,1,5,Ambulatory,No,Regular
-158.011126633432,21.3928990838461,154,Galario's Care Home,Type I Expanded Adult Residential Care Home,Elena Galario,94-929 Kuakahi Street,Waipahu,Hawaii,Oahu,8086775362,617-C,2022/09/30 00:00:00+00,2,2,5,Ambulatory,No,Special
-157.921127336739,21.3748783269498,155,Gamiao Adult Residential Care Home #2,Type I Expanded Adult Residential Care Home,Nayda Gamiao,99-588 Ulune Street,Aiea,Hawaii,Oahu,8084228018,1564-C,2022/05/31 00:00:00+00,5,5,5,Ambulatory,Yes,Special
-157.921442938089,21.3482165432088,156,"Gamiao, Nayda",Type I Expanded Adult Residential Care Home,Nayda Gamiao,3648 Likini Street,Honolulu,Hawaii,Oahu,8084228018,1316-C,2022/07/31 00:00:00+00,3,2,5,Ambulatory,Yes,Special
-157.919697000196,21.3763049996867,157,Garcia Care Home,Type I  Adult Residential Care Home,Fe Garcia,99-568 Huakanu Street,Aiea,Hawaii,Oahu,8084863872,971-C,2022/05/31 00:00:00+00,1,0,5,Ambulatory,No,Special
-157.835271620345,21.2934654387927,158,Gaylord's,Type I Expanded Adult Residential Care Home,Wannette Gaylord,1723 Malanai Street,Honolulu,Hawaii,Oahu,8082277173,1381-C,2022/09/30 00:00:00+00,1,0,5,Ambulatory,Yes,Special
-157.822690500005,21.2936669995819,159,Gaylord's II,Type I Expanded Adult Residential Care Home,Wannette Gaylord,1110 Kaialiu Street,Honolulu,Hawaii,Oahu,8082277173,1417-C,2022/01/31 00:00:00+00,0,1,5,Ambulatory,Yes,Special
-157.822767362043,21.2936029617771,160,Gaylord's III,Type I Expanded Adult Residential Care Home,Wannette Gaylord,2508 Coyne Street,Honolulu,Hawaii,Oahu,8082277173,1492-C,2022/10/31 00:00:00+00,5,5,6,Ambulatory,Yes,Special
-157.822353911396,21.2937667636118,161,Gaylord's IV,Type I Expanded Adult Residential Care Home,Wannette Gaylord,1116 Kaialiu Street,Honolulu,Hawaii,Oahu,8082277173,1586-C,2022/11/30 00:00:00+00,6,6,6,Ambulatory,Yes,Special
-157.823807797607,21.2957417368613,162,Gaylord's V,Type I Expanded Adult Residential Care Home,Wannette Gaylord,2423 Bingham Street,Honolulu,Hawaii,Oahu,8082277173,1651-C,2022/03/31 00:00:00+00,,,6,,No,
-157.885018663077,21.3723683956031,163,Gelacio Care Home,Type I Expanded Adult Residential Care Home,Zosima Gelacio,1746 Ala Aolani Place,Honolulu,Hawaii,Oahu,8088392520,458-C,2022/01/31 00:00:00+00,0,1,5,Ambulatory,Yes,Special
-157.924467000072,21.3649154828094,164,"Giovannie Senior Living, LLC",Type I Expanded Adult Residential Care Home,Giovannie Sibayan,1352 Molehu Place,Honolulu,Hawaii,Oahu,8084232355,1641-C,2022/01/31 00:00:00+00,,,5,,No,
-157.801504500144,21.2801759998862,165,"Gloria V. Atmospera, ARCH",Type I Expanded Adult Residential Care Home,Gloria Atmospera,3544 Pahoa Avenue,Honolulu,Hawaii,Oahu,8087348814,1202-C,2022/09/30 00:00:00+00,1,1,5,Ambulatory,No,Special
-157.796834795427,21.3983921334175,166,Golden Acres,Type I  Adult Residential Care Home,Miguel Pascual,45-525 Duncan Drive,Kaneohe,Hawaii,Oahu,8082357525,1480-C,2022/04/30 00:00:00+00,3,2,5,Ambulatory,Yes,Special
-157.99399601448,21.4076021170717,167,Golden Age Health Care,Type I Expanded Adult Residential Care Home,Marieta Picard,94-1141 Lumiauau Street,Waipahu,Hawaii,Oahu,8086717760,1402-C,2022/06/30 00:00:00+00,1,0,5,Ambulatory,Yes,Special
-158.183976509688,21.4384552713059,168,Golden Island ARCH,Type I Expanded Adult Residential Care Home,Marlyn Acuram,86-120 Hoaha Street,Waianae,Hawaii,Oahu,8086966507,1312-C,2022/05/31 00:00:00+00,1,0,5,Ambulatory,Yes,Special
-158.004715839297,21.3922549183212,169,Golden Years Adult Residential Care Home,Type I Expanded Adult Residential Care Home,Elaine Viloria,94-480 Niulii Street,Waipahu,Hawaii,Oahu,8086781275,1562-C,2022/02/28 00:00:00+00,4,4,4,Ambulatory,Yes,Special
-157.997240072314,21.3896478388649,170,Grace Adult Residential Care Home,Type I Expanded Adult Residential Care Home,Chen-Yen Wang,94-1134 Kahuamo Street,Waipahu,Hawaii,,,1637-C,2021/12/31 00:00:00+00,,,4,,No,
-155.095025216327,19.7393879855618,171,"Guerrero, Miriam",Type I Expanded Adult Residential Care Home,Miriam Guerrero,66 Kaiwiki Road,Hilo,Hawaii,Big Island,8088960761,989-C,2022/05/31 00:00:00+00,0,0,5,Fully Ambulatory,No,Special
-157.807785531083,21.2791086981198,172,Gutierrez ARCH Inc,Type I Expanded Adult Residential Care Home,Ruby Gutierrez Brister,3374-A Maunaloa Avenue,Honolulu,Hawaii,Oahu,8083947402,1484-C,2021/12/31 00:00:00+00,1,1,5,Ambulatory,Yes,Special
-157.913316985189,21.3812689229688,173,Halawa Care Home LLC,Type I Expanded Adult Residential Care Home,Marites Collado,99-626 Halawa Drive,Aiea,Hawaii,Oahu,8083728390,1532-C,2022/10/31 00:00:00+00,3,3,5,Ambulatory,Yes,Special
-157.86962550045,21.3371009997834,174,Hale Harmony,Type I Expanded Adult Residential Care Home,Tina Diaz,1631 Owawa Street,Honolulu,Hawaii,Oahu,8083866493,1354-C,2022/01/31 00:00:00+00,3,2,5,Ambulatory,Yes,Special
-157.850230316012,21.3272406276925,175,Hale Kuike,Type II Expanded Adult Residential Care Home,Dorothy Colby,95 Kawananakoa Place,Honolulu,Hawaii,Oahu,8085956770,1348-C,2021/12/31 00:00:00+00,1,1,26,Ambulatory,Yes,Special
-157.786186499611,21.4053300000447,176,"Hale Ku'ike Bayside, LLC",Type II Expanded Adult Residential Care Home,Scott Gardiner,45-212 Kaneohe Bay Drive,Kaneohe,Hawaii,Oahu,8082356770,1506-C,2022/10/31 00:00:00+00,28,28,28,Ambulatory,Yes,Special
-157.843364670164,21.3312228380119,177,"Hale Kuike Pali, LLC",Type II Expanded Adult Residential Care Home,David Fitzgerald,2627 Pali Highway,Honolulu,Hawaii,Oahu,8085256770,1589-C,2022/06/30 00:00:00+00,28,28,28,Ambulatory,Yes,Special
-157.912906499681,21.3489449997967,178,Hale Lehua Carehome,Type I  Adult Residential Care Home,Romeo Valdez,984 Ala Lehua Street,Honolulu,Hawaii,Oahu,8086742563,1523-C,2022/01/31 00:00:00+00,5,5,5,Ambulatory,Yes,Special
-157.910798841299,21.3495839703578,179,Hale Lilikoi,Type I  Adult Residential Care Home,Soo Yeon Phillips,1033 Ala Lilikoi Street,Honolulu,Hawaii,Oahu,8082232425,1597-C,2021/11/30 00:00:00+00,5,5,5,Ambulatory,Yes,Special
-157.99715329917,21.3874713590444,180,Hale Malama,Type I Expanded Adult Residential Care Home,Leticia Dexter,94-1088 Farrington Highway,Waipahu,Hawaii,Oahu,8082005841,1577-C,2022/05/31 00:00:00+00,5,5,5,Ambulatory,Yes,Regular
-157.726026616956,21.2867821988635,181,Hale Malamalama Mauka,Type I  Adult Residential Care Home,Pauline Fukumura,246 Moomuku Place,Honolulu,Hawaii,Oahu,8083960537,1535-C,2022/08/31 00:00:00+00,5,5,5,Ambulatory,No,Special
-157.801977000225,21.2729850003293,182,Hale Mohalu,Type II Expanded Adult Residential Care Home,"Glenn M. Wasserman, M.D., M.P.H.",3650 Maunalei Avenue,Honolulu,Hawaii,Oahu,8087338080,1477-C,2022/03/31 00:00:00+00,0,0,14,Ambulatory,Yes,Special
-157.787734211171,21.298042192581,183,"Hale Nohea, L.L.C.",Type II Expanded Adult Residential Care Home,Patricia Mosher,5071 Maunalani Circle,Honolulu,Hawaii,Oahu,8087344680,1439-C,2022/07/31 00:00:00+00,1,1,8,Fully Ambulatory,Yes,Special
-157.852669500293,21.3297389995656,184,Hale O Meleana,Type II Expanded Adult Residential Care Home,Abbey Weerasinghe,2230 Liliha Street,Honolulu,Hawaii,Oahu,8082658554,1618-C,2021/11/30 00:00:00+00,110,110,110,Ambulatory,Yes,Special
-157.88937119676,21.370091742403,185,"Hale Olu Care Home, L.L.C.",Type I  Adult Residential Care Home,Sharlene Zaharis,1573 Ala Lani Street,Honolulu,Hawaii,Oahu,8082181098,1217-C,2022/04/30 00:00:00+00,0,1,2,Fully Ambulatory,No,Special
-157.748025818965,21.4076685527106,186,Hanami Care Home Kailua,Type I  Adult Residential Care Home,Won Joo,316 A Kalama Street,Kailua,Hawaii,Oahu,8084623480,1608-C,2022/05/31 00:00:00+00,5,5,5,Fully Ambulatory,No,Regular
-157.870326259441,21.3390279421129,187,Hanau Mua Connie's Home,Type I Expanded Adult Residential Care Home,Pamela Miyashiro,2010 Puaala Lane,Honolulu,Hawaii,Oahu,8082584973,1654-C,2022/04/30 00:00:00+00,,,5,,No,
-157.723513352679,21.2895559492669,188,Hawaii Kai ARCH,Type I Expanded Adult Residential Care Home,Belarmina Rol,308 Kuliouou Road,Honolulu,Hawaii,Oahu,8083964195,1482-C,2022/05/31 00:00:00+00,3,2,5,Ambulatory,Yes,Special
-157.733007405088,21.2851472799214,189,Hawaii Loa Care Services LLC,Type I Expanded Adult Residential Care Home,Susan Halvorsen,272 Panio Street,Honolulu,Hawaii,Oahu,8087413240,1609-C,2022/05/31 00:00:00+00,5,5,5,Fully Ambulatory,No,Special
-158.002521504973,21.3916443952481,190,Heart To Heart Care Home,Type I  Adult Residential Care Home,Tracy Lockhart,94-384 Ana Lane,Waipahu,Hawaii,Oahu,8086360904,1544-C,2022/04/30 00:00:00+00,5,5,5,Ambulatory,Yes,Special
-157.879903499765,21.3398460004431,191,Helen Y. Agbayani,Type I Expanded Adult Residential Care Home,Helen Agbayani,1328 Kamehameha IV Road,Honolulu,Hawaii,Oahu,8088438203,1345-C,2022/07/31 00:00:00+00,3,3,5,Ambulatory,Yes,Special
-158.109949959105,21.3403830571939,192,Hermelina Apuya,Type I Expanded Adult Residential Care Home,Hermelina Apuya,92-761 Paakai Street,Kapolei,Hawaii,Oahu,8086820642,1153-C,2022/01/31 00:00:00+00,1,0,5,Ambulatory,Yes,Special
-157.928512451925,21.388510212947,193,Hernani T. Valenzuela Aguilar ARCH/EC-ARCH,Type I Expanded Adult Residential Care Home,Hernani Valenzuela Aguilar,98-864 Kaamilo Street,Aiea,Hawaii,Oahu,8084869243,1530-C,2022/09/30 00:00:00+00,1,1,4,Ambulatory,Yes,Special
-157.796830162058,21.4159955842875,194,"Hokulaki Senior Living, L.L.C.",Type II Expanded Adult Residential Care Home,Myriam Tabaniag,45-217A William Henry Road,Kaneohe,Hawaii,Oahu,8082358388,1471-C,2022/01/31 00:00:00+00,0,1,8,Ambulatory,Yes,Special
-157.834969074923,21.4450121551916,195,Holy Family ARCH I,Type I Expanded Adult Residential Care Home,Virginia Guillermo,47-410 Ahuimanu Road,Kaneohe,Hawaii,Oahu,8082397993,472-C,2022/03/31 00:00:00+00,1,1,5,Ambulatory,Yes,Special
-157.834969074923,21.4450121551916,196,Holy Family II,Type II Expanded Adult Residential Care Home,Virginia Guillermo,47-410 Ahuimanu Road,Kaneohe,Hawaii,Oahu,8082397993,538-C,2022/09/30 00:00:00+00,1,1,40,Ambulatory,Yes,Special
-157.804250540997,21.2883874803925,197,Home Away From Home,Type I  Adult Residential Care Home,Ema Arelliano,1321A Palolo Avenue,Honolulu,Hawaii,Oahu,8087390640,1278-C,2022/09/30 00:00:00+00,0,1,5,Fully Ambulatory,No,Special
-157.725824410959,21.2854128781635,198,Home Away From Home II Corporation,Type I  Adult Residential Care Home,Ema Arelliano,6020 Kalanianaole Highway,Honolulu,Hawaii,Oahu,8083123937,1549-C,2022/10/31 00:00:00+00,5,5,5,Ambulatory,Yes,Special
-156.493620895035,20.9126280922941,199,Honesty,Type I  Adult Residential Care Home,Zenaida Valdez,775 Analio Street,Wailuku,Hawaii,Maui,8089860008,1236-C,2022/01/31 00:00:00+00,0,1,5,Ambulatory,No,Special
-157.807233048063,21.3968256401428,200,Hoomaluhia ARCH,Type I Expanded Adult Residential Care Home,Josephine Lesa,45-672 Luluku Road,Kaneohe,Hawaii,Oahu,,1629-C,2022/02/28 00:00:00+00,,,5,,No,Special
-155.67074620976,20.0228383579771,201,Hoonani Care Home,Type I  Adult Residential Care Home,Karyn Clay,65-1267B Lindsey Road,Kamuela,Hawaii,Big Island,8088966417,1538-C,2022/11/30 00:00:00+00,0,0,5,Ambulatory,Yes,Special
-158.162473394852,21.4520897694236,202,House of Aloha,Type I  Adult Residential Care Home,"Sister Lorlene Panaligan, O.P.",86-569 Paheehee Road,Waianae,Hawaii,Oahu,8086963021,1512-C,2022/05/31 00:00:00+00,3,3,5,Ambulatory,Yes,Special
-157.811707097468,21.3113129331845,203,"Huapala Senior Care A, LLC",Type II Expanded Adult Residential Care Home,Paul Dold,2649 A Huapala Street,Honolulu,Hawaii,Oahu,8089887505,1526-C,2022/03/31 00:00:00+00,2,2,8,Ambulatory,Yes,Special
-157.811707097468,21.3113129331845,204,"Huapala Senior Care B, LLC",Type II Expanded Adult Residential Care Home,Paul Dold,2649 B Huapala Street,Honolulu,Hawaii,Oahu,8089887394,1527-C,2022/03/31 00:00:00+00,8,8,8,Ambulatory,Yes,Special
-157.811707097468,21.3113129331845,205,"Huapala Senior Care C, LLC",Type II Expanded Adult Residential Care Home,Paul Dold,2649 C Huapala Street,Honolulu,Hawaii,Oahu,8089887505,1534-C,2022/07/31 00:00:00+00,8,8,8,Ambulatory,Yes,Special
-157.811707097468,21.3113129331845,206,"Huapala Senior Care D, LLC",Type II Expanded Adult Residential Care Home,Paul Dold,2649 D Huapala Street,Honolulu,Hawaii,Oahu,8089887505,1536-C,2022/08/31 00:00:00+00,8,8,8,Ambulatory,Yes,Special
-155.087237581861,19.6734806092377,207,"Ilar, Emelyn",Type I Expanded Adult Residential Care Home,Emelyn Ilar,1712 Keone Street,Hilo,Hawaii,Big Island,8089591247,1123-C,2021/11/30 00:00:00+00,1,1,5,Ambulatory,Yes,Special
-158.176180351121,21.4242467408759,208,Imelda G. Arreola,Type I Expanded Adult Residential Care Home,Imelda Arreola,87-164 Kaukamana Street,Waianae,Hawaii,Oahu,8083580746,1224-C,2022/07/31 00:00:00+00,1,1,5,Ambulatory,Yes,Special
-158.032206234998,21.680764931816,209,Indel's,Type I Expanded Adult Residential Care Home,Indelicia Brillante,58-109 Kaunala Street,Haleiwa,Hawaii,Oahu,8087229159,1016-C,2022/02/28 00:00:00+00,0,1,4,Ambulatory,Yes,Special
-155.095582862758,19.6807962045936,210,"Inocencio, Patricia",Type I  Adult Residential Care Home,Patricia Inocencio,1423 Mailani Street,Hilo,Hawaii,Big Island,8089594530,1043-C,2022/01/31 00:00:00+00,1,0,5,Ambulatory,No,Special
-156.512595466239,20.8896957627045,211,Irene Della Adult Residential Care Home,Type I  Adult Residential Care Home,Irene Della,189 Maika Street,Wailuku,Hawaii,Maui,8082984703,1518-C,2022/10/31 00:00:00+00,5,5,4,Ambulatory,No,Regular
-156.486431380342,20.8753646440365,212,Irenea B. Alipio,Type I  Adult Residential Care Home,Irenea Alipio,733 Iluna Place,Kahului,Hawaii,Maui,8088729770,1318-C,2021/12/31 00:00:00+00,2,2,3,Ambulatory,No,Regular
-155.123952012198,19.6981019382543,213,Island Care Home LLC,Type I Expanded Adult Residential Care Home,Hestia Yi Lee,151 Chong Street,Hilo,Hawaii,,8083158078,1632-C,2022/02/28 00:00:00+00,,,5,,No,
-158.087505488875,21.3723204402919,214,Island Living II ARCH/EARCH,Type I Expanded Adult Residential Care Home,Narcisa Jatico,92-1238 Umena Street,Kapolei,Hawaii,Oahu,8086727952,1446-C,2022/07/31 00:00:00+00,3,2,5,Ambulatory,Yes,Special
-157.791805543852,21.2831579636267,215,Island Ohana Care,Type I  Adult Residential Care Home,Ninan Barnes,3846 Noeau Street,Honolulu,Hawaii,Oahu,8087375102,1600-C,2022/01/31 00:00:00+00,5,5,5,Ambulatory,Yes,Regular
-157.926645330598,21.3596598511577,216,Island Promise ARCH,Type I  Expanded Adult Residential Care Home,Anita Felipe,4330 Laakea Street,Honolulu,Hawaii,Oahu,8084280990,1615-C,2021/12/31 00:00:00+00,5,5,5,Ambulatory,Yes,Special
-157.922878192122,21.3597587160435,217,Island Promise ARCH II,Type I Expanded Adult Residential Care Home,Anita Felipe,1177 Kukila Street,Honolulu,Hawaii,Oahu,,1627-C,2022/10/31 00:00:00+00,,,5,,No,Special
-157.794970499597,21.4003080002922,218,J & A,Type I Expanded Adult Residential Care Home,Susan Bondoc,45-349 Kenela Street,Kaneohe,Hawaii,Oahu,8082341580,1357-C,2022/05/31 00:00:00+00,3,2,5,Ambulatory,Yes,Special
-158.018976000473,21.3832800002313,219,J & J,Type I Expanded Adult Residential Care Home,Flora Cadiz,94-276 Pupukoae Street,Waipahu,Hawaii,Oahu,8086767027,1112-C,2022/08/31 00:00:00+00,0,2,5,Ambulatory,Yes,Special
-155.064701395973,19.6862314819125,220,J & R EARCH,Type I Expanded Adult Residential Care Home,Ruth Cabal,2317 Awapuhi Street,Hilo,Hawaii,Big Island,,1635-C,2022/03/31 00:00:00+00,,,4,,No,
-157.969679316118,21.4122779044456,221,J. Quinabo ARCH #1,Type I Expanded Adult Residential Care Home,"J. Quinabo Care Home, LLC",1553 Kaweloka Street,Pearl City,Hawaii,Oahu,8084564190,1391-C,2022/04/30 00:00:00+00,3,2,5,Ambulatory,Yes,Special
-158.000152965026,21.3949722984435,222,J.B.M. ARCH,Type I Expanded Adult Residential Care Home,Janette Mendoza,94-1282 Hiapaiole Place,Waipahu,Hawaii,Oahu,8086770474,1448-C,2022/08/31 00:00:00+00,3,2,5,Fully Ambulatory,Yes,Special
-156.45429986274,20.7788219999518,223,J.C.,Type I Expanded Adult Residential Care Home,Catalina Garcia,203 Awa Place,Kihei,Hawaii,Maui,8088794827,1074-C,2022/09/30 00:00:00+00,2,3,5,Ambulatory,No,Special
-157.865123419406,21.3447469772808,224,Jai Adult Residential Care Home,Type I Expanded Adult Residential Care Home,Jennifer Ibana,1719 Perry Street,Honolulu,Hawaii,Oahu,8087620524,1561-C,2022/02/28 00:00:00+00,1,1,5,Fully Ambulatory,No,Special
-157.968412078176,21.4039774222233,225,Jaja ARCH,Type I  Adult Residential Care Home,Agnes Tabangcura,1459 Kaleilani Street,Pearl City,Hawaii,Oahu,8086641988,1305-C,2022/07/31 00:00:00+00,1,1,5,Ambulatory,No,Regular
-157.873553722749,21.3363154739974,226,"Jamandre, Evangeline G.",Type I Expanded Adult Residential Care Home,Evangeline Jamandre,2030 Uhu Street,Honolulu,Hawaii,Oahu,8088426597,1331-C,2022/04/30 00:00:00+00,2,2,5,Ambulatory,Yes,Special
-157.928501385271,21.3770493596852,227,Jaychat Adult Residential Care Home,Type I Expanded Adult Residential Care Home,Charitie Gamiao,"99-314A Eke Place, Unit 2",Aiea,Hawaii,Oahu,8087228615,1643-C,2022/02/28 00:00:00+00,,,5,,No,
-156.460539128325,20.8784272850008,228,Jerez Care Home,Type I  Adult Residential Care Home,Leonora Jerez,24 Puukani Street,Kahului,Hawaii,Maui,8088717881,1271-C,2022/05/31 00:00:00+00,1,0,5,Ambulatory,No,Special
-157.990736971414,21.3947960313943,229,Jessie's E-ARCH,Type I Expanded Adult Residential Care Home,Jessie Villanueva,"94-1591 Waipahu Street, Unit A",Waipahu,Hawaii,Oahu,8086769418,1646-C,2022/03/31 00:00:00+00,,,3,,No,
-157.95672374879,21.4083713841257,230,Jesusa Quinabo ARCH #II,Type I Expanded Adult Residential Care Home,Jesusa Quinabo,1805 Hookupa Street,Pearl City,Hawaii,Oahu,8084569375,1113-C,2022/09/30 00:00:00+00,0,0,5,Ambulatory,Yes,Special
-158.081795773232,21.3457962580344,231,JML,Type I Expanded Adult Residential Care Home,Merlyne Lim,92-560 Pilipono Street,Kapolei,Hawaii,Oahu,8086723406,1281-C,2021/12/31 00:00:00+00,1,1,5,Ambulatory,Yes,Special
-155.064751060084,19.686093569062,232,Josephine Cabal,Type I Expanded Adult Residential Care Home,Josephine Cabal,2322 Awapuhi Street,Hilo,Hawaii,Big Island,8089810058,1317-C,2022/08/31 00:00:00+00,0,2,5,Ambulatory,Yes,Special
-157.923210330594,21.3636120538937,233,Josie's Ohana,Type I Expanded Adult Residential Care Home,Josefina Rodrigues,1388 Haloa Drive,Honolulu,Hawaii,Oahu,8088882113,1225-C,2022/07/31 00:00:00+00,1,0,5,Ambulatory,Yes,Special
-157.725153181463,21.2903534598542,234,Joy S. Alconcel,Type I Expanded Adult Residential Care Home,Jocelyn Alconcel,339-A Elelupe Road,Honolulu,Hawaii,Oahu,8083962283,1144-C,2022/10/31 00:00:00+00,0,1,5,Ambulatory,No,Special
-158.010417149605,21.3918103562638,235,JRR ARCH,Type I Expanded Adult Residential Care Home,Jean Ramiro,94-564 Anaaina Place,Waipahu,Hawaii,Oahu,8086770245,1259-C,2022/09/30 00:00:00+00,3,2,5,Ambulatory,Yes,Special
-157.964266500422,21.408892407886,236,Juanita's,Type I Expanded Adult Residential Care Home,Juanita Fajardo,1902 Palamoi Street,Pearl City,Hawaii,Oahu,8084551175,537-C,2022/09/30 00:00:00+00,0,1,5,Ambulatory,Yes,Special
-156.498437177983,20.9091144593313,237,Judy's,Type I  Adult Residential Care Home,Judita Dagdag,934 Anohea Way,Wailuku,Hawaii,Maui,8082448194,683-C,2022/09/30 00:00:00+00,2,2,4,Ambulatory,No,Special
-155.107136551295,19.8325853346515,238,"Justo, Charing",Type I  Adult Residential Care Home,Charing Justo,28-2865 Kukuikea Place,Pepeekeo,Hawaii,Big Island,8089645445,1006-C,2022/07/31 00:00:00+00,1,1,4,Ambulatory,Yes,Special
-157.790683959972,21.4228967835651,239,Ka Malama Home II,Type I Expanded Adult Residential Care Home,Helen Elizalde,45-332 Ka Hanahou Circle,Kaneohe,Hawaii,Oahu,8082345555,1378-C,2022/05/31 00:00:00+00,3,2,5,Ambulatory,Yes,Special
-157.963670607148,21.4126506341319,240,Kaamilo Hale LLC,Type II Expanded Adult Residential Care Home,Carol Fardal,944 Maiha Circle,Pearl City,Hawaii,Oahu,8087448136,1472-C,2022/01/31 00:00:00+00,4,4,8,Ambulatory,Yes,Special
-157.995218025195,21.3931443142772,241,Kahuanani Hale,Type I  Adult Residential Care Home,Kanani Stone,94-284 Kahuanani Place,Waipahu,Hawaii,Oahu,8087443420,1587-C,2021/11/30 00:00:00+00,1,1,5,Ambulatory,No,Special
-157.735290419762,21.3729383311711,242,Kailua Ohana,Type I Expanded Adult Residential Care Home,Edna Lomboy,1346 Akamai Street,Kailua,Hawaii,Oahu,8082308131,1300-C,2022/10/31 00:00:00+00,0,1,5,Ambulatory,Yes,Special
-157.794696074659,21.2771874036914,243,Kaimuki Home LLC,Type I  Adult Residential Care Home,"Mingsang Lin, M.D.",1021 17th Avenue,Honolulu,Hawaii,Oahu,8087377415,1568-C,2022/09/30 00:00:00+00,5,5,,Ambulatory,No,Special
-157.801239805111,21.2784522106728,244,"Kaimuki Senior Care, L.L.C. (918)",Type II Expanded Adult Residential Care Home,Paul Dold,918 12th Avenue,Honolulu,Hawaii,Oahu,8084400560,1349-C,2022/03/31 00:00:00+00,4,4,8,Ambulatory,Yes,Special
-157.80116476634,21.2785797291705,245,"Kaimuki Senior Care, L.L.C. (930)",Type II Expanded Adult Residential Care Home,Paul Dold,930 12th Avenue,Honolulu,Hawaii,Oahu,8084400560,1358-C,2022/03/31 00:00:00+00,4,4,8,Ambulatory,Yes,Special
-156.963585757013,21.1832689339637,246,Kalaupapa Care Home,Type I Expanded Adult Residential Care Home,"Glenn M. Wasserman, M.D., M.P.H.",814 Damien Road,Kalaupapa,Hawaii,Molokai,8085676938,1478-C,2022/03/31 00:00:00+00,4,4,5,Ambulatory,Yes,Special
-157.919428644857,21.38165150524,247,Karen R. Yamashita,Type I  Adult Residential Care Home,Karen Yamashita,99-701 Kealaluina Drive,Aiea,Hawaii,Oahu,8084287388,1612-C,2022/06/30 00:00:00+00,5,5,5,Ambulatory,Yes,Regular
-158.004500862056,21.3961746942864,248,"Khrist  Emmanuel Care Home, LLC",Type I Expanded Adult Residential Care Home,Anita Peralta,94-1178 Hina Street,Waipahu,Hawaii,Oahu,8086718607,1137-C,2022/06/30 00:00:00+00,0,2,4,Ambulatory,Yes,Special
-157.797346500067,21.4169400001916,249,"Kina 'Ole Estate Ekolu, LLC",Type II Expanded Adult Residential Care Home,Elizabeth Slavens,45-219 William Henry Road,Kaneohe,Hawaii,Oahu,8082364451,1495-C,2021/12/31 00:00:00+00,5,5,8,Ambulatory,Yes,Special
-157.72170634214,21.3750933828486,250,"Kina 'Ole Estate Elima, LLC",Type II Expanded Adult Residential Care Home,Elizabeth Slavens,1368 Kuloaa Place,Kailua,Hawaii,Oahu,8082334455,1379-C,2022/08/31 00:00:00+00,1,1,8,Ambulatory,Yes,Special
-157.797553500286,21.4168230003868,251,"Kina 'Ole Estate Elua, LLC",Type II Expanded Adult Residential Care Home,Elizabeth Slavens,45-225A William Henry Road,Kaneohe,Hawaii,Oahu,8082334455,1430-C,2022/07/31 00:00:00+00,3,2,8,Ambulatory,Yes,Special
-157.793972050963,21.4078773790299,252,"Kina 'Ole Estate Eono, LLC",Type I Expanded Adult Residential Care Home,Elizabeth Slavens,45-338 Makalani Street,Kaneohe,Hawaii,Oahu,,1634-C,2021/12/31 00:00:00+00,,,,,No,
-157.797553500286,21.4168230003868,253,"Kina 'Ole Estate, LLC",Type II Expanded Adult Residential Care Home,Elizabeth Slavens,45-225 William Henry Road,Kaneohe,Hawaii,Oahu,8082334455,1327-C,2022/02/28 00:00:00+00,0,0,8,Ambulatory,Yes,Special
-157.732970786586,21.2849746033094,254,Knight's Victoria House,Type I Expanded Adult Residential Care Home,MaeAnn Arciaga,268 Panio Street,Honolulu,Hawaii,Oahu,8083737437,1555-C,2022/08/31 00:00:00+00,5,5,5,Ambulatory,Yes,Special
-157.743526128462,21.3982281718857,255,Kokua Gardens,Type I Expanded Adult Residential Care Home,Lyndon Odrunia,340-B Kawainui Street,Kailua,Hawaii,Oahu,8082635624,1350-C,2022/02/28 00:00:00+00,2,2,5,Ambulatory,Yes,Special
-157.861786499747,21.3226470000105,256,Korean Care Home,Type II Adult Residential Care Home,Sam Sil Yun Cannon,525 Kiapu Place,Honolulu,Hawaii,Oahu,8085333157,105-C,2021/12/31 00:00:00+00,1,5,31,Ambulatory,Yes,Special
-157.855751060622,21.3217051232866,257,Kuakini Home,Type II Adult Residential Care Home,William Oshima,347 N. Kuakini Street,Honolulu,Hawaii,Oahu,8085479208,106-C,2022/02/28 00:00:00+00,8,7,34,Ambulatory,No,Special
-158.025810254022,21.3937607470623,258,Kunia Hale LLC,Type I  Adult Residential Care Home,Maria Cristina B. Vicente,94-695 Kaaka Street,Waipahu,Hawaii,Oahu,8083919729,1655-C,2022/04/30 00:00:00+00,,,3,,No,
-157.752467036588,21.280611697676,259,"Lanihale, Inc.",Type I  Adult Residential Care Home,Lani Moore,187 Nenue Street,Honolulu,Hawaii,Oahu,8083894194,1566-C,2022/04/30 00:00:00+00,5,5,5,Ambulatory,Yes,Special
-157.683653979174,21.3122503116139,260,Laniolu Hale LLC,Type I  Adult Residential Care Home,Anthony Defiesta,1261 Lunalilo Home Road,Honolulu,Hawaii,Oahu,8083940770,1410-C,2022/11/30 00:00:00+00,3,2,5,Ambulatory,Yes,Special
-157.922151243073,21.3480219419054,261,Laulima Hale,Type I  Adult Residential Care Home,Darrell Aguinaldo,1010C Wanaka Street,Honolulu,Hawaii,Oahu,8083044876,1581-C,2022/08/31 00:00:00+00,5,5,5,Ambulatory,Yes,Special
-157.933753585787,21.3834739986034,262,Lavigne-Namoca Care Home,Type I  Adult Residential Care Home,Ann Lavigne-Namoca,98-609 Kaamilo Street,Aiea,Hawaii,Oahu,8084850133,1277-C,2022/08/31 00:00:00+00,2,2,5,Ambulatory,No,Special
-158.008805999934,21.3931890001362,263,"Leano, Glenda",Type I  Adult Residential Care Home,Glenda Leano,94-945 Kuhaulua Street,Waipahu,Hawaii,Oahu,8086770262,331-C,2022/05/31 00:00:00+00,1,0,5,Ambulatory,No,Regular
-157.921406393249,21.3650919231435,264,Leila's Care Home LLC,Type I Expanded Adult Residential Care Home,Josephine Cabalo,1467 Haloa Drive,Honolulu,Hawaii,Oahu,8084220686,1565-C,2022/02/28 00:00:00+00,5,5,5,Ambulatory,Yes,Special
-157.892699703459,21.3682694472604,265,Leticia's Care Home,Type I  Adult Residential Care Home,Tessie Fernando,1375 Ala Hoku Place,Honolulu,Hawaii,Oahu,8083671364,490-C,2022/02/28 00:00:00+00,0,2,5,Fully Ambulatory,No,Special
-157.857244542955,21.3283424517972,266,Lettie's,Type I  Adult Residential Care Home,Leticia Tesoro,739-D N. Judd Street,Honolulu,Hawaii,Oahu,8085372622,333-C,2022/01/31 00:00:00+00,3,3,5,Ambulatory,No,Special
-157.926563184072,21.3593482027437,267,Lilibeth Badua E-ARCH,Type I Expanded Adult Residential Care Home,Lilibeth Badua,4318 Laakea Street,Honolulu,Hawaii,Oahu,8087440648,1594-C,2022/10/31 00:00:00+00,5,5,5,Ambulatory,No,Special
-158.027507978382,21.3812672486462,268,Lita Soria,Type I Expanded Adult Residential Care Home,Angelita Soria,94-346 Hene Street,Waipahu,Hawaii,Oahu,8086772174,1160-C,2022/01/31 00:00:00+00,1,1,5,Ambulatory,Yes,Special
-157.82030099968,21.3071490003786,269,Living Manoa Gardens,Type II Expanded Adult Residential Care Home,Todd Pang,2385 Beckwith Street,Honolulu,Hawaii,Oahu,8087798871,1531-C,2022/05/31 00:00:00+00,8,8,8,Ambulatory,Yes,Special
-157.999670842359,21.3941402353552,270,Lolita Suga,Type I Expanded Adult Residential Care Home,Lolita Suga,94-414 Hianakiu Street,Waipahu,Hawaii,Oahu,8087292113,460-C,2022/05/31 00:00:00+00,0,1,1,Ambulatory,No,Special
-157.951641673676,21.3991493779933,271,"Lorenzo Care Home, LLC",Type I Expanded Adult Residential Care Home,Catherine Lorenzo,98-1591 Hoomaike Street,Pearl City,Hawaii,Oahu,8084568878,1347-C,2021/12/31 00:00:00+00,1,1,5,Ambulatory,Yes,Special
-157.899809871651,21.3544623051499,272,Loretta G. Domingo,Type I Expanded Adult Residential Care Home,Loretta Domingo,1419 Ala Leleu Street,Honolulu,Hawaii,Oahu,8088393091,1435-C,2022/02/28 00:00:00+00,1,1,3,Ambulatory,Yes,Special
-157.993337745028,21.3946505916985,273,Lory's,Type I Expanded Adult Residential Care Home,Lorenza Parel,94-1492 Waipahu Street,Waipahu,Hawaii,Oahu,8082301903,1406-C,2022/08/31 00:00:00+00,2,2,5,Ambulatory,Yes,Special
-157.998724898436,21.3927654972089,274,Lota Bumanglag,Type I  Adult Residential Care Home,Lota Bumanglag,94-366 Kahuanani Street,Waipahu,Hawaii,Oahu,8086781967,1220-C,2022/05/31 00:00:00+00,1,0,5,Ambulatory,Yes,Special
-157.876028999916,21.3331499996118,275,Loumaile Cottage,Type I Expanded Adult Residential Care Home,Maile Drake,1118 Kaili Street,Honolulu,Hawaii,Oahu,8086994899,1539-C,2021/12/31 00:00:00+00,4,4,3,Ambulatory,Yes,Special
-157.696798500141,21.2825159995702,276,Lunalilo Home,Type II Expanded Adult Residential Care Home,"Diane Paloma, Ph.D., CEO",501 Kekauluohi Street,Honolulu,Hawaii,Oahu,8083951000,1295-C,2022/05/31 00:00:00+00,3,3,42,Ambulatory,Yes,Special
-157.848211168989,21.3182762906185,277,Lusitana,Type I Expanded Adult Residential Care Home,Carolyn De Guzman,1925 Lusitana Street,Honolulu,Hawaii,Oahu,8085458641,1409-C,2022/10/31 00:00:00+00,2,2,5,Ambulatory,Yes,Special
-158.001139821753,21.3959453976833,278,Lydia Quemado,Type I  Adult Residential Care Home,Lydia Quemado,94-1292 Huakai Street,Waipahu,Hawaii,Oahu,8085174799,573-C,2022/08/31 00:00:00+00,0,0,3,Ambulatory,No,Special
-157.914502441786,21.366156792695,279,Macrina Castillo,Type I Expanded Adult Residential Care Home,Marina Castillo,1789 Piikea Street,Honolulu,Hawaii,Oahu,8084225376,516-C,2022/08/31 00:00:00+00,2,2,5,Ambulatory,Yes,Special
-157.960833714686,21.3967886029473,280,Maestro Care Home,Type I  Adult Residential Care Home,Amalia Maestro,613 Hoohale Street,Pearl City,Hawaii,Oahu,8087414065,1537-C,2022/09/30 00:00:00+00,3,3,4,Ambulatory,Yes,Special
-157.871155500168,21.3366959996873,281,"Magaoay, Shirley",Type I  Adult Residential Care Home,Shirley Magaoay,1529 Leilani Street,Honolulu,Hawaii,Oahu,8088411448,919-C,2022/02/28 00:00:00+00,0,0,5,Ambulatory,No,Special
-157.878803930605,21.3419023509633,282,"Magsanide's Care Home, L.L.C.",Type I Expanded Adult Residential Care Home,Editha Magsanide,1439 Middle Street,Honolulu,Hawaii,Oahu,8088421676,1459-C,2022/07/31 00:00:00+00,1,0,5,Ambulatory,Yes,Special
-157.83170540518,21.3093697162608,283,Makiki Valley Care Home,Type I  Adult Residential Care Home,Gregory Honbo,2041 Keeaumoku Street,Honolulu,Hawaii,Oahu,8083842300,1574-C,2022/03/31 00:00:00+00,5,5,5,Ambulatory,No,Special
-157.835678235035,21.4419854693632,284,Malamaimua Care Home LLC,Type I Expanded Adult Residential Care Home,Franklin Valiente,47-508 Haanopu Way,Kaneohe,Hawaii,Oahu,8082843064,1614-C,2022/07/31 00:00:00+00,5,5,5,Fully Ambulatory,No,Regular
-157.874571000097,21.336029999852,285,Manayan's ARCH-EC-LLC,Type I Expanded Adult Residential Care Home,Florence Manayan,1319 Gulick Avenue,Honolulu,Hawaii,Oahu,8088487730,1286-C,2022/02/28 00:00:00+00,3,3,5,Ambulatory,Yes,Special
-157.823378999903,21.3057270004261,286,Manoa Cottage,Type II Expanded Adult Residential Care Home,Sandra Shim,2035 Kamehameha Avenue,Honolulu,Hawaii,Oahu,8089438767,1279-C,2022/10/31 00:00:00+00,0,0,8,Fully Ambulatory,Yes,Special
-157.823378999903,21.3057270004261,287,Manoa Cottage Too,Type II Expanded Adult Residential Care Home,Sandra Shim,2035 Kamehameha Avenue,Honolulu,Hawaii,Oahu,8089438767,1356-C,2022/10/31 00:00:00+00,1,1,8,Ambulatory,Yes,Special
-157.823378999903,21.3057270004261,288,Manoa Cottage Tree,Type II Expanded Adult Residential Care Home,Sandra Shim,2035 Kamehameha Avenue,Honolulu,Hawaii,Oahu,8089438767,1433-C,2021/11/30 00:00:00+00,0,0,8,Ambulatory,Yes,Special
-157.813368680755,21.312034385157,289,"Manoa Elder Care, L.L.C.",Type II Expanded Adult Residential Care Home,Paul Dold,2870 Oahu Avenue,Honolulu,Hawaii,Oahu,8084400560,1299-C,2022/04/30 00:00:00+00,4,4,8,Ambulatory,Yes,Special
-157.820314499637,21.3042060001548,290,Manoa Senior Care A,Type II Expanded Adult Residential Care Home,Paul Dold,2250 Oahu Avenue,Honolulu,Hawaii,Oahu,8084400560,1253-C,2022/06/30 00:00:00+00,4,4,8,Ambulatory,Yes,Special
-157.820570999583,21.3043229995786,291,Manoa Senior Care B,Type II Expanded Adult Residential Care Home,Paul Dold,2240 Oahu Avenue,Honolulu,Hawaii,Oahu,8084400560,1262-C,2022/06/30 00:00:00+00,1,1,8,Ambulatory,Yes,Special
-157.813323082061,21.3121534796244,292,"Manoa Senior Care, L.L.C.",Type II Expanded Adult Residential Care Home,Paul Dold,2872 Oahu Avenue,Honolulu,Hawaii,Oahu,8084400560,1292-C,2022/04/30 00:00:00+00,2,2,8,Ambulatory,Yes,Special
-157.804241678798,21.3138254706432,293,Manoa Senior Living,Type I  Adult Residential Care Home,Laura Jackson,3147 Kahiwa Place,Honolulu,Hawaii,Oahu,8082005665,1582-C,2022/09/30 00:00:00+00,2,2,2,Fully Ambulatory,No,Special
-157.91963706481,21.3665511074227,294,Margee's Care Home LLC,Type I  Adult Residential Care Home,Marjorie  Racpan,1547 Haloa Drive,Honolulu,Hawaii,Oahu,8085976280,1596-C,2022/10/31 00:00:00+00,5,5,3,Fully Ambulatory,No,Special
-158.02799693311,21.3807253519898,295,Maria Norma Jacinto ARCH-EC,Type I Expanded Adult Residential Care Home,Maria Jacinto,94-332 Kipou Place,Waipahu,Hawaii,Oahu,8086807851,1263-C,2022/11/30 00:00:00+00,0,1,5,Ambulatory,Yes,Special
-158.08980309526,21.3445371963152,296,"Marie Malunao, LLC",Type I  Adult Residential Care Home,Marie Malunao,"98-801 Ahikoe Street, Suite B",Kapolei,Hawaii,Oahu,8084899612,1599-C,2022/01/31 00:00:00+00,4,4,4,Ambulatory,No,Special
-158.004695253368,21.3979016375731,297,Marie Viduya,Type I  Adult Residential Care Home,Rose Marie Viduya,94-1177 Halelehua Street,Waipahu,Hawaii,Oahu,8086717662,650-C,2022/09/30 00:00:00+00,0,1,5,Ambulatory,Yes,Special
-157.99272750028,21.4006320000744,298,Marina Manuel Care Home,Type I Expanded Adult Residential Care Home,Marina Manuel,94-1035 Lumikula Street,Waipahu,Hawaii,Oahu,8086718817,561-C,2022/07/31 00:00:00+00,0,1,5,Ambulatory,Yes,Special
-158.012128119977,21.3923288358476,299,"Marquez, Luz",Type I Expanded Adult Residential Care Home,Luz Marquez,94-908 Kumuao Street,Waipahu,Hawaii,Oahu,8086770932,467-C,2022/08/31 00:00:00+00,1,1,5,Ambulatory,Yes,Special
-158.023552391357,21.383491306839,300,"Marrhey Care Home, LLC",Type I Expanded Adult Residential Care Home,"Marrhey Care Home, LLC",94-211 Loaa Street,Waipahu,Hawaii,Oahu,8086710069,1091-C,2022/01/31 00:00:00+00,0,2,3,Ambulatory,Yes,Special
-157.855303178799,21.3259489620567,301,Martha's,Type I  Adult Residential Care Home,Maata Taumalolo,516 Ihe Street,Honolulu,Hawaii,Oahu,8085216181,1359-C,2022/06/30 00:00:00+00,0,1,4,Fully Ambulatory,No,Special
-158.009607312675,21.3918375028155,302,Martin Obaldo,Type I  Adult Residential Care Home,Martin Obaldo,94-572 Apii Place,Waipahu,Hawaii,Oahu,8086765384,1168-C,2022/06/30 00:00:00+00,1,0,3,Ambulatory,Yes,Special
-157.965521951279,21.3927993086394,303,Mary Ann's,Type I Expanded Adult Residential Care Home,Mary Ann Ford,745 Puu Kala Street,Pearl City,Hawaii,Oahu,8084563138,1249-C,2022/05/31 00:00:00+00,1,1,5,Ambulatory,Yes,Special
-157.997829473655,21.3885176466971,304,Mary ARCH,Type I Expanded Adult Residential Care Home,Marites Failma,94-231 Moena Place,,Hawaii,,,1630-C,2022/02/28 00:00:00+00,,,3,,No,
-157.858444143303,21.3517709167237,305,"Mary's Peaceful Haven, LLC",Type I  Adult Residential Care Home,Marivic Palting,2777 Kalihi Street,Honolulu,Hawaii,Oahu,8088471070,1604-C,2022/04/30 00:00:00+00,3,3,5,Fully Ambulatory,Yes,Regular
-157.899800264583,21.3551772212311,306,"Medy's ARCH I, Inc.",Type I Expanded Adult Residential Care Home,Mediatrix De Lara,1447 Ala Leleu Street,Honolulu,Hawaii,Oahu,8088330919,701-C,2022/01/31 00:00:00+00,1,1,5,Ambulatory,Yes,Special
-157.898980481939,21.350444653844,307,Medy's ARCH II,Type I Expanded Adult Residential Care Home,Mediatrix De Lara,1447 Ala Pili Loop,Honolulu,Hawaii,Oahu,8088330919,1502-C,2022/09/30 00:00:00+00,4,4,5,Ambulatory,Yes,Special
-157.993113760145,21.4041459398801,308,Mely Mueller,Type I  Adult Residential Care Home,Mely Ballocanag,94-949 Lumiloke Street,Waipahu,Hawaii,Oahu,8086779089,1140-C,2022/07/31 00:00:00+00,0,0,4,Ambulatory,No,Special
-158.021152603104,21.3981714555776,309,Michelle Cacayorin Adult Residential Care Home,Type I Expanded Adult Residential Care Home,Michelle Cacayorin,94-109 Palai Place,Waipahu,Hawaii,Oahu,8087442529,1584-C,2022/10/31 00:00:00+00,4,4,4,Ambulatory,Yes,Special
-157.999730732322,21.3925109212197,310,Mildred's,Type I Expanded Adult Residential Care Home,Mildred Bumanglag,94-1273 Peke Place,Waipahu,Hawaii,Oahu,8086713752,1290-C,2022/06/30 00:00:00+00,2,2,5,Ambulatory,Yes,Special
-158.019559787031,21.4659861647334,311,Mililani Care Home LLC,Type I Expanded Adult Residential Care Home,Sonia Galvez,95-117 Waikalani Drive,Mililani,Hawaii,Oahu,8082921603,1558-C,2021/12/31 00:00:00+00,5,5,5,Ambulatory,Yes,Special
-158.176329187118,21.4242230100519,312,MIVA ARCH,Type I Expanded Adult Residential Care Home,Imelda Arreola,87-158 Kaukamana Street,Waianae,Hawaii,Oahu,8083580746,1339-C,2022/05/31 00:00:00+00,3,2,5,Ambulatory,Yes,Special
-157.925461785797,21.3561924412495,313,MJB,Type I Expanded Adult Residential Care Home,Michelle Barranco,4221 Likini Street,Honolulu,Hawaii,Oahu,8085172114,1427-C,2022/06/30 00:00:00+00,2,2,5,Ambulatory,Yes,Special
-157.992578309168,21.3965842098675,314,Mona Liza,Type I  Adult Residential Care Home,Presentacion Valentin,94-455 Kahualena Street,Waipahu,Hawaii,Oahu,8086770524,535-C,2022/08/31 00:00:00+00,1,0,4,Ambulatory,No,Special
-158.008317172379,21.3921531193201,315,Monegas Care Home And Expanded ARCH,Type I Expanded Adult Residential Care Home,Brenda Monegas,94-913 Kuhaulua Street,Waipahu,Hawaii,Oahu,8086800636,1055-C,2022/06/30 00:00:00+00,1,1,5,Ambulatory,Yes,Special
-158.022326027715,21.3378773477205,316,Morning Glory Care Home,Type I  Adult Residential Care Home,Debbie Osorio,91-1531 Keonekapu Street,Ewa Beach,Hawaii,Oahu,8086854926,1617-C,2022/09/30 00:00:00+00,4,4,4,Fully Ambulatory,No,Special
-158.019144134484,21.3854162477143,317,Mother & Daughter,Type I  Adult Residential Care Home,Raynilda Guting,94-369 Apowale Street,Waipahu,Hawaii,Oahu,8086768893,1211-C,2022/01/31 00:00:00+00,0,1,5,Ambulatory,No,Special
-157.919886000356,21.3766199999359,318,MSI ARCH/EXPANDED ARCH,Type I Expanded Adult Residential Care Home,Marcelo Ibera,99-603 Alia Place,Aiea,Hawaii,Oahu,8084872893,1445-C,2022/08/31 00:00:00+00,1,1,5,Ambulatory,Yes,Special
-157.958835391088,21.390568304141,319,My Kind Heart,Type I  Adult Residential Care Home,Imelda Hyde,98-034 Kuleana Place,Pearl City,Hawaii,Oahu,8084921446,1610-C,2022/06/30 00:00:00+00,5,5,5,Ambulatory,Yes,Special
-156.464282227928,20.8736485253708,320,Myles Care Home,Type I  Adult Residential Care Home,Victoria Paranada,719 S. Kei Place,Kahului,Hawaii,Maui,8088777494,1051-C,2022/05/31 00:00:00+00,0,0,4,Ambulatory,No,Special
-157.999373088071,21.3971769521197,321,"Navarro, Rebecca",Type I Expanded Adult Residential Care Home,Rebecca Navarro,94-1354 Hiaai Place,Waipahu,Hawaii,Oahu,8086710294,695-C,2022/04/30 00:00:00+00,0,1,5,Ambulatory,Yes,Special
-157.995208988901,21.3853459028028,322,"Nebreja, Raymunda",Type I  Adult Residential Care Home,Raymunda Nebreja,94-023 Poailani Circle,Waipahu,Hawaii,Oahu,8086712291,542-C,2022/10/31 00:00:00+00,0,1,4,Ambulatory,No,Special
-159.362124400822,21.9950875012439,323,Negrillo ARCH & EARCH LLC,Type I  Adult Residential Care Home,Shirley Negrillo,4719 Opukea Street,Lihue,Hawaii,Kauai,8082411340,1485-C,2022/06/30 00:00:00+00,0,1,5,Ambulatory,Yes,Special
-157.908663734435,21.3460437607421,324,Nenita's,Type I Expanded Adult Residential Care Home,Nenita Andrada-Jose,5193 Likini Street,Honolulu,Hawaii,Oahu,8088336762,1157-C,2021/12/31 00:00:00+00,2,1,5,Ambulatory,Yes,Special
-157.950152234683,21.3872225767456,325,Nita's,Type I  Adult Residential Care Home,Anita Domingo,98-029 Lii-Ipo Street,Aiea,Hawaii,Oahu,8084882088,638-C,2022/05/31 00:00:00+00,1,0,5,Ambulatory,No,Regular
-157.889931077613,21.3693787203036,326,Nita's Quality Home Care Services,Type I  Adult Residential Care Home,Cionita Salvador,1533 Ala Iolani Place,Honolulu,Hawaii,Oahu,8088360489,330-C,2022/08/31 00:00:00+00,0,1,4,Fully Ambulatory,No,Special
-158.012343372736,21.3926618128324,327,Noemi's ARCH,Type I Expanded Adult Residential Care Home,Noemi Laguit,94-919 Kumuao Street,Waipahu,Hawaii,Oahu,8086777875,1192-C,2022/06/30 00:00:00+00,0,1,5,Ambulatory,Yes,Special
-157.925470804369,21.3589239483655,328,Nonales',Type I Expanded Adult Residential Care Home,Lilia Nonales,1035 Kukila Street,Honolulu,Hawaii,Oahu,8084211106,1181-C,2021/12/31 00:00:00+00,1,1,4,Ambulatory,No,Special
-157.864990069889,21.3432273180271,329,"Obrero, Esperanza",Type I  Adult Residential Care Home,Esperanza Obrero,1609 Maliu Street,Honolulu,Hawaii,Oahu,8088412142,708-C,2021/12/31 00:00:00+00,0,2,5,Ambulatory,No,Special
-157.881204513373,21.330157789099,330,Ohana,Type I Expanded Adult Residential Care Home,Carmen Dona,2011 Kaumualii Street,Honolulu,Hawaii,Oahu,8088423003,1212-C,2022/02/28 00:00:00+00,0,0,5,Ambulatory,No,Special
-158.008588140789,21.3953523205839,331,"Ohana Hale, L.L.C.",Type I Expanded Adult Residential Care Home,Jerry Felicitas,94-1063 Halelehua Street,Waipahu,Hawaii,Oahu,8086779718,1364-C,2021/11/30 00:00:00+00,1,1,5,Ambulatory,Yes,Special
-157.753491931956,21.2829875202055,332,Ohanalani L.L.C.,Type I Expanded Adult Residential Care Home,Nora Soriano-Trias,5339 Oio Drive,Honolulu,Hawaii,Oahu,8083775456,1470-C,2022/01/31 00:00:00+00,3,2,5,Ambulatory,Yes,Special
-157.746122999884,21.3998490000934,333,"Oililua Elder Care, Inc., #III",Type I Expanded Adult Residential Care Home,Norma Tenorio,429 B Ulupaina Street,Kailua,Hawaii,Oahu,8082637778,1489-C,2022/08/31 00:00:00+00,5,5,5,Ambulatory,Yes,Special
-157.746122999884,21.3998490000934,334,Oililua Eldercare Inc.,Type I Expanded Adult Residential Care Home,Geronimo Tenorio,429 Ulupaina Street Unit B1,Kailua,Hawaii,Oahu,8082637778,1556-C,2021/11/30 00:00:00+00,5,5,5,Ambulatory,Yes,Special
-158.022037874608,21.3851248628756,335,"Oililua Eldercare, Inc #I",Type I Expanded Adult Residential Care Home,Geronimo Tenorio,94-379 Oililua Place,Waipahu,Hawaii,Oahu,8086770882,1294-C,2022/01/31 00:00:00+00,2,3,5,Ambulatory,Yes,Special
-157.750632873813,21.4048262730243,336,"Oililua Senior Care, Inc., #II",Type I Expanded Adult Residential Care Home,Norma Tenorio,711 Oneawa Street,Kailua,Hawaii,Oahu,8082637778,1370-C,2022/02/28 00:00:00+00,2,3,5,Ambulatory,Yes,Special
-155.008315593151,19.5737910196172,337,Okano Care Home,Type I Expanded Adult Residential Care Home,Stacey Okano,16-1397 35th Avenue,Keaau,Hawaii,Big Island,8089827828,1525-C,2022/02/28 00:00:00+00,1,1,5,Ambulatory,Yes,Special
-157.796830162058,21.4159955842875,338,"Olalani Senior Care, LLC",Type II Expanded Adult Residential Care Home,Myriam Tabaniag,45-217 William Henry Road,Kaneohe,Hawaii,Oahu,8082358388,1567-C,2022/07/31 00:00:00+00,8,8,8,Ambulatory,Yes,Special
-157.802739353558,21.4042378062874,339,"Olipares, Celestina",Type I  Adult Residential Care Home,Celestina Olipares,45-693 Keneke Street,Kaneohe,Hawaii,Oahu,8082356993,729-C,2022/08/31 00:00:00+00,0,0,4,Ambulatory,No,Regular
-157.916706759626,21.3467882173211,340,"Olivas, Rosalinda",Type I Expanded Adult Residential Care Home,Rosalinda Olivas,3410 Aliamanu Street,Honolulu,Hawaii,Oahu,8084231002,1169-C,2022/07/31 00:00:00+00,3,3,5,Ambulatory,Yes,Special
-158.080056898219,21.3654021874165,341,Olivia Lewin's EARCH,Type I Expanded Adult Residential Care Home,Olivia Lewin,92-1336 Pueonani Street,Kapolei,Hawaii,Oahu,,1625-C,2021/12/31 00:00:00+00,,,,,No,Special
-157.73186388765,21.3912815992388,342,Pacific Care LLC,Type I  Expanded Adult Residential Care Home,Otilio Gimang,381 Wanaao Road,Kailua,Hawaii,Oahu,8087446903,1639-C,2021/12/31 00:00:00+00,,,5,,No,
-158.00360230927,21.3959371635513,343,"Padre, Norma",Type I  Adult Residential Care Home,Norma Padre,94-607 Mahoe Street,Waipahu,Hawaii,Oahu,8086777174,745-C,2022/04/30 00:00:00+00,2,2,5,Fully Ambulatory,No,Regular
-158.132343196029,21.5687145630563,344,"Padron, Martina",Type I  Adult Residential Care Home,Martina Padron,67-361 Farrington Highway,Waialua,Hawaii,Oahu,8086379918,415-C,2022/06/30 00:00:00+00,0,2,4,Ambulatory,Yes,Special
-157.923882448672,21.3529453167661,345,"Paguirigan, Marietta B.",Type I Expanded Adult Residential Care Home,Marietta Paguirigan,4007 Keaka Drive,Honolulu,Hawaii,Oahu,8084210171,1311-C,2022/05/31 00:00:00+00,2,3,5,Ambulatory,Yes,Special
-157.786335000389,21.3040889997394,346,Palolo Chinese Home Lani Booth,Type II Expanded Adult Residential Care Home,Darlene Nakayama,2459 10th Avenue,Honolulu,Hawaii,Oahu,8087351754,1563-C,2022/03/31 00:00:00+00,17,17,17,Ambulatory,Yes,Special
-157.782637251773,21.3059849729797,347,Palolo Korean Care Home,Type I Expanded Adult Residential Care Home,Sam Fujii,2565 Waiomao Road,Honolulu,Hawaii,Oahu,8082846259,1622-C,2022/06/30 00:00:00+00,5,5,5,Ambulatory,Yes,Special
-158.183474606115,21.4386064785602,348,Paradise ARCH,Type I Expanded Adult Residential Care Home,Marlyn Acuram,86-112 Hoaha Street,Waianae,Hawaii,Oahu,8086962430,1340-C,2022/05/31 00:00:00+00,3,2,5,Ambulatory,Yes,Special
-155.100779865898,19.6727130633026,349,Paranada #2,Type I Expanded Adult Residential Care Home,Leandro Paranada,16 Hoolaulea Street,Hilo,Hawaii,Big Island,8089597394,1245-C,2022/07/31 00:00:00+00,1,0,5,Ambulatory,No,Special
-158.007192689439,21.3948449878017,350,"Parubrub, Tina",Type I  Adult Residential Care Home,Tina Parubrub,94-1108 Hina Street,Waipahu,Hawaii,Oahu,8086713637,824-C,2022/09/30 00:00:00+00,0,1,4,Ambulatory,No,Regular
-157.859766084661,21.3483567398422,351,"Pascual, Esther",Type I  Adult Residential Care Home,Esther Pascual,1802 Wahine Place,Honolulu,Hawaii,Oahu,8088420227,791-C,2022/01/31 00:00:00+00,0,0,4,Ambulatory,No,Special
-157.789901623685,21.3989825501875,352,"Pascual, Marissa G.",Type I Expanded Adult Residential Care Home,Marissa G. Pascual,45-220 Namoku Street,Kaneohe,Hawaii,Oahu,8082357515,1183-C,2022/06/30 00:00:00+00,0,1,5,Ambulatory,Yes,Special
-158.010338439881,21.3126064380429,353,"Pascual, Soledad",Type I  Adult Residential Care Home,Soledad Pascual,91-711 Fort Weaver Road,Ewa Beach,Hawaii,Oahu,8086898569,770-C,2022/03/31 00:00:00+00,0,0,4,Fully Ambulatory,No,Special
-157.890237832271,21.3689745791645,354,Pascual's,Type I  Adult Residential Care Home,Trina Pascual,1521 Ala Iolani Place,Honolulu,Hawaii,Oahu,8088342970,342-C,2021/12/31 00:00:00+00,0,0,5,Fully Ambulatory,No,Special
-158.012211377523,21.3234748925709,355,Pat's ARCH & Expanded ARCH LLC,Type I Expanded Adult Residential Care Home,Patricia Nunez,91-1029 Hanakahi Street,Ewa Beach,Hawaii,Oahu,8086896800,1363-C,2022/09/30 00:00:00+00,0,1,5,Fully Ambulatory,Yes,Special
-157.924620000263,21.3617069999675,356,Pearl's Paradise,Type I  Adult Residential Care Home,Perlita Tabil,1304 Anapa Street,Honolulu,Hawaii,Oahu,8084239507,1580-C,2022/06/30 00:00:00+00,5,5,5,Ambulatory,Yes,Special
-157.859810826067,21.3449623589191,357,Pleasant Valley Type I EARCH,Type I Expanded Adult Residential Care Home,Joan Flores,1573 Kilohana Street,Honolulu,Hawaii,,,1638-C,2021/12/31 00:00:00+00,,,,,No,
-157.783126500096,21.4006229998692,358,Pohai Nani - 'Ahui Nani,Type I Expanded Adult Residential Care Home,Judith Matthews,45-090 Namoku Street,Kaneohe,Hawaii,Oahu,8082476211,1241-C,2022/01/30 00:00:00+00,1,1,5,Ambulatory,Yes,Special
-157.783126500096,21.4006229998692,359,Pohai Nani - 'Ahui 'Olu,Type I Expanded Adult Residential Care Home,Judith Matthews,45-090 Namoku Street,Kaneohe,Hawaii,Oahu,8082476211,1242-C,2022/01/31 00:00:00+00,1,1,5,Ambulatory,Yes,Special
-157.783126500096,21.4006229998692,360,Pohai Nani 'Ahui Laule'a,Type I Expanded Adult Residential Care Home,Judith Matthews,45-090 Namoku Street,Kaneohe,Hawaii,Oahu,8082476211,1325-C,2022/01/31 00:00:00+00,1,1,5,Ambulatory,Yes,Special
-157.783126500096,21.4006229998692,361,Pohai Nani 'Ahui Malie,Type I Expanded Adult Residential Care Home,Judith Matthews,45-090 Namoku Street,Kaneohe,Hawaii,Oahu,8082476211,1324-C,2022/01/31 00:00:00+00,1,1,5,Ambulatory,Yes,Special
-155.085801440135,19.6757747081901,362,Poncethia R. Rambo's,Type I Expanded Adult Residential Care Home,Poncethia Rambo,1621 Nohoana Place,Hilo,Hawaii,Big Island,8089598639,1476-C,2022/02/28 00:00:00+00,2,1,5,Ambulatory,Yes,Special
-157.924302929668,21.3566072150183,363,Precious Moment Adult Residential Care Home,Type I Expanded Adult Residential Care Home,Evangeline Andres,4229 Keaka Drive,Honolulu,Hawaii,Oahu,8084236358,1246-C,2022/01/31 00:00:00+00,1,1,5,Ambulatory,Yes,Special
-157.918770000432,21.3471179996935,364,"Prieto, Gloria",Type I Expanded Adult Residential Care Home,Gloria Prieto,3504 Likini Street,Honolulu,Hawaii,Oahu,8084222264,742-C,2022/07/31 00:00:00+00,0,1,5,Ambulatory,Yes,Special
-157.913953177088,21.3849752921212,365,Prime Health Services Care Home,Type I  Adult Residential Care Home,Rafael Antonio,99-1041 Halawa Heights Road,Aiea,Hawaii,Oahu,8084285844,1508-C,2021/12/31 00:00:00+00,5,5,5,Ambulatory,Yes,Special
-158.001913484271,21.5085415232232,366,Prime Health Services Care Home II,Type I Expanded Adult Residential Care Home,Rafael Antonio,107B Kilea Place,Wahiawa,Hawaii,Oahu,8084285844,1559-C,2022/02/28 00:00:00+00,5,5,5,Ambulatory,No,Special
-157.700105402864,21.2793400049602,367,Pualei Care Home,Type I Expanded Adult Residential Care Home,Ruby Jose,7246 Anakua Street,Honolulu,Hawaii,Oahu,8083589323,1550-C,2022/01/31 00:00:00+00,5,5,5,Ambulatory,Yes,Special
-157.924848471956,21.3538680946108,368,"Quiocho, Lolita",Type I  Adult Residential Care Home,Lolita Quiocho,4103 Likini Street,Honolulu,Hawaii,Oahu,8084226128,810-C,2022/09/30 00:00:00+00,0,1,4,Fully Ambulatory,No,Regular
-157.967400257615,21.4084351670439,369,"Quitevis, Elena",Type I  Adult Residential Care Home,Elena Quitevis,1614 Maluawai Street,Pearl City,Hawaii,Oahu,8084557346,750-C,2022/01/31 00:00:00+00,0,1,5,Ambulatory,No,Special
-158.025890645441,21.5101333642174,370,R & A Care Home,Type I Expanded Adult Residential Care Home,Amalia Garcia-Lindenmuth,123 Uakanikoo Place,Wahiawa,Hawaii,Oahu,8088888925,1607-C,2022/06/30 00:00:00+00,5,5,5,AMB,Yes,Special
-158.012219963669,21.392435158706,371,R & B ARCH/E-ARCH LLC,Type I Expanded Adult Residential Care Home,Remedios Aguinaldo,94-912 Kumuao Street,Waipahu,Hawaii,Oahu,8082348241,1429-C,2022/06/30 00:00:00+00,1,1,5,Ambulatory,Yes,Special
-158.019824804348,21.3889239626125,372,"R & M Duran, L.L.C.",Type I Expanded Adult Residential Care Home,Marenila Duran,94-628 Loa'a Street,Waipahu,Hawaii,Oahu,8086780150,1315-C,2022/07/31 00:00:00+00,2,2,5,Ambulatory,Yes,Special
-157.934888711969,21.364427629245,373,R & P Villanueva Adult Residential Care Home,Type I  Adult Residential Care Home,Precy Villanueva,99-058 Ohiaku Street,Aiea,Hawaii,,,1653-C,2022/04/30 00:00:00+00,,,,,No,
-158.008166999664,21.3240634999142,374,R.K.C. ARCH,Type I Expanded Adult Residential Care Home,Josephine Fitzgerald,91-938 Hanakahi Street,Ewa Beach,Hawaii,Oahu,8083477532,1269-C,2021/11/30 00:00:00+00,2,1,3,Ambulatory,Yes,Special
-159.381481093571,22.0587035768105,375,Rabaino's,Type I  Adult Residential Care Home,Lalaine Rabaino,328 Hie Street,Kapaa,Hawaii,Kauai,8088229753,1250-C,2022/03/31 00:00:00+00,0,1,5,Ambulatory,Yes,Regular
-157.950278535527,21.4062471718007,376,Rafael Care Home,Type I Expanded Adult Residential Care Home,Marlene Rafael,98-1713 Laauhuahua Way,Pearl City,Hawaii,Oahu,8084559282,1385-C,2021/12/31 00:00:00+00,1,0,5,Ambulatory,Yes,Special
-158.019763300258,21.3846443316783,377,"Rafael, Evelyn",Type I Expanded Adult Residential Care Home,Evelyn Rafael,94-105 Haaa Street,Waipahu,Hawaii,Oahu,8086719717,1082-C,2022/10/31 00:00:00+00,0,1,5,Ambulatory,Yes,Special
-157.999736252725,21.3817003601877,378,Raguindin Malama Kauhale ARCH,Type I Expanded Adult Residential Care Home,Belma Raguindin,94-088 Awamoku Street,Waipahu,Hawaii,Oahu,8086777464,1025-C,2021/12/31 00:00:00+00,2,2,5,Ambulatory,Yes,Special
-158.019034804363,21.4560103500012,379,Rainbow Adult Residential Care Home/Expanded ARCH,Type I Expanded Adult Residential Care Home,Debbie Borgonia,95-195 Aumea Loop,Mililani,Hawaii,Oahu,8086252425,1510-C,2022/03/31 00:00:00+00,5,5,5,Ambulatory,Yes,Special
-155.003864519624,19.5677040848838,380,Ramelb Adult Residential Care Home,Type I Expanded Adult Residential Care Home,Evelyn Ramelb,16-1508 35th Avenue,Keaau,Hawaii,Big Island,8089669553,1504-C,2022/10/31 00:00:00+00,4,4,4,Ambulatory,Yes,Special
-157.973386499952,21.4038630002501,381,Ramos Care Center LLC,Type I Expanded Adult Residential Care Home,Kathleen Ramos,1365 Kuahaka Street,Pearl City,Hawaii,Oahu,8087726090,1621-C,2021/11/30 00:00:00+00,3,3,3,Fully Ambulatory,No,Special
-157.925323548475,21.3524705477719,382,"Ramos, Arsenia",Type I  Adult Residential Care Home,Arsenia Ramos,4028 Salt Lake Boulevard,Honolulu,Hawaii,Oahu,8084224886,711-C,2022/06/30 00:00:00+00,0,1,1,Fully Ambulatory,No,Regular
-157.885024236683,21.3721264022072,383,"Ramos, Consolacion",Type I  Adult Residential Care Home,Consolacion Ramos,1742 Ala Aolani Place,Honolulu,Hawaii,Oahu,8088339812,618-C,2021/12/31 00:00:00+00,0,0,3,Fully Ambulatory,No,Special
-157.918082888574,21.3465328196129,384,Raqueno Care Home,Type I Expanded Adult Residential Care Home,Melkarth Raqueno,3454 Likini Street,Honolulu,Hawaii,Oahu,8084224324,1603-C,2022/04/30 00:00:00+00,5,5,5,Fully Ambulatory,Yes,Special
-155.074172942745,19.6928084487115,385,Raza Adult Residential Care Home-Expanded Care,Type I Expanded Adult Residential Care Home,Ruth Raza,61 Kehaulani Street,Hilo,Hawaii,Big Island,8089593166,1501-C,2021/12/31 00:00:00+00,4,4,5,Ambulatory,Yes,Special
-156.486876663152,20.8849192933119,386,Residential Care of Maui LLC,Type I Expanded Adult Residential Care Home,Roseminic Ulep,360 Hilu Place,Kahului,Hawaii,Maui,8082693098,1652-C,2022/03/31 00:00:00+00,,,5,,No,
-155.084463313868,19.6912313842668,387,"Respicio, Maria",Type I  Adult Residential Care Home,Maria Respicio,328 Wainohia Place,Hilo,Hawaii,Big Island,8089597246,687-C,2022/03/31 00:00:00+00,0,0,5,Ambulatory,Yes,Special
-157.995413862574,21.4049862606212,388,Reyes Care Home,Type I  Adult Residential Care Home,Corazon Reyes,94-931-A Lumihoahu Street,Waipahu,Hawaii,Oahu,8086710606,532-C,2022/01/31 00:00:00+00,1,2,5,Ambulatory,No,Special
-157.859581500011,21.3461999999532,389,"Reyes, Cesaria",Type I  Adult Residential Care Home,Cesaria Reyes,2602 Nihi Street,Honolulu,Hawaii,Oahu,8088430597,812-C,2022/10/31 00:00:00+00,0,0,2,Fully Ambulatory,No,Special
-155.051599549907,19.6008114243427,390,Riingen ARCH/Expanded ARCH,Type I Expanded Adult Residential Care Home,Benita Riingen,17-559 Ipuaiwaha Street,Keaau,Hawaii,Big Island,8089823658,1524-C,2022/01/31 00:00:00+00,2,2,5,Ambulatory,Yes,Special
-158.021217062782,21.3888195585638,391,RJ Santiago ARCH & E-ARCH,Type I Expanded Adult Residential Care Home,Juliet Santiago,94-571 Loaa Street,Waipahu,Hawaii,Oahu,8086718901,1204-C,2022/10/31 00:00:00+00,1,1,5,Ambulatory,Yes,Special
-157.997497089971,21.3846668063388,392,"RMJ Adult Care Home, Inc.",Type I  Adult Residential Care Home,Maricel Rosario,94-1048 Awalai Street,Waipahu,Hawaii,Oahu,8086769848,1591-C,2022/06/30 00:00:00+00,5,5,5,Ambulatory,Yes,Special
-158.004671406456,21.3973969856174,393,RNF Rainbow Adult Residential Care Home LLC,Type I Expanded Adult Residential Care Home,Rosemary Cayabyab,94-1178 Hoomakoa Street,Waipahu,Hawaii,Oahu,8086641022,1619-C,2021/11/30 00:00:00+00,3,3,3,Ambulatory,No,Regular
-157.966772679423,21.4091827661884,394,Rodriguez Care Home,Type I Expanded Adult Residential Care Home,Teresita Rodriguez,1647 Paaaina Place,Pearl City,Hawaii,Oahu,8084554465,1029-C,2022/06/30 00:00:00+00,0,1,5,Ambulatory,Yes,Special
-157.99148091173,21.3951891897847,395,Ronidel Care Home,Type I Expanded Adult Residential Care Home,Milagros Ronidel,94-407 Kahualena Street,Waipahu,Hawaii,Oahu,,1628-C,2022/02/28 00:00:00+00,,,,,No,
-158.001778691556,21.3813550592957,396,Rosana Dumlao,Type I Expanded Adult Residential Care Home,Rosana Dumlao,94-871 Awanei Street,Waipahu,Hawaii,Oahu,8086710166,1053-C,2022/05/31 00:00:00+00,1,0,5,Ambulatory,Yes,Special
-158.003707510105,21.3926786077578,397,Rosario,Type I Expanded Adult Residential Care Home,Rosario Gomez,94-1134 Hapapa Street,Waipahu,Hawaii,Oahu,8086712609,1494-C,2021/12/31 00:00:00+00,3,3,5,Ambulatory,Yes,Special
-158.032353770951,21.4982183388431,398,"Rosario, Trinidad",Type I  Adult Residential Care Home,Trinidad Rosario,372 Pakauwili Drive,Wahiawa,Hawaii,Oahu,8086210819,712-C,2022/06/30 00:00:00+00,2,2,5,Ambulatory,No,Special
-157.966486637567,21.4112336243124,399,Rose Hwang's Care Home,Type I Expanded Adult Residential Care Home,Rose Hwang,1755 Palamoi Street,Pearl City,Hawaii,Oahu,8087411611,1399-C,2022/06/30 00:00:00+00,0,0,4,Ambulatory,Yes,Special
-157.920636354461,21.355205951878,400,Roselle Ragasa Adult Residential Care Home (ARCH) Corp.,Type I  Adult Residential Care Home,Roselle Ragasa,4523 Likini Street,Honolulu,Hawaii,Oahu,8086224177,1593-C,2022/09/30 00:00:00+00,5,5,5,Ambulatory,Yes,Special
-155.984922062627,19.7197266019654,401,"Ruth's House, L.L.C.",Type I Expanded Adult Residential Care Home,Leigha Huber,73-4318 Keo Keo Street,Kailua-Kona,Hawaii,Big Island,8083256283,1374-C,2022/06/30 00:00:00+00,2,2,5,Ambulatory,Yes,Special
-158.026567076815,21.381439922907,402,Sagadraca Care Home,Type I Expanded Adult Residential Care Home,Sagadraca Aurora,94-329 Kiokio Place,Waipahu,Hawaii,Oahu,8086713695,1070-C,2022/02/28 00:00:00+00,0,1,5,Ambulatory,Yes,Special
-157.877005499992,21.3341399996493,403,"Sagaysay, Makrina",Type I  Adult Residential Care Home,Makrina Sagaysay,1112 Kopke Street,Honolulu,Hawaii,Oahu,8088480451,802-C,2022/09/30 00:00:00+00,1,0,3,Ambulatory,No,Special
-158.005863895445,21.3975794693508,404,"Sales, Abner",Type I Expanded Adult Residential Care Home,Abner Sales,94-1156 Halelehua Street,Waipahu,Hawaii,Oahu,8086765140,1343-C,2022/07/31 00:00:00+00,0,1,5,Ambulatory,Yes,Special
-155.064747096827,19.6861154666553,405,"Salvador, Catherine",Type I Expanded Adult Residential Care Home,Catherine Salvador,2318 Awapuhi Street,Hilo,Hawaii,Big Island,8089810613,1419-C,2022/02/28 00:00:00+00,3,2,5,Ambulatory,Yes,Special
-158.008288031824,21.3946741046768,406,"Sambajon, Remedios",Type I  Adult Residential Care Home,Remedios Sambajon,94-1042 Halelehua Street,Waipahu,Hawaii,Oahu,8086783612,677-C,2022/07/31 00:00:00+00,2,0,5,Ambulatory,No,Special
-157.924096617849,21.3567258199694,407,"Santos, Norma",Type I  Adult Residential Care Home,Norma Santos,4240 Keaka Drive Honolulu,Honolulu,Hawaii,Oahu,8084237454,1214-C,2022/01/31 00:00:00+00,2,0,5,Fully Ambulatory,No,Regular
-157.870408500275,21.3382709996431,408,Sebastian's ARCH LLC,Type I Expanded Adult Residential Care Home,Adelina Sebastian,1630 Leilani Street,Honolulu,Hawaii,Oahu,8088452461,761-C,2022/07/31 00:00:00+00,0,1,5,Ambulatory,No,Regular
-157.803188754191,21.4130380854479,409,"Selga, Natividad",Type I  Adult Residential Care Home,Natividad Selga,45-933 Keaahala Place,Kaneohe,Hawaii,Oahu,8082471699,817-C,2021/12/31 00:00:00+00,0,0,5,Ambulatory,No,Special
-157.792012802356,21.2838326210783,410,"Senior Living With Aloha, L.L.C.",Type I Expanded Adult Residential Care Home,Mohammed Rumi,1419 16th Avenue,Honolulu,Hawaii,Oahu,8083832597,1443-C,2022/06/30 00:00:00+00,3,2,5,Ambulatory,Yes,Special
-157.755396188834,21.4092970608538,411,"Sera, Aurora",Type I Expanded Adult Residential Care Home,Aurora Sera,1305 Mokapu Boulevard,Kailua,Hawaii,Oahu,8082546124,1107-C,2022/03/31 00:00:00+00,0,0,5,Ambulatory,Yes,Special
-157.995328907954,21.3913584161436,412,"Serapion, Shirley",Type I Expanded Adult Residential Care Home,Shirley Serapion,94-258 Kahuahele Street,Waipahu,Hawaii,Oahu,8086716376,637-C,2022/04/30 00:00:00+00,0,1,5,Ambulatory,Yes,Special
-157.683777630807,21.3043746531148,413,Serenity Care Home Hawaii Kai,Type I  Adult Residential Care Home,Ana Jose,1072 Kalapaki Street,Honolulu,Hawaii,Oahu,8084921033,1590-C,2022/06/30 00:00:00+00,5,5,5,Ambulatory,Yes,Special
-158.009301064169,21.3915059779815,414,Serenity Hawaii Carehome LLC,Type I Expanded Adult Residential Care Home,Claudia Cabrera-Prantl,94-559 Apii Place,Waipahu,Hawaii,Oahu,8082029465,1545-C,2022/04/30 00:00:00+00,5,5,5,Ambulatory,Yes,Special
-158.003435037689,21.3240881738115,415,Sharolyn L Galamay LLC,Type I  Adult Residential Care Home,Sharolyn Galamay,91-1141 Kauiki Street,Ewa Beach,Hawaii,Oahu,8086897092,1398-C,2022/06/30 00:00:00+00,1,1,4,Ambulatory,No,Special
-157.995555228203,21.3975517166272,416,Simpliciano's ARCH,Type I Expanded Adult Residential Care Home,Ofelia Simpliciano,94-106 Kaupu Place,Waipahu,Hawaii,Oahu,8086710396,1133-C,2022/06/30 00:00:00+00,2,2,5,Ambulatory,Yes,Special
-157.960936216049,21.4017912177747,417,"Snouffer, Cely",Type I  Adult Residential Care Home,Cely Snouffer,712 Hoomalimali Street,Pearl City,Hawaii,Oahu,8084540741,681-C,2022/11/30 00:00:00+00,0,0,5,Ambulatory,No,Regular
-155.086212199807,19.6839010013655,418,"Solmerin, Ofelia",Type I Expanded Adult Residential Care Home,Ofelia Solmerin,366 Kapualani Street,Hilo,Hawaii,Big Island,8089598421,663-C,2022/02/28 00:00:00+00,1,0,5,Ambulatory,Yes,Special
-157.874812374534,21.3413258981566,419,Soriano Care Home,Type I Expanded Adult Residential Care Home,Helen Soriano,2307 North School Street,Honolulu,Hawaii,Oahu,8088450512,1276-C,2021/12/31 00:00:00+00,1,0,5,Ambulatory,Yes,Special
-157.864344758857,21.3435403676832,420,STS Adult Foster Service LLC,Type I Expanded Adult Residential Care Home,Steven Scott Jr.,1604 Perry Street,Honolulu,Hawaii,Oahu,8083689378,1613-C,2022/07/31 00:00:00+00,5,5,5,Ambulatory,Yes,Regular
-157.795339864662,21.3902160671116,421,Suenaga II,Type I  Adult Residential Care Home,Stacy Perry,45-390 Kamehameha Highway,Kaneohe,Hawaii,Oahu,8082363465,1264-C,2022/11/30 00:00:00+00,1,2,5,Ambulatory,Yes,Special
-157.92174012039,21.3655487637328,422,Suetos Care Home,Type I  Adult Residential Care Home,Ederlina Suetos,4415 Ukali Street,Honolulu,Hawaii,Oahu,8084228757,1411-C,2022/10/31 00:00:00+00,3,2,5,Ambulatory,Yes,Special
-157.861224000016,21.3298200001641,423,Sun Moon,Type I Expanded Adult Residential Care Home,Maria Gallego,1020 Hala Drive,Honolulu,Hawaii,Oahu,8085951073,1366-C,2022/01/31 00:00:00+00,2,0,5,Ambulatory,Yes,Special
-157.874530006636,21.3370511905673,424,Superior Care Group L.L.C.,Type I  Adult Residential Care Home,Shanelle Baxa,2115 Gertz Lane #A,Honolulu,Hawaii,Oahu,8084971797,1605-C,2022/05/31 00:00:00+00,5,5,5,Fully Ambulatory,Yes,Special
-157.874771987453,21.3360733040842,425,"Susan's Adult Residential Care, LLC",Type I Expanded Adult Residential Care Home,Susan Ramiro,1315 Gulick Avenue,Honolulu,Hawaii,Oahu,8088452879,1338-C,2022/03/31 00:00:00+00,0,2,5,Ambulatory,Yes,Special
-157.961158275183,21.3946223346912,426,Sweet Haven,Type I Expanded Adult Residential Care Home,Bernardo Fogata,98-1274 Hoohuali Place,Pearl City,Hawaii,Oahu,8084564749,1394-C,2022/03/31 00:00:00+00,2,2,4,Ambulatory,Yes,Special
-157.793192165738,21.4067054688028,427,"T & F Home Services, L.L.C.",Type I Expanded Adult Residential Care Home,Francesca Mafua,45-339 Kahowaa Place,Kaneohe,Hawaii,Oahu,8085907769,1403-C,2022/06/30 00:00:00+00,4,4,4,Ambulatory,Yes,Special
-157.998369857454,21.3954204440648,428,"Tablit, Elpidio",Type I  Adult Residential Care Home,Elpidio Tablit,94-544 Hiahia Loop,Waipahu,Hawaii,Oahu,8086715255,982-C,2022/05/31 00:00:00+00,0,0,5,Fully Ambulatory,No,Regular
-157.994378095354,21.403614791762,429,Tabora's,Type I Expanded Adult Residential Care Home,Lourdes Tabora,94-970 Lumihoahu Street,Waipahu,Hawaii,Oahu,8086778767,1106-C,2022/05/31 00:00:00+00,0,1,5,Ambulatory,No,Special
-157.912275312309,21.3493842834251,430,Tacotaco ARCH,Type I Expanded Adult Residential Care Home,Cristeta Tacotaco,1017 Ala Lehua Street,Honolulu,Hawaii,Oahu,8088335178,1360-C,2022/07/31 00:00:00+00,0,2,5,Ambulatory,Yes,Special
-155.051490576101,19.600967472951,431,Tadeo,Type I Expanded Adult Residential Care Home,Rianalyn Handy,17-566 S. Ipu'aiwaha Street,Keaau,Hawaii,Big Island,8089827274,1163-C,2022/05/31 00:00:00+00,0,0,4,Ambulatory,Yes,Special
-157.997832951378,21.3883064539182,432,Tangonan Adult Residential Care Home,Type I Expanded Adult Residential Care Home,Edna Tangonan,94-228 Moena Place,Waipahu,Hawaii,Oahu,8086869357,1407-C,2022/08/31 00:00:00+00,0,1,5,Ambulatory,Yes,Special
-157.961385251871,21.4061350866498,433,Tanisue Care Home,Type I Expanded Adult Residential Care Home,Clarisa Tanisue,1615 Hoolana Street,Pearl City,Hawaii,Oahu,8084559217,1469-C,2021/12/31 00:00:00+00,2,1,5,Ambulatory,Yes,Special
-157.994619532584,21.3927050331357,434,Tender Loving Care,Type I  Adult Residential Care Home,Jovita Ibon,94-1227 Kahuanui Street,Waipahu,Hawaii,Oahu,8086710695,1124-C,2022/02/28 00:00:00+00,0,0,5,Fully Ambulatory,No,Regular
-157.872789570053,21.3436599233954,435,"Tender Loving Care G. Care Home, LLC",Type I Expanded Adult Residential Care Home,Grace Fernim,1730 Kilohi Street,Honolulu,Hawaii,Oahu,8088450742,1620-C,2021/11/30 00:00:00+00,5,5,5,Ambulatory,No,Regular
-157.750123040585,21.4172868203668,436,The Paperbark House,Type I Expanded Adult Residential Care Home,Ian Taylor,1038 Mokapu Boulevard,Kailua,Hawaii,Oahu,8082863274,1592-C,2022/07/31 00:00:00+00,5,5,5,Ambulatory,Yes,Special
-157.969517766123,21.3906341198028,437,TJ Factora Care Home,Type I Expanded Adult Residential Care Home,Tessie Factora,830 Second Street,Pearl City,Hawaii,Oahu,8084566084,1520-C,2022/11/30 00:00:00+00,5,5,5,Ambulatory,Yes,Special
-157.919859943744,21.3860672217478,438,"TLC Ohana Hale, Inc.",Type I Expanded Adult Residential Care Home,Lilibeth Caoile,99-019 Kealakaha Drive,Aiea,Hawaii,Oahu,8082551151,1434-C,2022/11/30 00:00:00+00,3,2,5,Ambulatory,Yes,Special
-158.02342039701,21.5118517881015,439,Ugalino ARCH,Type I  Adult Residential Care Home,Josefina Ugalino,1017 Ehoeho Avenue,Wahiawa,Hawaii,Oahu,8086216174,882-C,2021/12/31 00:00:00+00,1,1,5,Fully Ambulatory,No,Special
-157.856584499874,21.3472080003538,440,"Ulep, Juanita",Type I  Adult Residential Care Home,Juanita Ulep,2817 Nihi Street,Honolulu,Hawaii,Oahu,8088451459,836-C,2022/10/31 00:00:00+00,0,0,5,Ambulatory,No,Special
-157.925205711546,21.3648932389793,441,"United Family Care Home, LLC",Type I Expanded Adult Residential Care Home,Helen Go,1328 Molehu Drive,Honolulu,Hawaii,Oahu,8084211775,1143-C,2022/08/31 00:00:00+00,0,0,5,Ambulatory,Yes,Special
-157.992956382317,21.403262106975,442,Valdez Care Home,Type I Expanded Adult Residential Care Home,Minda Valdez,94-1031 Lumiauau Street,Waipahu,Hawaii,Oahu,8086775398,751-C,2022/01/31 00:00:00+00,0,0,5,Ambulatory,Yes,Special
-157.963670607148,21.4126506341319,443,"Valley View Pearl City, LLC",Type I Expanded Adult Residential Care Home,Carol Fardal,944 Maiha Circle,Pearl City,Hawaii,Oahu,8086645701,1380-C,2022/09/30 00:00:00+00,2,2,5,Ambulatory,Yes,Special
-157.963355672898,21.4073521389853,444,"Valley View, Pearl City, LLC",Type I Expanded Adult Residential Care Home,Hiedi Lorraine Halbert,1644 Hoohalike Street,Pearl City,Hawaii,,,1642-C,2022/01/31 00:00:00+00,,,5,,No,
-157.994102397533,21.3924041450222,445,Vargas Care Home,Type I Expanded Adult Residential Care Home,Levy Vargas,94-296 Kahuahele Street,Waipahu,Hawaii,Oahu,8086712088,521-C,2022/02/28 00:00:00+00,0,0,5,Ambulatory,Yes,Special
-157.879167143752,21.3396336452078,446,Veronica Esteban Care Home,Type I  Adult Residential Care Home,Veronica Esteban,1342 Kamehameha IV Road,Honolulu,Hawaii,Oahu,8088883402,297-C,2022/04/30 00:00:00+00,1,0,5,Ambulatory,No,Special
-157.913905500218,21.3845940000056,447,Vicky's,Type I  Adult Residential Care Home,Victoria Eischen,99-1002-D Puumakani Street,Aiea,Hawaii,Oahu,8084880504,547-C,2022/11/30 00:00:00+00,0,1,5,Ambulatory,Yes,Special
-157.866881819363,21.3412142523866,448,Victoria,Type I  Adult Residential Care Home,Elena Ragasa,1705 Ema Place,Honolulu,Hawaii,Oahu,8088451820,1054-C,2022/06/30 00:00:00+00,1,0,4,Ambulatory,No,Special
-157.998915556187,21.3969383967451,449,Victoria Expanded Care Home LLC,Type I Expanded Adult Residential Care Home,Vicky Bagain,94-1381 Hiaai Place,Waipahu,Hawaii,Oahu,8086717308,319-C,2022/07/31 00:00:00+00,0,0,5,Ambulatory,Yes,Special
-158.033207004762,21.3862882838181,450,Victoria Gabriella Care Home,Type I  Adult Residential Care Home,Aida Rufo,94-100 Kauweke Place,Waipahu,Hawaii,Oahu,8087826184,1540-C,2022/01/31 00:00:00+00,5,5,5,Ambulatory,Yes,Special
-158.00434352944,21.3962201129235,451,"Viernes, May G.",Type I  Adult Residential Care Home,May Viernes,94-1184 Hina Street,Waipahu,Hawaii,Oahu,8086764787,1243-C,2022/02/28 00:00:00+00,0,1,5,Ambulatory,Yes,Special
-157.993059067914,21.392946534379,452,Vilas Home Care Inc,Type I Expanded Adult Residential Care Home,Anabel Vila,94-1254 Kahuaina Street,Waipahu,Hawaii,Oahu,8088886489,1572-C,2022/06/30 00:00:00+00,5,5,5,Ambulatory,Yes,Special
-157.910072381389,21.3475499149735,453,Vilas Home Care Inc II,Type I Expanded Adult Residential Care Home,Anabel Vila,5119 B Likini Street,Honolulu,Hawaii,Oahu,8088886489,1601-C,2022/01/31 00:00:00+00,5,5,5,Ambulatory,Yes,Special
-157.86189174973,21.3506511334221,454,Vilas Home Care Inc. III,Type I Expanded Adult Residential Care Home,Anabel Vila,2435 Kula Kolea Drive,Honolulu,Hawaii,Oahu,8088886489,1640-C,2021/12/31 00:00:00+00,,,5,,No,
-158.033193962283,21.3862549778368,455,Village Park Adult Residential Care Home,Type I  Adult Residential Care Home,Marilou Peralta,94-101 Kauweke Place,Waipahu,Hawaii,Oahu,8086773520,1551-C,2022/04/30 00:00:00+00,3,3,4,Ambulatory,No,Special
-158.018814710764,21.3827724599517,456,"Villar, Marylin",Type I  Adult Residential Care Home,Marylin Villar,94-242 Pupukahi Street,Waipahu,Hawaii,Oahu,8086781482,876-C,2022/02/28 00:00:00+00,1,0,5,Ambulatory,Yes,Special
-157.923197999807,21.3510779998565,457,"Violet's Care Home, Inc.",Type I Expanded Adult Residential Care Home,Violet Sadural,1104 Wiliki Drive,Honolulu,Hawaii,Oahu,8084230553,1167-C,2022/05/31 00:00:00+00,0,0,5,Ambulatory,Yes,Special
-157.815176167255,21.2918067678818,458,Waialae Senior Living,Type I  Adult Residential Care Home,Jane Takebayashi,2945 Kalei Road,Honolulu,Hawaii,Oahu,8089416960,1553-C,2022/07/31 00:00:00+00,0,0,5,Ambulatory,Yes,Special
-157.815176167255,21.2918067678818,459,Waialae Senior Living 2,Type I  Adult Residential Care Home,Jane Takebayashi,2945-A Kalei Road,Honolulu,Hawaii,Oahu,8084885521,1571-C,2022/10/31 00:00:00+00,5,5,5,Ambulatory,Yes,Special
-159.381621055943,22.0561186168786,460,Wailua Ohana Inc.,Type I  Adult Residential Care Home,Debra Apor-Bahnmiller,187 Lihau Street,Kapaa,Hawaii,Kauai,8088238004,1569-C,2022/10/31 00:00:00+00,2,2,4,Ambulatory,Yes,Special
-158.003243999981,21.3941790001375,461,Waipahu Hale,Type I Expanded Adult Residential Care Home,Aga Antonio,94-1201 Huakai Street,Waipahu,Hawaii,Oahu,8086771424,1454-C,2021/12/31 00:00:00+00,2,2,5,Ambulatory,Yes,Special
-157.853301799988,21.3489942838156,462,Weber's,Type I Expanded Adult Residential Care Home,Weber Perla,3056 Nihi Street,Honolulu,Hawaii,Oahu,8088432061,1285-C,2022/02/28 00:00:00+00,0,1,5,Ambulatory,Yes,Special
-157.751952023084,21.4253362473268,463,Wilson Senior Living Kailua,Type II Adult Residential Care Home,Shelley Wilson,96 Kaneohe Bay Drive,Kailua,Hawaii,Oahu,8082537460,1513-C,2022/06/30 00:00:00+00,22,22,22,Ambulatory,Yes,Special
-157.795784702464,21.2790987763942,464,Winmax Senior Care L.L.C.,Type II Expanded Adult Residential Care Home,Paul Dold,3808 Harding Avenue,Honolulu,Hawaii,Oahu,8084400560,1313-C,2022/07/31 00:00:00+00,4,4,8,Ambulatory,Yes,Special
-158.015781716773,21.3829263712156,465,Wisdom Home Care LLC,Type I Expanded Adult Residential Care Home,Maricor Dela Cruz,94-234 Waikele Road,Waipahu,Hawaii,Oahu,8083835409,1633-C,2022/03/31 00:00:00+00,,,4,,No,Special
-157.795550999838,21.3898409996486,466,Yamashiro Care Home L.L.C.,Type I Expanded Adult Residential Care Home,Vivian Yamashiro,45-386 Kamehameha Highway,Kaneohe,Hawaii,Oahu,8082852604,1412-C,2021/12/31 00:00:00+00,1,3,5,Ambulatory,Yes,Special
-157.810113255834,21.2806976030489,467,Yaying House Inc.,Type I Expanded Adult Residential Care Home,Yaying Liu,3285 Olu Street,Honolulu,Hawaii,Oahu,8087378307,1376-C,2022/06/30 00:00:00+00,3,2,5,Ambulatory,Yes,Special
-157.923035999692,21.358421999898,468,Yolanda Razon-Collo,Type I Expanded Adult Residential Care Home,Yolanda Razon-Collo,4345 Likini Street,Honolulu,Hawaii,Oahu,8084227881,1117-C,2022/10/31 00:00:00+00,0,0,5,Ambulatory,Yes,Special
-157.965515454436,21.4123714566812,469,Yoon's Care Home,Type I Expanded Adult Residential Care Home,Yoon Young,1754 Komo Mai Drive,Pearl City,Hawaii,Oahu,8083921091,1517-C,2022/08/31 00:00:00+00,5,5,5,Ambulatory,Yes,Special
-157.959840472149,21.3971752129717,470,"Zen Residences, L.L.C.",Type I Expanded Adult Residential Care Home,Agbunag Jarrah,432 Hoomalu Street,Pearl City,Hawaii,Oahu,8083885285,1460-C,2022/06/30 00:00:00+00,3,2,5,Ambulatory,Yes,Special
-158.129013792088,21.5783728022653,471,Zenaida's,Type I  Adult Residential Care Home,Zenaida Rivera,67-435 Kukea Circle,Waialua,Hawaii,Oahu,8086379770,488-C,2022/01/31 00:00:00+00,1,1,5,Ambulatory,Yes,Special
