X,Y,objectid,sch_code,sch_name,address,city,zip,phone,fax,principal,grade_from,grade_to,sch_type,website,complex,complex_area,district,island,charter,editdate
-158.000581541559,21.3931193128623,1,250,Ahrens Elementary,94-1170 Waipahu Street,Waipahu,96797,808.675.0202,808.675.0216,Hanh Quang Nguyen,K,6,Elementary,http://www.augustahrens.org/,Waipahu,Pearl City-Waipahu,Leeward,Oahu,0,2023/02/02 00:00:00+00
-157.830406613347,21.4355995288096,2,335,Ahuimanu Elementary,47-470 Hui Aeko Place,Kaneohe,96744,808.239.3125,808.239.3127,Kimi Yuki Ikeda,K,6,Elementary,https://sites.google.com/a/ahuimanu.k12.hi.us/ahuimanu-school/home,Castle,Castle-Kahuku,Windward,Oahu,0,2023/02/02 00:00:00+00
-157.928745873278,21.3760784996726,3,200,Aiea Elementary,99-370 Moanalua Road,Aiea,96701,808.305.4400,808.483.7201,James L Kau,K,6,Elementary,http://www.aieaelementary.com/,Aiea,Aiea Moanalua-Radford,Central,Oahu,0,2023/02/02 00:00:00+00
-157.930591235472,21.3838241809291,4,202,Aiea High,98-1276 Ulune Street,Aiea,96701,808.305.6500,808.483.7303,Shannon Lee Tamashiro,9,12,High,http://www.aieahs.org/,Aiea,Aiea Moanalua-Radford,Central,Oahu,0,2023/02/02 00:00:00+00
-157.922707947652,21.382327994565,5,201,Aiea Intermediate,99-600 Kulawea Street,Aiea,96701,808.305.7230,808.483.7235,Tom H Kurashige,7,8,Middle,http://www.aieais.k12.hi.us/,Aiea,Aiea Moanalua-Radford,Central,Oahu,0,2023/02/02 00:00:00+00
-157.749171239015,21.4244395443524,6,300,Aikahi Elementary,281 Ilihau Street,Kailua,96734,808.254.7944,808.254.7962,Keoki L Fraser,K,6,Elementary,http://www.aikahielementary.com/,Kalaheo,Kailua-Kalaheo,Windward,Oahu,0,2023/02/02 00:00:00+00
-157.755568848611,21.2791557483,7,100,Aina Haina Elementary,801 West Hind Drive,Honolulu,96821,808.377.2419,808.377.2426,Brendan P Burns,K,5,Elementary,http://www.ainahaina.k12.hi.us,Kaiser,Farrington-Kaiser-Kalani,Honolulu,Oahu,0,2023/02/02 00:00:00+00
-157.82631108825,21.2849081265424,8,101,Ala Wai Elementary,503 Kamoku Street,Honolulu,96826,808.973.0070,808.973.0081,Michelle Danette Debusca,K,5,Elementary,http://www.alawaielementary.org/,Kaimuki,Kaimuki-McKinley-Roosevelt,Honolulu,Oahu,0,2023/02/02 00:00:00+00
-157.912176471647,21.3428662419388,9,203,Aliamanu Elementary,3265 Salt Lake Blvd.,Honolulu,96818,808.421.4280,808.421.4283,Sandra S Yoshimi,K,6,Elementary,http://aliamanu.k12.hi.us/,Radford,Aiea Moanalua-Radford,Central,Oahu,0,2023/02/02 00:00:00+00
-157.915332067428,21.3442682942377,10,204,Aliamanu Middle,3271 Salt Lake Blvd.,Honolulu,96818,808.421.4100,808.421.4103,Albert M IV Hetrick,7,8,Middle,http://www.aliamanumiddle.org,Radford,Aiea Moanalua-Radford,Central,Oahu,0,2023/02/02 00:00:00+00
-157.804135478503,21.2863680699744,11,102,Aliiolani Elementary,1240 7th Avenue,Honolulu,96816,808.733.4750,808.733.4758,Joseph Andrew Passantino,K,5,Elementary,http://www.aliiolani.k12.hi.us/,Kaimuki,Kaimuki-McKinley-Roosevelt,Honolulu,Oahu,0,2023/02/02 00:00:00+00
-157.78889612386,21.3041692696603,12,103,Ke Kula Kaiapuni O Anuenue,2528 10th Avenue,Honolulu,96816,808.733.8465,808.733.8467,Glen K Miyasato,K,12,Elementary-Middle-High,http://home.anuenue.org/,Roosevelt,Kaimuki-McKinley-Roosevelt,Honolulu,Oahu,0,2023/02/02 00:00:00+00
-156.49126071407,20.8889117357704,13,400,Baldwin High,1650 Kaahumanu Avenue,Wailuku,96793,808.984.5656,808.984.5674,Catherine L Kilborn,9,12,High,http://www.baldwin.k12.hi.us/,Baldwin,Baldwin-Kekaulike-Maui,Maui,Maui,0,2023/02/02 00:00:00+00
-158.080676628982,21.3232184911375,14,251,Barbers Point Elementary,3001 Boxer Road,Kapolei,96707,808.673.7400,808.673.7403,Jaclyn Susan Riel,K,5,Elementary,http://barbers.k12.hi.us/,Kapolei,Campbell-Kapolei,Leeward,Oahu,0,2023/02/02 00:00:00+00
-158.007412733715,21.3153024438237,15,252,Campbell High,91-980 North Road,Ewa Beach,96706,808.689.1200,808.689.1242,Jonhenry Sau Chen Lee,9,12,High,http://www.campbellhigh.org/,Campbell,Campbell-Kapolei,Leeward,Oahu,0,2023/02/02 00:00:00+00
-157.794958067551,21.4046394548998,16,301,Castle High,45-386 Kaneohe Bay Drive,Kaneohe,96744,808.233.5600,808.233.5623,Bernadette L S Tyrell,9,12,High,http://www.castlehs.k12.hi.us/,Castle,Castle-Kahuku,Windward,Oahu,0,2023/02/02 00:00:00+00
-157.8568665592,21.3107265616062,17,104,Central Middle,1302 Queen Emma Street,Honolulu,96813,808.587.4400,808.587.4409,Anne Marie Lynn Murphy,6,8,Middle,https://sites.google.com/site/centralmiddleschoolhonolulu/,McKinley,Kaimuki-McKinley-Roosevelt,Honolulu,Oahu,0,2023/02/02 00:00:00+00
-155.114473891545,19.7097610185974,18,351,DeSilva Elementary,278 Ainako Avenue,Hilo,96720,808.974.4855,808.974.4858,Dennis R O'Brien,K,6,Elementary,http://www.desilva.k12.hi.us/,Hilo,Hilo-Waiakea,Hawaii,Hawaii,0,2023/02/02 00:00:00+00
-157.871741102142,21.3434139585407,19,105,Dole Middle,1803 Kamehameha IV Road,Honolulu,96819,808.832.3340,808.832.3349,Mavis Sachiko Tasaka,6,8,Middle,http://dolemiddleschool.weebly.com/,Farrington,Farrington-Kaiser-Kalani,Honolulu,Oahu,0,2023/02/02 00:00:00+00
-159.583867168575,21.9093388946567,20,451,Eleele Elementary,4750 Uliuli Road,Eleele,96705,808.335.2111,808.335.8415,Paul John Zina,K,5,Elementary,http://www.eleeleschool.k12.hi.us/,Waimea,Kapaa-Kauai-Waimea,Kauai,Kauai,0,2023/02/02 00:00:00+00
-157.731516895947,21.3840409753027,21,302,Enchanted Lake Elementary,770 Keolu Drive,Kailua,96734,808.266.7800,808.266.7804,Pua'ala McElhaney,K,6,Elementary,http://elake.k12.hi.us,Kailua,Kailua-Kalaheo,Windward,Oahu,0,2023/02/02 00:00:00+00
-158.014369543674,21.3150238451534,22,254,Ewa Beach Elementary,91-740 Papipi Road,Ewa Beach,96706,808.689.1271,808.689.1275,Sherry Lee Kobayashi,K,6,Elementary,http://www.ewabeachelementary.org/,Campbell,Campbell-Kapolei,Leeward,Oahu,0,2023/02/02 00:00:00+00
-158.033363945246,21.3450662031888,23,253,Ewa Elementary,91-1280 Renton Road,Ewa Beach,96706,808.681.8202,808.681.8206,Stanley  Jr Tamashiro,K,6,Elementary,http://ewael.k12.hi.us/Ewa_Elementary/Welcome.html,Campbell,Campbell-Kapolei,Leeward,Oahu,0,2023/02/02 00:00:00+00
-158.02579085028,21.3226673818357,24,296,Ewa Makai Middle,91-6291 Kapolei Parkway,Kapolei,96706,808.687.9500,808.685.2052,Kim M Sanders,6,8,Middle,http://www.ewamakai.org/,Campbell,Campbell-Kapolei,Leeward,Oahu,0,2023/02/02 00:00:00+00
-157.873586142864,21.3300371260945,25,106,Farrington High,1564 North King Street,Honolulu,96817,808.832.3600,808.832.3587,Alfredo B Carganilla,9,12,High,http://farringtonhighschool.org,Farrington,Farrington-Kaiser-Kalani,Honolulu,Oahu,0,2023/02/02 00:00:00+00
-157.882131834052,21.3390723444136,26,107,Fern Elementary,1121 Middle Street,Honolulu,96819,808.832.3040,808.832.3043,Fred T Yoshinaga,K,5,Elementary,http://fernschool.com/,Farrington,Farrington-Kaiser-Kalani,Honolulu,Oahu,0,2023/02/02 00:00:00+00
-155.092360964829,19.7445603004162,27,352,Haaheo Elementary,121 Haaheo Road,Hilo,96720,808.974.4111,808.974.4112,Jennifer Naomi Sueoka,K,6,Elementary,http://www.haaheo.org/,Hilo,Hilo-Waiakea,Hawaii,Hawaii,0,2023/02/02 00:00:00+00
-157.708494574739,21.2965355927332,28,108,Hahaione Elementary,595 Pepeekeo Street,Honolulu,96825,808.397.5822,808.397.5827,Shannon C Goo,K,5,Elementary,http://www.hahaionees.org/,Kaiser,Farrington-Kaiser-Kalani,Honolulu,Oahu,0,2023/02/02 00:00:00+00
-156.322500746969,20.9282053824208,29,401,Haiku Elementary,105 Pauwela Road,Haiku,96708,808.575.3000,808.575.3003,Desiree Sumiko Nani Sides,K,5,Elementary,https://sites.google.com/site/haikuelementary/,Kekaulike,Baldwin-Kekaulike-Maui,Maui,Maui,0,2023/02/02 00:00:00+00
-158.113275844185,21.584678297686,30,206,Haleiwa Elementary,66-505 Haleiwa Road,Haleiwa,96712,808.637.8237,808.637.8240,Malaea Frances Powell Wetzel,K,6,Elementary,http://www.haleiwa.k12.hi.us,Waialua,Leilehua-Mililani-Waialua,Central,Oahu,0,2023/02/02 00:00:00+00
-156.000499889072,20.7756137024571,31,402,Hana High and Elementary,4111 Hana Highway,Hana,96713,808.248.4815,808.248.4819,Richard Ward Paul,K,12,Elementary-Middle-High,http://www.hanak12school.org/,Hana,Hana-Lahainaluna-Lanai-Molokai,Maui,Maui,0,2023/02/02 00:00:00+00
-159.502032317601,22.2009939885458,32,452,Hanalei Elementary,5-5415 Kuhio Highway,Hanalei,96714,808.826.4300,808.826.4302,Taharaa Maree Stein,K,6,Elementary,http://www.hanalei.k12.hi.us/,Kapaa,Kapaa-Kauai-Waimea,Kauai,Kauai,0,2023/02/02 00:00:00+00
-157.907965279227,21.607396311782,33,303,Hauula Elementary,54-046 Kamehameha Highway,Hauula,96717,808.293.8925,808.293.8927,Uilani K Kaitoku,K,6,Elementary,https://www.facebook.com/hauulaelementary/,Kahuku,Castle-Kahuku,Windward,Oahu,0,2023/02/02 00:00:00+00
-157.814044260783,21.2733036691022,34,470,Hawai`i School for the Deaf and the Blind,3440 Leahi Avenue,Honolulu,96815,808.733.4999,808.733.4824,Angel Manuel Ramos,K,12,Elementary-Middle-High,http://www.hsdb.k12.hi.us/,Kalani,Farrington-Kaiser-Kalani,Honolulu,Oahu,0,2023/02/02 00:00:00+00
-157.80913445579,21.4191608398519,35,304,Heeia Elementary,46-202 Haiku Road,Kaneohe,96744,808.233.5677,808.233.5679,Alma M Souki,K,6,Elementary,http://heeiahawks.weebly.com/,Castle,Castle-Kahuku,Windward,Oahu,0,2023/02/02 00:00:00+00
-158.023417848959,21.5135306160447,36,208,Helemano Elementary,1001 Ihi Ihi Avenue,Wahiawa,96786,808.622.6336,808.622.6368,Ernest C Muh,K,5,Elementary,http://www.helemano.k12.hi.us/,Leilehua,Leilehua-Mililani-Waialua,Central,Oahu,0,2023/02/02 00:00:00+00
-157.962228149409,21.3432910095187,37,209,Hickam Elementary,Manzelman Circle,Honolulu,96818,808.421.4148,808.421.4157,Alisa Ann Estrella Bender,K,6,Elementary,http://www.hickam.k12.hi.us/,Radford,Aiea Moanalua-Radford,Central,Oahu,0,2023/02/02 00:00:00+00
-157.96206181471,21.400259373596,38,255,Highlands Intermediate,1460 Hoolaulea Street,Pearl City,96782,808.453.6480,808.453.6484,Amy E Martinson,7,8,Middle,http://www.highlands.k12.hi.us/,Pearl City,Pearl City-Waipahu,Leeward,Oahu,0,2023/02/02 00:00:00+00
-155.095875464434,19.7228274158382,39,355,Hilo High,556 Waianuenue Avenue,Hilo,96720,808.313-5500,808.974.4036,Robert R Dircks,9,12,High,http://www.hilohs.k12.hi.us,Hilo,Hilo-Waiakea,Hawaii,Hawaii,0,2023/02/02 00:00:00+00
-155.095270379854,19.7210767180846,40,356,Hilo Intermediate,587 Waianuenue Avenue,Hilo,96720,808.974.4955,808.974.6184,Heather Leigh Dansdill,7,8,Middle,http://www.edline.net/pages/Hilo_Intermediate_School,Hilo,Hilo-Waiakea,Hawaii,Hawaii,0,2023/02/02 00:00:00+00
-155.090691283364,19.7228738084437,41,357,Hilo Union Elementary,506 Waianuenue Avenue,Hilo,96720,808.933.0900,808.933.0905,Bryan Kekoa Arbles,K,6,Elementary,http://hilounion.weebly.com/,Hilo,Hilo-Waiakea,Hawaii,Hawaii,0,2023/02/02 00:00:00+00
-157.813418954258,21.2907982640367,42,109,Hokulani Elementary,2940 Kamakini Street,Honolulu,96816,808.733.4789,808.733.4792,Laurie L Q Luczak,K,5,Elementary,http://www.hokulani-elementary.com/,Kaimuki,Kaimuki-McKinley-Roosevelt,Honolulu,Oahu,0,2023/02/02 00:00:00+00
-158.021132231798,21.3390805001007,43,280,Holomua Elementary,91-1561 Keaunui Drive,Ewa Beach,96706,808.685.2000,808.685.2003,Gary Tsutomu Yasui,K,6,Elementary,http://holomuael.blogspot.com/,Campbell,Campbell-Kapolei,Leeward,Oahu,0,2023/02/02 00:00:00+00
-155.949121948429,19.6171301825344,44,358,Holualoa Elementary,76-5957 Mamalahoa Highway,Holualoa,96725,808.322.4800,808.322.4801,Glenn Edward II Gray,K,5,Elementary,http://holualoahawks.org/wp/,Kealakehe,Honokaa-Kealakehe-Kohala-Konawaena,Hawaii,Hawaii,0,2023/02/02 00:00:00+00
-155.879660790197,19.4507234249178,45,359,Honaunau Elementary,83-5360 Mamalahoa Highway,Captain Cook,96704,808.328.2727,808.328.2729,Noreen Hatsuko Kunitomo,K,5,Elementary,http://honaunauelementaryschool.weebly.com,Konawaena,Honokaa-Kealakehe-Kohala-Konawaena,Hawaii,Hawaii,0,2023/02/02 00:00:00+00
-155.4655499588,20.0753331015936,46,361,Honokaa Elementary,45-534 Pakalana Street,Honokaa,96727,808.775.8820,808.775.8828,Rory John Souza,K,6,Elementary,http://www.honokaael.k12.hi.us/,Honokaa,Honokaa-Kealakehe-Kohala-Konawaena,Hawaii,Hawaii,0,2023/02/02 00:00:00+00
-155.46249133922,20.076894242959,47,360,Honokaa High and Intermediate,45-527 Pakalana Street,Honokaa,96727,808.775.8800,808.775.8803,Rachelle Matsumura,7,12,Intermediate,http://www.honokaa.k12.hi.us/,Honokaa,Honokaa-Kealakehe-Kohala-Konawaena,Hawaii,Hawaii,0,2023/02/02 00:00:00+00
-158.026507675043,21.384208805084,48,276,Honowai Elementary,94-600 Honowai Street,Waipahu,96797,808.675.0165,808.675.0167,Kent R Matsumura,K,6,Elementary,http://honowai.org/,Waipahu,Pearl City-Waipahu,Leeward,Oahu,0,2023/02/02 00:00:00+00
-158.070932698489,21.3268446716588,49,293,Hookele Elementary,511 Kunehi Street,Kapolei,96707,808.305.8500, ,Laureen Michiko Dunn,K,5,Elementary,http://hookele.hidoe.us/,Kapolei,Campbell-Kapolei,Leeward,Oahu,0,2023/02/02 00:00:00+00
-155.878029038778,19.3869325928485,50,363,Hookena Elementary,86-4355 Mamalahoa Highway,Captain Cook,96704,808.328.2710,808.328.2712,Nancy Louise Jadallah,K,5,Elementary,http://www.hookena.k12.hi.us,Konawaena,Honokaa-Kealakehe-Kohala-Konawaena,Hawaii,Hawaii,0,2023/02/02 00:00:00+00
-156.501228080902,20.8849752247803,51,404,Iao Intermediate,260 South Market Street,Wailuku,96793,808.984.5610,808.984.5617,Matthew Joseph Ernest Dillon,6,8,Middle,http://iao.k12.hi.us/,Baldwin,Baldwin-Kekaulike-Maui,Maui,Maui,0,2023/02/02 00:00:00+00
-157.999637461677,21.5065187645871,52,210,Iliahi Elementary,2035 California Avenue,Wahiawa,96786,808.622.6411,808.622.6413,Garett Y Yukumoto,K,5,Elementary,http://www.iliahiel.k12.hi.us,Leilehua,Leilehua-Mililani-Waialua,Central,Oahu,0,2023/02/02 00:00:00+00
-158.011595834461,21.3147290016332,53,279,Ilima Intermediate,91-884 Fort Weaver Road,Ewa Beach,96706,808.689.1250,808.689.1258,Christopher D Bonilla,7,8,Middle,http://ilimaintermediate.com/,Campbell,Campbell-Kapolei,Leeward,Oahu,0,2023/02/02 00:00:00+00
-158.055611617192,21.499323599689,54,207,Inouye Elementary,1 Ayres Avenue,Wahiawa,96786,808.305.3400,808.622.6382,Jan W A Iwase,K,5,Elementary,https://www.dkies.org,Leilehua,Leilehua-Mililani-Waialua,Central,Oahu,0,2023/02/02 00:00:00+00
-157.98150082488,21.3190174189254,55,256,Iroquois Point Elementary,5553 Cormorant Avenue,Ewa Beach,96706,808.499.6500,808.499.6508,Ofelia Acosta Reed,K,6,Elementary,http://iroquois.k12.hi.us/,Campbell,Campbell-Kapolei,Leeward,Oahu,0,2023/02/02 00:00:00+00
-157.79811316508,21.2974954220881,56,110,Jarrett Middle,1903 Palolo Avenue,Honolulu,96816,808.733.4888,808.733.4894,Reid Masaichi Kuba,6,8,Middle,http://www.jmshi.org,Kaimuki,Kaimuki-McKinley-Roosevelt,Honolulu,Oahu,0,2023/02/02 00:00:00+00
-157.819349190209,21.2721800272391,57,111,Jefferson Elementary,324 Kapahulu Avenue,Honolulu,96815,808.971.6922,808.971.6933,Garret S Zakahi,K,5,Elementary,http://jeffersonsurfers.k12.hi.us/,Kaimuki,Kaimuki-McKinley-Roosevelt,Honolulu,Oahu,0,2023/02/02 00:00:00+00
-157.846529444905,21.5474499860537,58,305,Kaaawa Elementary,51-296 Kamehameha Highway,Kaaawa,96730,808.237.7751,808.237.7755,Jennifer L Luke Payne,K,6,Elementary,http://kaaawa.k12.hi.us/,Kahuku,Castle-Kahuku,Windward,Oahu,0,2023/02/02 00:00:00+00
-157.843930297894,21.3028475517522,59,112,Kaahumanu Elementary,1141 Kinau Street,Honolulu,96814,808.587.4414,808.587.4415,Cindy Chong Hye Yun-Kim,K,5,Elementary,http://www.qkes.us/,McKinley,Kaimuki-McKinley-Roosevelt,Honolulu,Oahu,0,2023/02/02 00:00:00+00
-158.036280679433,21.4933097667205,60,211,Kaala Elementary,130 California Avenue,Wahiawa,96786,808.622.6366,808.622.6368,Samuel E Bennett,K,5,Elementary,http://www.kaala.k12.hi.us/,Leilehua,Leilehua-Mililani-Waialua,Central,Oahu,0,2023/02/02 00:00:00+00
-157.740998515036,21.3815816988711,61,330,Kaelepulu Elementary,530 Keolu Drive,Kailua,96734,808.266.7811,808.266.7813,Thomas Franklin Swan,K,6,Elementary,http://www.kaelepululadybugs.k12.hi.us/,Kailua,Kailua-Kalaheo,Windward,Oahu,0,2023/02/02 00:00:00+00
-157.869551063545,21.3454839473973,62,113,Kaewai Elementary,1929 Kamehameha IV Road,Honolulu,96819,808.832.3500,808.832.3509,Bert Chris Carter,K,5,Elementary,http://www.kaewaielementary.com/,Farrington,Farrington-Kaiser-Kalani,Honolulu,Oahu,0,2023/02/02 00:00:00+00
-155.977160209236,19.6133436929133,63,371,Kahakai Elementary,76-147 Royal Poinciana Drive,Kailua-Kona,96740,808.313.6200,808.327.4333,James Alvin Denight,K,5,Elementary,http://kahakai.me/,Konawaena,Honokaa-Kealakehe-Kohala-Konawaena,Hawaii,Hawaii,0,2023/02/02 00:00:00+00
-157.785302782455,21.2738945277072,64,114,Kahala Elementary,4559 Kilauea Avenue,Honolulu,96816,808.733.8455,808.733.4669,Christine Kinau Gardner,K,5,Elementary,http://kahalaelementary.org,Kalani,Farrington-Kaiser-Kalani,Honolulu,Oahu,0,2023/02/02 00:00:00+00
-157.844847578075,21.4577959553474,65,306,Kahaluu Elementary,47-280 Waihee Road,Kaneohe,96744,808.239.3101,808.239.3102,Gary H Harada,K,6,Elementary,https://sites.google.com/a/kahaluu.k12.hi.us/kahaluu-elementary-school/home,Castle,Castle-Kahuku,Windward,Oahu,0,2023/02/02 00:00:00+00
-157.95173993385,21.6748077907062,66,331,Kahuku Elementary,56-170 Pualalea Street,Kahuku,96731,808.293.8980,808.293.8985,Samuel Koji Izumi,K,6,Elementary,http://www.kahukuelementary.com/,Kahuku,Castle-Kahuku,Windward,Oahu,0,2023/02/02 00:00:00+00
-157.947035760178,21.6761797032999,67,307,Kahuku High and Intermediate,56-490 Kamehameha Highway,Kahuku,96731,808.293.8950,808.293.8960,Donna Rea P Lindsey,7,12,Intermediate,http://www.kahukuhigh.org/,Kahuku,Castle-Kahuku,Windward,Oahu,0,2023/02/02 00:00:00+00
-156.469976505985,20.8789750467993,68,405,Kahului Elementary,410 South Hina Avenue,Kahului,96732,808.873.3055,808.873.3089,Lisa Gaye McClintock,K,5,Elementary,http://kahuluischool.k12.hi.us/,Maui,Baldwin-Kekaulike-Maui,Maui,Maui,0,2023/02/02 00:00:00+00
-157.741666365134,21.3956403693908,69,308,Kailua Elementary,315 Kuulei Road,Kailua,96734,808.266.7878,808.266.7882,James Salem Rippard,K,6,Elementary,http://kailuaonline.net,Kalaheo,Kailua-Kalaheo,Windward,Oahu,0,2023/02/02 00:00:00+00
-157.748833846958,21.3843015333488,70,309,Kailua High,451 Ulumanu Drive,Kailua,96734,808.266.7900,808.266.7915,Francine W Honda,9,12,High,http://kailuahs.wix.com/kailuahigh,Kailua,Kailua-Kalaheo,Windward,Oahu,0,2023/02/02 00:00:00+00
-157.735952752536,21.3952140268769,71,310,Kailua Intermediate,145 South Kainalu Drive,Kailua,96734,808.263.1500,808.266.7984,Lisa Anne Delong,7,8,Middle,http://kailuain.k12.hi.us/,Kalaheo,Kailua-Kalaheo,Windward,Oahu,0,2023/02/02 00:00:00+00
-158.008480361846,21.3196603745405,72,281,Kaimiloa Elementary,91-1028 Kaunolu Street,Ewa Beach,96706,808.689.1280,808.689.1284,Debra L Hatada,K,6,Elementary,http://www.kaimiloa.k12.hi.us/,Campbell,Campbell-Kapolei,Leeward,Oahu,0,2023/02/02 00:00:00+00
-157.815858417539,21.2878517956191,73,115,Kaimuki High,2705 Kaimuki Avenue,Honolulu,96816,808.733.4900,808.733.4929,Wade R Araki,9,12,High,http://www.kaimukihs.org/,Kaimuki,Kaimuki-McKinley-Roosevelt,Honolulu,Oahu,0,2023/02/02 00:00:00+00
-157.797604992471,21.2700995496188,74,116,Kaimuki Middle,631 18th Avenue,Honolulu,96816,808.733.4800,808.733.4810,Frank K Fernandes,6,8,Middle,http://www.kaimukimiddle.org/,Kalani,Farrington-Kaiser-Kalani,Honolulu,Oahu,0,2023/02/02 00:00:00+00
-157.747982393161,21.4139287603461,75,311,Kainalu Elementary,165 Kaiholu Street,Kailua,96734,808.266.7835,808.266.7837,Sheri L K Sunabe,K,6,Elementary,http://www.kainaluonline.net/,Kalaheo,Kailua-Kalaheo,Windward,Oahu,0,2023/02/02 00:00:00+00
-157.6976243373,21.2860801866824,76,154,Kaiser High,511 Lunalilo Home Road,Honolulu,96825,808.394.1200,808.394.1201,Justin Sung Nam Mew,9,12,High,http://www.kaiserhighschoolhawaii.org,Kaiser,Farrington-Kaiser-Kalani,Honolulu,Oahu,0,2023/02/02 00:00:00+00
-157.866934439249,21.321407514009,77,117,Kaiulani Elementary,783 North King Street,Honolulu,96817,808.832.3160,808.832.3164,Jill H Puletasi,K,5,Elementary,http://www.kaiulani.k12.hi.us/,McKinley,Kaimuki-McKinley-Roosevelt,Honolulu,Oahu,0,2023/02/02 00:00:00+00
-159.521956857839,21.9229124085561,78,453,Kalaheo Elementary,4400 Maka Road,Kalaheo,96741,808.332.6801,808.332.6804,Erik Dennis Burkman,K,5,Elementary,http://www.kalaheoschool.com/,Waimea,Kapaa-Kauai-Waimea,Kauai,Kauai,0,2023/02/02 00:00:00+00
-157.757895259636,21.4079705506035,79,312,Kalaheo High,730 Iliaina Street,Kailua,96734,808.254.7900,808.254.7907,Susan C W Hummel,9,12,High,http://www.kalaheohigh.org/,Kalaheo,Kailua-Kalaheo,Windward,Oahu,0,2023/02/02 00:00:00+00
-157.876899755074,21.3295534302785,80,118,Kalakaua Middle,821 Kalihi Street,Honolulu,96819,808.832.3130,808.832.3140,Brian T Fukuda,6,8,Middle,http://www.kalakauamiddle.org/,Farrington,Farrington-Kaiser-Kalani,Honolulu,Oahu,0,2023/02/02 00:00:00+00
-156.321181359863,20.8496099404964,81,420,Kalama Intermediate,120 Makani Road,Makawao,96768,808.573.8735,808.573.8748,Timothy A Shim,6,8,Middle,http://kalamaintermediate.com/,Kekaulike,Baldwin-Kekaulike-Maui,Maui,Maui,0,2023/02/02 00:00:00+00
-157.773770274168,21.2773170918483,82,119,Kalani High,4680 Kalanianaole Highway,Honolulu,96821,808.377.7744,808.377.2483,Mitchell H Otani,9,12,High,http://www.kalanihighschool.org/,Kalani,Farrington-Kaiser-Kalani,Honolulu,Oahu,0,2023/02/02 00:00:00+00
-155.094730594983,19.7901432407906,83,365,Kalanianaole Elementary and Intermediate,27-330 Old Mamalahoa Highway,Papaikou,96781,808.964.9700,808.964.9703,David Lawrence Dinkel,K,8,Elementary-Middle,http://kalanianaole.k12.hi.us,Hilo,Hilo-Waiakea,Hawaii,Hawaii,0,2023/02/02 00:00:00+00
-158.027184849425,21.3921880507685,84,287,Kaleiopuu Elementary,94-665 Kaaholo Street,Waipahu,96797,808.675.0266,808.675.0269,Pat Y Anbe,K,6,Elementary,http://www.kaleiopuuel.com/,Waipahu,Pearl City-Waipahu,Leeward,Oahu,0,2023/02/02 00:00:00+00
-157.86055345981,21.3522287643105,85,120,Kalihi Elementary,2471 Kula Kolea Drive,Honolulu,96819,808.832.3177,808.832.3179,William George II Grindell,K,5,Elementary,http://kalihi.k12.hi.us/,Farrington,Farrington-Kaiser-Kalani,Honolulu,Oahu,0,2023/02/02 00:00:00+00
-157.877481356871,21.3261232646786,86,121,Kalihi Kai Elementary,626 McNeil Street,Honolulu,96817,808.832.3322,808.832.3327,Laura Akemi Vines,K,5,Elementary,http://kalihikai.org/,Farrington,Farrington-Kaiser-Kalani,Honolulu,Oahu,0,2023/02/02 00:00:00+00
-157.862010060204,21.3456074929128,87,122,Kalihi Uka Elementary,2411 Kalihi Street,Honolulu,96819,808.305.6200,808.832.3313,Laura L Ahn,K,5,Elementary,http://www.kalihiuka.k12.hi.us/,Farrington,Farrington-Kaiser-Kalani,Honolulu,Oahu,0,2023/02/02 00:00:00+00
-157.875565218309,21.33559672241,88,123,Kalihi Waena Elementary,1240 Gulick Avenue,Honolulu,96819,808.832.3210,808.832.3213,Veronica Helen Victor,K,5,Elementary,http://www.kwes.k12.hi.us/,Farrington,Farrington-Kaiser-Kalani,Honolulu,Oahu,0,2023/02/02 00:00:00+00
-159.387566798944,21.9674919163789,89,448,Kamakahelei Middle,4431 Nuhou St.,Lihue,96766,808.241.3200,808.241.3210,Debra K Badua,6,8,Middle,http://www.ckms.k12.hi.us,Kauai,Kapaa-Kauai-Waimea,Kauai,Kauai,0,2023/02/02 00:00:00+00
-156.439102684853,20.7214292710868,90,431,Kamalii Elementary,180 Kealii Alanui,Kihei,96753,808.875.6840,808.875.6843,Cynthia Rothdeutsch,K,5,Elementary,https://kamaliischool.org/,Maui,Baldwin-Kekaulike-Maui,Maui,Maui,0,2023/08/14 00:00:00+00
-156.67688479003,20.8713284881809,91,406,Kamehameha III Elementary,611 Front Street,Lahaina,96761,808.662.3955,808.662.3958,Steven Dale Franz,K,5,Elementary,http://kingkam.k12.hi.us/,Lahainaluna,Hana-Lahainaluna-Lanai-Molokai,Maui,Maui,0,2023/02/02 00:00:00+00
-157.686035435189,21.294227268558,92,155,Kamiloiki Elementary,7788 Hawaii Kai Drive,Honolulu,96825,808.397.5800,808.397.5806,Jason Kiyotaka Yoshimoto,K,5,Elementary,http://www.kamiloikielementary.org/,Kaiser,Farrington-Kaiser-Kalani,Honolulu,Oahu,0,2023/02/02 00:00:00+00
-157.797352074494,21.3956986440509,93,313,Kaneohe Elementary,45-495 Kamehameha Highway,Kaneohe,96744,808.233.5633,808.233.9185,Derek Kiyoshi Minakami,K,6,Elementary,http://www.kaneohe.hidoe.us/,Castle,Castle-Kahuku,Windward,Oahu,0,2023/02/02 00:00:00+00
-157.99895562283,21.4158285737242,94,283,Kanoelani Elementary,94-1091 Oli Loop,Waipahu,96797,808.675.0195,808.675.0135,Stacie S G Kunihisa,K,6,Elementary,http://www.kanoelani.k12.hi.us,Pearl City,Pearl City-Waipahu,Leeward,Oahu,0,2023/02/02 00:00:00+00
-159.313883776006,22.0890175984575,95,454,Kapaa Elementary,4886 Kawaihau Road,Kapaa,96746,808.821.4424,808.821.4431,Jason W Kuloloia,K,5,Elementary,http://www.kapaaes.k12.hi.us/,Kapaa,Kapaa-Kauai-Waimea,Kauai,Kauai,0,2023/02/02 00:00:00+00
-159.31307170566,22.0918661676529,96,455,Kapaa High,4695 Mailihuna Road,Kapaa,96746,808.821.4400,808.821.4420,Daniel S Hamada,9,12,High,http://kapaahighschool.net/,Kapaa,Kapaa-Kauai-Waimea,Kauai,Kauai,0,2023/02/02 00:00:00+00
-159.327731432606,22.0793390366192,97,447,Kapaa Middle,4867 Olohena Road,Kapaa,96746,808.821.4460,808.821.6967,Nathan Earl Aiwohi,6,8,Middle,http://www.kapaamiddleschool.org/,Kapaa,Kapaa-Kauai-Waimea,Kauai,Kauai,0,2023/02/02 00:00:00+00
-157.868802790893,21.3352260837488,98,124,Kapalama Elementary,1601 North School Street,Honolulu,96817,808.832.3290,808.832.3302,Patricia M Dang,K,5,Elementary,https://sites.google.com/site/kapalamaweb1,Farrington,Farrington-Kaiser-Kalani,Honolulu,Oahu,0,2023/02/02 00:00:00+00
-155.077518312234,19.7138963332379,99,367,Kapiolani Elementary,966 Kilauea Avenue,Hilo,96720,808.974.4160,808.974.4161,Gregg K Yonemori,K,6,Elementary,http://cks.k12.hi.us/,Hilo,Hilo-Waiakea,Hawaii,Hawaii,0,2023/02/02 00:00:00+00
-158.064292315807,21.3344293287351,100,282,Kapolei Elementary,91-1119 Kamaaha Loop,Kapolei,96707,808.693.7000,808.693.7011,Cindy S Otsu,K,5,Elementary,http://www.kapoleielementary.org/,Kapolei,Campbell-Kapolei,Leeward,Oahu,0,2023/02/02 00:00:00+00
-158.068286368349,21.3281974434691,101,292,Kapolei High,91-5007 Kapolei Parkway,Kapolei,96707,808.692.8200,808.692.8255,Elden M Esmeralda,9,12,High,http://www.kapoleihigh.org/,Kapolei,Campbell-Kapolei,Leeward,Oahu,0,2023/02/02 00:00:00+00
-158.057371203443,21.3323661239265,102,291,Kapolei Middle,91-5335 Kapolei Parkway,Kapolei,96707,808.693.7025,808.693.7030,Bruce Isamu Naguwa,6,8,Middle,http://www.kapoleims.k12.hi.us/,Kapolei,Campbell-Kapolei,Leeward,Oahu,0,2023/02/02 00:00:00+00
-157.803628474448,21.408787588919,103,315,Kapunahala Elementary,45-828 Anoi Road,Kaneohe,96744,808.233.5650,808.233.5651,Deborah S H Nekomoto,K,6,Elementary,http://www.kapunahala.k12.hi.us/,Castle,Castle-Kahuku,Windward,Oahu,0,2023/02/02 00:00:00+00
-155.477228771611,19.2024857154527,104,368,Kau High and Pahala Elementary,96-3150 Pikake Street,Pahala,96777,808.313.4100,808.928.2092,Sharon Ann Beck,K,12,Elementary-Middle-High,http://kau.k12.hi.us/,Kau,Kau-Keaau-Pahoa,Hawaii,Hawaii,0,2023/02/02 00:00:00+00
-159.358553163105,21.959661989464,105,456,Kauai High,3577 Lala Road,Lihue,96766,808.274.3160,808.274.3170,Anne Clarke Kane,9,12,High,http://www.kauaihigh.org/,Kauai,Kapaa-Kauai-Waimea,Kauai,Kauai,0,2023/02/02 00:00:00+00
-157.858518120162,21.3184260789132,106,125,Kauluwela Elementary,1486 Aala Street,Honolulu,96817,808.587.4447,808.587.4453,Christopher J Daly,K,5,Elementary,http://kauluwela.k12.hi.us/HOME.NSF,McKinley,Kaimuki-McKinley-Roosevelt,Honolulu,Oahu,0,2023/02/02 00:00:00+00
-155.134572354153,19.6860715420724,107,369,Kaumana Elementary,1710 Kaumana Drive,Hilo,96720,808.974.4190,808.974.4197,Ray Koji Mizuba,K,6,Elementary,https://sites.google.com/a/kaumana.k12.hi.us/kaumanaelementary/,Hilo,Hilo-Waiakea,Hawaii,Hawaii,0,2023/02/02 00:00:00+00
-159.351177887115,21.9948814295364,108,457,Kaumualii Elementary,4380 Hanamaulu Road,Lihue,96766,808.241.3150,808.241.3159,Jason Yoshito Yoshida,K,5,Elementary,http://www.kaumualii.k12.hi.us/king.html,Kauai,Kapaa-Kauai-Waimea,Kauai,Kauai,0,2023/02/02 00:00:00+00
-157.018346024081,21.0886347946444,109,407,Kaunakakai Elementary,30 Ailoa,Kaunakakai,96748,808.553.1730,808.553.1737,Janice S Espiritu,K,6,Elementary,http://kaunakakaischool.net,Molokai,Hana-Lahainaluna-Lanai-Molokai,Maui,Molokai,0,2023/02/02 00:00:00+00
-157.85109017364,21.3192023245443,110,126,Kawananakoa Middle,49 Funchal Street,Honolulu,96813,808.307.0300,808.587.4443,Ann A Sugibayashi,6,8,Middle,http://www.kawananakoams.org/,Roosevelt,Kaimuki-McKinley-Roosevelt,Honolulu,Oahu,0,2023/02/02 00:00:00+00
-155.917180549416,19.5089972537364,111,378,Ke Kula O Ehunuikaimalino,81-1041 Konawaena School Road,Kealakekua,96750,808.323.1900,808.323.4538,Ann H Paulino,K,12,Elementary-Middle-High,http://ehunui.org/,Konawaena,Honokaa-Kealakehe-Kohala-Konawaena,Hawaii,Hawaii,0,2023/02/02 00:00:00+00
-155.03449262854,19.6131755647689,112,353,Keaau Elementary,16-680 Keaau-Pahoa Road,Keaau,96749,808.982.4210,808.982.4217,Ronald A Jarvis,K,5,Elementary,http://www.keaau.k12.hi.us/,Keaau,Kau-Keaau-Pahoa,Hawaii,Hawaii,0,2023/02/02 00:00:00+00
-155.031619810462,19.6107818118402,113,354,Keaau High,16-725 Keaau-Pahoa Road,Keaau,96749,808.313.3300,808.982.4224,Dean Macario Cevallos,9,12,High,http://keaauhs.k12.hi.us/,Keaau,Kau-Keaau-Pahoa,Hawaii,Hawaii,0,2023/02/02 00:00:00+00
-155.038516936245,19.6213580344491,114,370,Keaau Middle,16-565  Keaau-Pahoa Road,Keaau,96749,808.982.4200,808.982.4219,Elna M Gomes,6,8,Middle,http://www.keaaumiddle.org/,Keaau,Kau-Keaau-Pahoa,Hawaii,Hawaii,0,2023/02/02 00:00:00+00
-155.982146006395,19.6689647820552,115,388,Kealakehe Elementary,74-5118 Kealakaa Street,Kailua-Kona,96740,808.327.4308,808.327.4347,Nancy N Matsukawa,K,5,Elementary,http://kealakehe.k12.hi.us/,Kealakehe,Honokaa-Kealakehe-Kohala-Konawaena,Hawaii,Hawaii,0,2023/02/02 00:00:00+00
-155.998266682912,19.6707365783162,116,392,Kealakehe High,74-5000 Puohulihuli Street,Kailua-Kona,96740,808.327.4300,808.327.4307,Wilfred F Murakami,9,12,High,http://www.khswaveriders.org/,Kealakehe,Honokaa-Kealakehe-Kohala-Konawaena,Hawaii,Hawaii,0,2023/02/02 00:00:00+00
-155.984770173955,19.6708780893157,117,390,Kealakehe Intermediate,74-5062 Onipaa Street,Kailua-Kona,96740,808.327.4314,808.327.4315,Mark D Hackelberg,6,8,Middle,http://www.kishawks.org/,Kealakehe,Honokaa-Kealakehe-Kohala-Konawaena,Hawaii,Hawaii,0,2023/02/02 00:00:00+00
-155.045257503138,19.7288186639423,118,372,Keaukaha Elementary,240 Desha Avenue,Hilo,96720,808.974.4181,808.974.4868,Stacey Lee M Bello,K,6,Elementary,http://www.keaukahaelementary.com/,Hilo,Hilo-Waiakea,Hawaii,Hawaii,0,2023/02/02 00:00:00+00
-159.714698286765,21.9714177244273,119,458,Kekaha Elementary,8140 Kekaha Road,Kekaha,96752,808.337.7655,808.337.7657,Marilyn M Asahi,K,5,Elementary,http://www.kekaha.k12.hi.us/,Waimea,Kapaa-Kauai-Waimea,Kauai,Kauai,0,2023/02/02 00:00:00+00
-156.330160631846,20.827634963835,120,435,Kekaulike High,121 Kula Highway,Pukalani,96768,808.573.8710,808.573.2231,Mark Alan Elliott,9,12,High,http://kekaulikehs.k12.hi.us/,Kekaulike,Baldwin-Kekaulike-Maui,Maui,Maui,0,2023/02/02 00:00:00+00
-157.735398123594,21.3708855940699,121,317,Keolu Elementary,1416 Keolu Drive,Kailua,96734,808.266.7818,808.266.7892,Gay Marie Kong,K,6,Elementary,http://www.keoluelementary.com/,Kailua,Kailua-Kalaheo,Windward,Oahu,0,2023/02/02 00:00:00+00
-154.926847584257,19.5269839817877,122,391,Keonepoko Elementary,15-890 Kahakai Boulevard,Pahoa,96778,808.965.2131,808.965.2138,Brandon Curtis Gallagher,K,6,Elementary,https://www.facebook.com/Keonepoko-Elementary-563497480444911/,Pahoa,Kau-Keaau-Pahoa,Hawaii,Hawaii,0,2023/02/02 00:00:00+00
-158.020193052366,21.3226544538764,123,294,Keoneula Elementary,91-970 Kaileolea Drive,Ewa Beach,96706,808.530.7253,808.689.1350,Paul S Taga,K,6,Elementary,http://keoneula.k12.hi.us/,Campbell,Campbell-Kapolei,Leeward,Oahu,0,2023/02/02 00:00:00+00
-156.44677694623,20.7486269189585,124,409,Kihei Elementary,250 E. Lipoa Street,Kihei,96753,808.875.6818,808.875.6825,Lisa Gaye McClintock,K,5,Elementary,http://www.kiheielementary.org/,Maui,Baldwin-Kekaulike-Maui,Maui,Maui,0,2023/02/02 00:00:00+00
-159.409438044238,22.2051210944532,125,459,Kilauea Elementary,2440 Kolo Road,Kilauea,96754,808.828.1212,808.828.2034,Sherry Lynn Scott Gonsalves,K,6,Elementary,http://kilaueaschool.com/,Kapaa,Kapaa-Kauai-Waimea,Kauai,Kauai,0,2023/02/02 00:00:00+00
-156.834990237444,21.0599932720175,126,410,Kilohana Elementary,Kamehameha V Highway,Kaunakakai,96748,808.558.2200,808.558.2203,Marilyn P Simms,K,6,Elementary, ,Molokai,Hana-Lahainaluna-Lanai-Molokai,Maui,Molokai,0,2023/02/02 00:00:00+00
-157.806434355224,21.4257249393101,127,318,King Intermediate,46-155 Kamehameha Highway,Kaneohe,96744,808.233.5727,808.233.5747,Wendy Joy Namie Matsuzaki,7,8,Middle,http://www.king.k12.hi.us/,Castle,Castle-Kahuku,Windward,Oahu,0,2023/02/02 00:00:00+00
-158.013403284235,21.4618284738378,128,212,Kipapa Elementary,95-076 Kipapa Drive,Mililani,96789,808.305.3900,808.627.7326,Corinne Naomi Yogi,K,5,Elementary,http://www.kipapaelementary.org/,Mililani,Leilehua-Mililani-Waialua,Central,Oahu,0,2023/02/02 00:00:00+00
-155.818923693329,20.2370310125162,129,395,Kohala Elementary,54-3609 Akoni Pule Highway,Kapaau,96755,808.889.7100,808.889.7103,Danny Paul Garcia,K,5,Elementary,http://www.kohalael.k12.hi.us/home.nsf,Kohala,Honokaa-Kealakehe-Kohala-Konawaena,Hawaii,Hawaii,0,2023/02/02 00:00:00+00
-155.819239678448,20.2398781567514,130,373,Kohala High,54-3611 Akoni Pule Highway,Kapaau,96755,808.889.7117,808.889.7120,Janette F L Snelling,9,12,High,http://www.kohalahs.org/,Kohala,Honokaa-Kealakehe-Kohala-Konawaena,Hawaii,Hawaii,0,2023/02/02 00:00:00+00
-155.778444704252,20.2268605660694,131,366,Kohala Middle,53-4155 Akoni Pule Highway,Kapaau,96755,808.889.7119,808.889.7121,Alan G Brown,6,8,Middle,http://www.kohalams.org/,Kohala,Honokaa-Kealakehe-Kohala-Konawaena,Hawaii,Hawaii,0,2023/02/02 00:00:00+00
-157.704728152275,21.2757470645593,132,127,Koko Head Elementary,189 Lunalilo Home Road,Honolulu,96825,808.397.5811,808.397.5816,Jeffrey Takeshi Shitaoka,K,5,Elementary,http://kokoheadschool.org/,Kaiser,Farrington-Kaiser-Kalani,Honolulu,Oahu,0,2023/02/02 00:00:00+00
-159.466173122926,21.8989824048432,133,460,Koloa Elementary,3223 Poipu Road,Koloa,96756,808.742.8460,808.742.8466,Linda Kay Uyehara,K,5,Elementary,http://koloa.k12.hi.us/,Kauai,Kapaa-Kauai-Waimea,Kauai,Kauai,0,2023/02/02 00:00:00+00
-155.923156182157,19.5048368267359,134,375,Konawaena Elementary,81-901 Onouli Road,Kealakekua,96750,808.323.4555,808.323.4551,Claire L Yoshida,K,5,Elementary,http://konawaenael.k12.hi.us,Konawaena,Honokaa-Kealakehe-Kohala-Konawaena,Hawaii,Hawaii,0,2023/02/02 00:00:00+00
-155.915493964513,19.5093404497369,135,374,Konawaena High,81-1043 Konawaena School Road,Kealakekua,96750,808.323.4500,808.323.4515,Shawn S Suzuki,9,12,High,http://www.konawaenahs.org/,Konawaena,Honokaa-Kealakehe-Kohala-Konawaena,Hawaii,Hawaii,0,2023/02/02 00:00:00+00
-155.913804070044,19.5119093114287,136,376,Konawaena Middle,81-1045 Konawaena School Road,Kealakekua,96750,808.323.4566,808.323.4574,Teddy Lee Burgess,6,8,Middle,http://konawaenamiddle.k12.hi.us/,Konawaena,Honokaa-Kealakehe-Kohala-Konawaena,Hawaii,Hawaii,0,2023/02/02 00:00:00+00
-157.819254783606,21.2902900917224,137,128,Kuhio Elementary,2759 South King Street,Honolulu,96826,808.973.0085,808.973.0088,Lynn M Kobayashi,K,5,Elementary,http://www.kuhioschool.k12.hi.us,Kaimuki,Kaimuki-McKinley-Roosevelt,Honolulu,Oahu,0,2023/02/02 00:00:00+00
-156.328789961621,20.7612146881233,138,412,Kula Elementary,5000 Kula Highway,Kula,96790,808.876.7610,808.876.7616,Hans Christopher Bachaus,K,5,Elementary,http://kulaschool.weebly.com/,Kekaulike,Baldwin-Kekaulike-Maui,Maui,Maui,0,2023/02/02 00:00:00+00
-156.661195106007,20.8855707495453,139,413,Lahaina Intermediate,871 Lahainaluna Road,Lahaina,96761,808.662.3965,808.662.3968,Stacy Anne Bookland,6,8,Middle,http://lis.schoolwires.net/,Lahainaluna,Hana-Lahainaluna-Lanai-Molokai,Maui,Maui,0,2023/02/02 00:00:00+00
-156.659921612044,20.8891739764422,140,414,Lahainaluna High,980 Lahainaluna Road,Lahaina,96761,808.662.4000,808.662.3997,Daniel V Espaniola,9,12,High,http://www.lahainalunahs.org/,Lahainaluna,Hana-Lahainaluna-Lanai-Molokai,Maui,Maui,0,2023/02/02 00:00:00+00
-157.92441974102,21.6484469896581,141,319,Laie Elementary,55-109 Kulanui Street,Laie,96762,808.293.8965,808.293.8968,Eliza Leialoha Kaka,K,6,Elementary,https://sites.google.com/a/laie.k12.hi.us/laie-elementary/,Kahuku,Castle-Kahuku,Windward,Oahu,0,2023/02/02 00:00:00+00
-156.921885427968,20.8264584935885,142,415,Lanai High and Elementary,555 Fraser Avenue,Lanai City,96763,808.565.7900,808.565.7904,Elton N Kinoshita,K,12,Elementary-Middle-High,http://www.edline.net/pages/lhes,Lanai,Hana-Lahainaluna-Lanai-Molokai,Maui,Lanai,0,2023/02/02 00:00:00+00
-157.85975475208,21.3270277165888,143,129,Lanakila Elementary,717 North Kuakini Street,Honolulu,96817,808.587.4466,808.587.4468,Katherine B Balatico,K,5,Elementary,http://lanakilaelem.k12.hi.us/,McKinley,Kaimuki-McKinley-Roosevelt,Honolulu,Oahu,0,2023/02/02 00:00:00+00
-157.972175151046,21.3892404155382,144,268,Lehua Elementary,791 Lehua Avenue,Pearl City,96782,808.453.6490,808.453.6497,Aaron S Tominaga,K,6,Elementary,http://lehua.k12.hi.us,Pearl City,Pearl City-Waipahu,Leeward,Oahu,0,2023/02/02 00:00:00+00
-158.174985029539,21.4391205993793,145,271,Leihoku Elementary,86-285 Leihoku Street,Waianae,96792,808.697.7100,808.697.7142,Randall A K Miura,K,6,Elementary,http://les.nwcomplex.org/,Waianae,Nanakuli-Waianae,Leeward,Oahu,0,2023/02/02 00:00:00+00
-158.012274179362,21.5023065247077,146,214,Leilehua High,1515 California Avenue,Wahiawa,96786,808.305.3000,808.622.6554,Jason H Nakamoto,9,12,High,http://www.leilehua.k12.hi.us/,Leilehua,Leilehua-Mililani-Waialua,Central,Oahu,0,2023/02/02 00:00:00+00
-156.48519644114,20.8802098621736,147,416,Lihikai Elementary,335 South Papa Avenue,Kahului,96732,808.873.3033,808.873.3570,Shannon S M Cabanilla,K,5,Elementary,https://sites.google.com/site/lihikaielementaryschool/,Maui,Baldwin-Kekaulike-Maui,Maui,Maui,0,2023/02/02 00:00:00+00
-157.806487525502,21.2784587574515,148,130,Liholiho Elementary,3430 Maunaloa Avenue,Honolulu,96816,808.733.4850,808.733.4856,Christina W Small,K,5,Elementary,http://liholiho.org/,Kalani,Farrington-Kaiser-Kalani,Honolulu,Oahu,0,2023/02/02 00:00:00+00
-157.863452989877,21.3243784603806,149,131,Likelike Elementary,1618 Palama Street,Honolulu,96817,808.832.3370,808.832.3374,Kelly T Bart,K,5,Elementary,https://sites.google.com/a/likelike.k12.hi.us/likelike-elementary-school/,McKinley,Kaimuki-McKinley-Roosevelt,Honolulu,Oahu,0,2023/02/02 00:00:00+00
-157.877833347651,21.3387646437417,150,133,Linapuni Elementary,1434 Linapuni Street,Honolulu,96819,808.305.2150,808.832.3305,Cynthia M Sunahara,PreK,1,Elementary,http://www.linapuniel.k12.hi.us,Farrington,Farrington-Kaiser-Kalani,Honolulu,Oahu,0,2023/02/02 00:00:00+00
-157.83958184562,21.312075476792,151,134,Lincoln Elementary,615 Auwaiolimu Street,Honolulu,96813,808.587.4480,808.587.4487,Jacqueline Lehua Ornellas,K,5,Elementary,http://les.lincoln.k12.hi.us/,Roosevelt,Kaimuki-McKinley-Roosevelt,Honolulu,Oahu,0,2023/02/02 00:00:00+00
-156.446122226711,20.7451947088368,152,430,Lokelani Intermediate,1401 Liloa Drive,Kihei,96753,808.875.6800,808.875.6835,Francoise D M Wittenburg,6,8,Middle,http://www.lokelani.k12.hi.us/,Maui,Baldwin-Kekaulike-Maui,Maui,Maui,0,2023/02/02 00:00:00+00
-157.832267967594,21.2928041480564,153,135,Lunalilo Elementary,810 Pumehana Street,Honolulu,96826,808.973.0270,808.973.0276,Amy B Kantrowitz,K,5,Elementary,http://www.lunalilo.k12.hi.us/,Kaimuki,Kaimuki-McKinley-Roosevelt,Honolulu,Oahu,0,2023/02/02 00:00:00+00
-157.847133186789,21.3288657649706,154,136,Maemae Elementary,319 Wyllie Street,Honolulu,96817,808.595.5400,808.595.5405,Lenn Shigeru Uyeda,K,6,Elementary,http://www.maemaeschool.com/,Roosevelt,Kaimuki-McKinley-Roosevelt,Honolulu,Oahu,0,2023/02/02 00:00:00+00
-158.174092228966,21.4198100337576,155,257,Maili Elementary,87-360 Kulaaupuni Street,Waianae,96792,808.697.7150,808.697.7151,Suzie Lee,K,6,Elementary,http://maili.nwcomplex.org/,Waianae,Nanakuli-Waianae,Leeward,Oahu,0,2023/02/02 00:00:00+00
-158.212390830841,21.4692803049951,156,258,Makaha Elementary,84-200 Ala Naauao Place,Waianae,96792,808.695.7900,808.695.7905,Wade Araki,K,6,Elementary,http://makaha.nwcomplex.org/,Waianae,Nanakuli-Waianae,Leeward,Oahu,0,2023/02/02 00:00:00+00
-158.084256135807,21.3451152357799,157,259,Makakilo Elementary,92-675 Anipeahi Street,Kapolei,96707,808.672.1122,808.672.1128,Todd Y Fujimori,K,5,Elementary,http://www.makakiloelementary.k12.hi.us/,Kapolei,Campbell-Kapolei,Leeward,Oahu,0,2023/02/02 00:00:00+00
-157.927789292352,21.361626588808,158,215,Makalapa Elementary,4435 Salt Lake Blvd.,Honolulu,96818,808.421.4110,808.421.4112,Denise K B Arai,K,6,Elementary,http://www.makalapael.org/,Radford,Aiea Moanalua-Radford,Central,Oahu,0,2023/02/02 00:00:00+00
-156.312795345042,20.8573887135585,159,417,Makawao Elementary,3542 Baldwin Avenue,Makawao,96768,808.573.8770,808.573.8774,Robyn Ai Honda,K,5,Elementary,http://www.makawao.k12.hi.us/,Kekaulike,Baldwin-Kekaulike-Maui,Maui,Maui,0,2023/02/02 00:00:00+00
-157.972194966311,21.4081675208978,160,260,Manana Elementary,1147 Kumano Street,Pearl City,96782,808.453.6430,808.453.6437,Bryan K Loo,K,6,Elementary,http://www.manana.k12.hi.us/Home.html,Pearl City,Pearl City-Waipahu,Leeward,Oahu,0,2023/02/02 00:00:00+00
-157.809005079461,21.3171509860141,161,137,Manoa Elementary,3155 Manoa Road,Honolulu,96822,808.988.1868,808.988.1860,Kerry Takayuki Higa,K,5,Elementary,http://www.manoaschool.com/,Roosevelt,Kaimuki-McKinley-Roosevelt,Honolulu,Oahu,0,2023/02/02 00:00:00+00
-156.471286583263,20.873944353568,162,418,Maui High,660 South Lono Avenue,Kahului,96732,808.727.4000,808.873.3010,Francoise D M Wittenburg,9,12,High,http://www.mauihigh.org,Maui,Baldwin-Kekaulike-Maui,Maui,Maui,0,2023/02/02 00:00:00+00
-156.485400473747,20.8745087688764,163,428,Maui Waena Intermediate,795 Onehee Street,Kahului,96732,808.873.3070,808.873.3066,Jacquelyn Royanne McCandless,6,8,Middle,http://www.mauiwaena.com,Maui,Baldwin-Kekaulike-Maui,Maui,Maui,0,2023/02/02 00:00:00+00
-158.082806453888,21.3580064368164,164,286,Mauka Lani Elementary,92-1300 Panana Street,Kapolei,96707,808.672.1100,808.672.1114,Wesley Hiromi Shinkawa,K,5,Elementary,http://maukalanielementary.weebly.com/,Kapolei,Campbell-Kapolei,Leeward,Oahu,0,2023/02/02 00:00:00+00
-157.207904217888,21.1300414494098,165,419,Maunaloa Elementary,Maunaloa Highway,Maunaloa,96770,808.552.2000,808.552.2004,Joe S Jr Yamamoto,K,6,Elementary,http://maunaloaschool.weebly.com,Molokai,Hana-Lahainaluna-Lanai-Molokai,Maui,Molokai,0,2023/02/02 00:00:00+00
-157.753107244619,21.3771270263725,166,321,Maunawili Elementary,1465 Ulupii Street,Kailua,96734,808.266.7822,808.266.7834,Christine Marie Udarbe,K,6,Elementary,http://mes.k12.hi.us/MES/Home/Home.html,Kailua,Kailua-Kalaheo,Windward,Oahu,0,2023/02/02 00:00:00+00
-157.84754928193,21.3010269890731,167,138,McKinley High,1039 South King Street,Honolulu,96814,808.594.0400,808.594.0407,Ron M Okamura,9,12,High,http://www.mckinley.k12.hi.us/,McKinley,Kaimuki-McKinley-Roosevelt,Honolulu,Oahu,0,2023/02/02 00:00:00+00
-158.008154016338,21.4532200662511,168,216,Mililani High,95-1200 Meheula Parkway,Mililani,96789,808.307.4200,808.627.7375,Frederick W Murphy,9,12,High,http://www.mililanihs.org/,Mililani,Leilehua-Mililani-Waialua,Central,Oahu,0,2023/02/02 00:00:00+00
-157.984858492718,21.4798431920853,169,240,Mililani Ike Elementary,95-1330 Lehiwa Drive,Mililani,96789,808.626.2980,808.626.2958,Lynne Shigeko Ajifu,K,5,Elementary,http://www.milike.k12.hi.us,Mililani,Leilehua-Mililani-Waialua,Central,Oahu,0,2023/02/02 00:00:00+00
-158.000749380641,21.4715865483969,170,241,Mililani Mauka Elementary,95-1111 Makaikai Street,Mililani,96789,808.305.1700,808.626.3006,Avis Y Nanbu,K,5,Elementary,http://www.milmauka.k12.hi.us,Mililani,Leilehua-Mililani-Waialua,Central,Oahu,0,2023/02/02 00:00:00+00
-157.990095235208,21.4745574953609,171,238,Mililani Middle,95-1140 Lehiwa Drive,Mililani,96789,808.626.7355,808.626.7358,Shannon Lee Tamashiro,6,8,Middle,http://www.milmdl.k12.hi.us/,Mililani,Leilehua-Mililani-Waialua,Central,Oahu,0,2023/02/02 00:00:00+00
-158.015450257013,21.4378641567033,172,242,Mililani Uka Elementary,94-380 Kuahelani Avenue,Mililani,96789,808.305.4900,808.627.7387,Heather G Wilhelm,K,5,Elementary,http://www.mililaniuka.org/,Mililani,Leilehua-Mililani-Waialua,Central,Oahu,0,2023/02/02 00:00:00+00
-158.009790426205,21.4557469439135,173,234,Mililani Waena Elementary,95-502 Kipapa Drive,Mililani,96789,808.627.7300,808.627.7455,Barron T Iwamura,K,5,Elementary,https://www.mililaniwaena.org,Mililani,Leilehua-Mililani-Waialua,Central,Oahu,0,2023/02/02 00:00:00+00
-157.891280111332,21.3494071325292,174,217,Moanalua Elementary,1337 Mahiole Street,Honolulu,96819,808.305.1200,808.831.7877,Lynda H J K Sadaoka,K,6,Elementary,http://www.moanaluaelementary.org,Moanalua,Aiea Moanalua-Radford,Central,Oahu,0,2023/02/02 00:00:00+00
-157.900962469171,21.3452912303519,175,218,Moanalua High,2825 Ala Ilima Street,Honolulu,96818,808.305.1000,808.831.7919,Robin Jean Martin,9,12,High,http://www.moanaluahs.org/,Moanalua,Aiea Moanalua-Radford,Central,Oahu,0,2023/02/02 00:00:00+00
-157.892217201368,21.3499514368738,176,219,Moanalua Middle,1289 Mahiole Street,Honolulu,96819,808.305.1289,808.831.7859,Wayne Cepeda Guevara,7,8,Middle,http://www.moanaluamiddle.org/,Moanalua,Aiea Moanalua-Radford,Central,Oahu,0,2023/02/02 00:00:00+00
-157.749516392409,21.444697373438,177,322,Mokapu Elementary,1193 Mokapu Blvd.   KMCB Bldg.,Kailua,96734,808.254.7964,808.254.7969,Charles  IV Fradley,K,6,Elementary,http://mokapu.k12.hi.us/,Kalaheo,Kailua-Kalaheo,Windward,Oahu,0,2023/02/02 00:00:00+00
-157.941007572654,21.3423097076722,178,220,Mokulele Elementary,250 Aupaka Street,Honolulu,96818,808.421.4180,808.421.4182,Peter Tovey,K,6,Elementary,http://mokulele.k12.hi.us/,Radford,Aiea Moanalua-Radford,Central,Oahu,0,2023/02/02 00:00:00+00
-157.047650423108,21.1621594772433,179,421,Molokai High,2140 Farrington Avenue,Hoolehua,96729,808.567.6950,808.567.6960,Stanford J Hao,9,12,High,http://molokaihighschool.weebly.com/,Molokai,Hana-Lahainaluna-Lanai-Molokai,Maui,Molokai,0,2023/02/02 00:00:00+00
-157.047833258864,21.164891594209,180,434,Molokai Middle,2175 Lihipali Avenue,Hoolehua,96729,808.567.6940,808.567.6939,Dawn Dyer Mains,7,8,Middle,http://www.molokaimiddleschool.com,Molokai,Hana-Lahainaluna-Lanai-Molokai,Maui,Molokai,0,2023/02/02 00:00:00+00
-157.955530410992,21.413762733012,181,285,Momilani Elementary,2130 Hookiekie Street,Pearl City,96782,808.453.6444,808.453.6448,Doreen Y Higa,K,6,Elementary,http://www.momilani.k12.hi.us/,Pearl City,Pearl City-Waipahu,Leeward,Oahu,0,2023/02/02 00:00:00+00
-155.103302182017,19.554605063574,182,379,Mountain View Elementary,18-1235 Volcano Highway,Mountain View,96771,808.313.3200,808.968.2305,Wilma Tabios Roddy,K,5,Elementary,http://www.mveshawks.k12.hi.us/,Keaau,Kau-Keaau-Pahoa,Hawaii,Hawaii,0,2023/02/02 00:00:00+00
-155.579921614116,19.0621169752059,183,380,Naalehu Elementary,95-5545 Mamalahoa Highway,Naalehu,96772,808.939.2413,808.939.2419,Darlene M Javar,K,6,Elementary, ,Kau,Kau-Keaau-Pahoa,Hawaii,Hawaii,0,2023/02/02 00:00:00+00
-156.664079289684,20.8869749294624,184,429,Nahienaena Elementary,816 Niheu Street,Lahaina,96761,808.662.4020,808.662.4023,Lynn H Kahoohalahala,K,5,Elementary,https://sites.google.com/a/lahaina.k12.hi.us/princess-nahienaena-elementary/,Lahainaluna,Hana-Lahainaluna-Lanai-Molokai,Maui,Maui,0,2023/02/02 00:00:00+00
-158.142169850135,21.3840310339791,185,261,Nanaikapono Elementary,89-153 Mano Avenue,Waianae,96792,808.668.5800,808.668.5890,Christine Udarbe,K,6,Elementary,http://npono.nwcomplex.org/,Nanakuli,Nanakuli-Waianae,Leeward,Oahu,0,2023/02/02 00:00:00+00
-158.136619793502,21.3872878887432,186,262,Nanakuli Elementary,89-778 Haleakala Avenue,Waianae,96792,808.668.5813,808.668.5817,Lisa Ann Leiko Higa,K,6,Elementary,http://nes.nwcomplex.org/,Nanakuli,Nanakuli-Waianae,Leeward,Oahu,0,2023/02/02 00:00:00+00
-158.131021092788,21.3865223885649,187,263,Nanakuli High and Intermediate,89-980 Nanakuli Avenue,Waianae,96792,808.668.5823,808.668.5828,Darin K Pilialoha,7,12,Intermediate,http://nhis.nwcomplex.org/,Nanakuli,Nanakuli-Waianae,Leeward,Oahu,0,2023/02/02 00:00:00+00
-159.668698219918,21.9573215941531,188,461,Niihau High and Elementary,c/o Waimea High School  9707 Tsuchiya Road,Waimea,96796,808.338.6800,808.338.6807,Mahina Leigh Anguay,K,12,Elementary-Middle-High, ,Waimea,Kapaa-Kauai-Waimea,Kauai,Niihau,0,2023/02/02 00:00:00+00
-157.936002808176,21.3406306615145,189,221,Nimitz Elementary,520 Main Street,Honolulu,96818,808.307.4400,808.421.4170,Marcy Ann Kagami,K,6,Elementary,http://www.nimitzelementary.com/,Radford,Aiea Moanalua-Radford,Central,Oahu,0,2023/02/02 00:00:00+00
-157.739059062712,21.2854484665192,190,139,Niu Valley Middle,310 Halemaumau Street,Honolulu,96821,808.377.2440,808.377.2444,Sean S Tajima,6,8,Middle,http://www.niuvalleymiddle.org/,Kaiser,Farrington-Kaiser-Kalani,Honolulu,Oahu,0,2023/02/02 00:00:00+00
-157.81160771503,21.3065469583377,191,140,Noelani Elementary,2655 Woodlawn Drive,Honolulu,96822,808.988.1858,808.988.1855,Rochelle Ann Mahoe,K,5,Elementary,http://www.nes.k12.hi.us/,Roosevelt,Kaimuki-McKinley-Roosevelt,Honolulu,Oahu,0,2023/02/02 00:00:00+00
-157.835885786144,21.3359895096126,192,141,Nuuanu Elementary,3055 Puiwa Lane,Honolulu,96817,808.595.5422,808.595.4687,James Akira Toyooka,K,5,Elementary,http://www.nuuanu.k12.hi.us/,Roosevelt,Kaimuki-McKinley-Roosevelt,Honolulu,Oahu,0,2023/02/02 00:00:00+00
-157.748696464716,21.3721962391905,193,475,Olomana School,42-522 Kalanianaole Highway,Kailua,96734,808.266.7866,808.266.7873,Thomas Franklin Swan,7,12,Intermediate,https://sites.google.com/a/olomanaschoolhi.k12.hi.us/olomanaschool/,Kailua,Kailua-Kalaheo,Windward,Oahu,0,2023/05/17 00:00:00+00
-155.373262030606,20.0403285460011,194,382,Paauilo Elementary and Intermediate,43-1497 Old Main Road,Paauilo,96776,808.776.7710,808.776.7714,Michelle Wendy Miranda Barber,K,9,Elementary-Middle,http://www.paauiloschool.org/,Honokaa,Honokaa-Kealakehe-Kohala-Konawaena,Hawaii,Hawaii,0,2023/02/02 00:00:00+00
-154.943485505974,19.492029374089,195,381,Pahoa Elementary,15-3030 Pahoa Village Road,Pahoa,96778,808.965.2141,808.965.2180,Michelle Payne-Arakaki,K,6,Elementary, ,Pahoa,Kau-Keaau-Pahoa,Hawaii,Hawaii,0,2023/02/02 00:00:00+00
-154.941825460425,19.490839634696,196,383,Pahoa High and Intermediate,15-3038 Puna Road,Pahoa,96778,808.965.2150,808.965.2153,Darlene Bee,7,12,Intermediate,http://pahoahis.org/,Pahoa,Kau-Keaau-Pahoa,Hawaii,Hawaii,0,2023/02/02 00:00:00+00
-156.363020527511,20.899460987476,197,422,Paia Elementary,955 Baldwin Avenue,Paia,96779,808.579.2100,808.579.2103,Leona Kehaulani Luuwai,K,5,Elementary,http://paiaelementary.com,Kekaulike,Baldwin-Kekaulike-Maui,Maui,Maui,0,2023/02/02 00:00:00+00
-157.953790021397,21.4247810416807,198,264,Palisades Elementary,2306 Auhuhu Street,Pearl City,96782,808.453.6550,808.453.5910,Gavin A Tsue,K,6,Elementary,https://sites.google.com/a/palisades.k12.hi.us/pes/,Pearl City,Pearl City-Waipahu,Leeward,Oahu,0,2023/02/02 00:00:00+00
-157.791530229233,21.2996947847485,199,142,Palolo Elementary,2106 10th Avenue,Honolulu,96816,808.733.4700,808.733.4708,Holly Naomi Kiyonaga,K,5,Elementary,http://paloloelementary.k12.hi.us/,Kaimuki,Kaimuki-McKinley-Roosevelt,Honolulu,Oahu,0,2023/02/02 00:00:00+00
-157.798880089188,21.4135208221756,200,323,Parker Elementary,45-259 Waikalua Road,Kaneohe,96744,808.233.5686,808.233.5689,Kathy K Kahikina,K,6,Elementary,http://benjaminparkerschool.weebly.com/,Castle,Castle-Kahuku,Windward,Oahu,0,2023/02/02 00:00:00+00
-157.843934961603,21.3192571039147,201,143,Pauoa Elementary,2301 Pauoa Road,Honolulu,96813,808.587.4500,808.587.4506,Dale M Arakaki,K,5,Elementary,http://pauoa.k12.hi.us/,Roosevelt,Kaimuki-McKinley-Roosevelt,Honolulu,Oahu,0,2023/02/02 00:00:00+00
-157.96973055258,21.3951329031227,202,265,Pearl City Elementary,1090 Waimano Home Road,Pearl City,96782,808.453.6455,808.453.6467,Susan Kay M Hirokane,K,6,Elementary,http://www.pearlcity-es.org/,Pearl City,Pearl City-Waipahu,Leeward,Oahu,0,2023/02/02 00:00:00+00
-157.953993386927,21.4152275278312,203,266,Pearl City High,2100 Hookiekie Street,Pearl City,96782,808.453.6500,808.453.6521,Joseph S Halfmann,9,12,High,http://www.pchs.k12.hi.us,Pearl City,Pearl City-Waipahu,Leeward,Oahu,0,2023/02/02 00:00:00+00
-157.966033954708,21.4035928004772,204,267,Pearl City Highlands Elementary,1419 Waimano Home Road,Pearl City,96782,808.453.6470,808.453.6472,Michael G Nakasato,K,6,Elementary,http://www.pches.org/,Pearl City,Pearl City-Waipahu,Leeward,Oahu,0,2023/02/02 00:00:00+00
-157.930946778048,21.344795321207,205,222,Pearl Harbor Elementary,1 Moanalua Ridge,Honolulu,96818,808.421.4125,808.421.4128,Kaipo Lee Simpson,K,6,Elementary,http://www.pearlharborelementary.org/,Radford,Aiea Moanalua-Radford,Central,Oahu,0,2023/02/02 00:00:00+00
-157.937239678139,21.3484781086684,206,223,Pearl Harbor Kai Elementary,1 C Avenue,Honolulu,96818,808.421.4245,808.421.4248,Dean M Casupang,K,6,Elementary,https://www.pearlharborkai.org,Radford,Aiea Moanalua-Radford,Central,Oahu,0,2023/02/02 00:00:00+00
-157.94526064495,21.3877893274843,207,243,Pearl Ridge Elementary,98-940 Moanalua Road,Aiea,96701,808.305.9300,808.483.7255,Blaine Toshio Takeguchi,K,6,Elementary,http://pearlrid.k12.hi.us,Aiea,Aiea Moanalua-Radford,Central,Oahu,0,2023/02/02 00:00:00+00
-158.010747896258,21.3133386016255,208,269,Pohakea Elementary,91-750 Fort Weaver Road,Ewa Beach,96706,808.689.1290,808.689.1293,Judith S Wong,K,6,Elementary,http://www.pohakea.k12.hi.us,Campbell,Campbell-Kapolei,Leeward,Oahu,0,2023/02/02 00:00:00+00
-156.486537372261,20.8645978969052,209,433,Pomaikai Elementary,4650 S. Kamehameha Avenue,Kahului,96732,808.873.3410,808.873.3414,Paula Masako Inouye,K,5,Elementary,http://pomaikai.k12.hi.us/,Maui,Baldwin-Kekaulike-Maui,Maui,Maui,0,2023/02/02 00:00:00+00
-157.693575068052,21.3283265678942,210,324,Pope Elementary,41-133 Huli Street,Waimanalo,96795,808.259.0450,808.259.0452,Todd Susumu Watanabe,K,6,Elementary,https://sites.google.com/site/bpespueo/home,Kailua,Kailua-Kalaheo,Windward,Oahu,0,2023/02/02 00:00:00+00
-156.346261315478,20.8393345927393,211,426,Pukalani Elementary,2945 Iolani Street,Pukalani,96768,808.573.8760,808.573.8766,Kathleen Dimino,K,5,Elementary,http://www.pukalani.k12.hi.us/,Kekaulike,Baldwin-Kekaulike-Maui,Maui,Maui,0,2023/02/02 00:00:00+00
-157.789837877391,21.4094449493553,212,314,Puohala Elementary,45-233 Kulauli Street,Kaneohe,96744,808.305.5900,808.233.5663,Shawna Noel Makala Paakaula,K,6,Elementary,http://puohala.k12.hi.us/,Castle,Castle-Kahuku,Windward,Oahu,0,2023/02/02 00:00:00+00
-156.508203254719,20.8759869762678,213,436,Puu Kukui Elementary,3700 Kehalani Mauka Parkway,Wailuku,96793,808.984.5610,808.727.3120,Matthew Joseph Ernest Dillon,K,5,Elementary,http://www.puukukui.k12.hi.us/,Baldwin,Baldwin-Kekaulike-Maui,Maui,Maui,0,2023/02/02 00:00:00+00
-157.88484986119,21.3275545390287,214,145,Puuhale Elementary,345 Puuhale Road,Honolulu,96819,808.832.3190,808.832.3195,Arnie A Kikkawa,K,5,Elementary,http://www.puuhaleschool.org/,Farrington,Farrington-Kaiser-Kalani,Honolulu,Oahu,0,2023/02/02 00:00:00+00
-157.926968756039,21.3586265055493,215,224,Radford High,4361 Salt Lake Blvd.,Honolulu,96818,808.421.4200,808.421.4210,Richard T Shimabukuro,9,12,High,http://www.radfordhs.org/,Radford,Aiea Moanalua-Radford,Central,Oahu,0,2023/02/02 00:00:00+00
-157.900300178533,21.3687281888322,216,225,Red Hill Elementary,1265 Ala Kula Place,Honolulu,96819,808.305.1530,808.831.7861,Rory Vierra,K,6,Elementary,http://www.redhillelementary.org,Moanalua,Aiea Moanalua-Radford,Central,Oahu,0,2023/02/02 00:00:00+00
-157.837544338343,21.3098663979017,217,146,Roosevelt High,1120 Nehoa Street,Honolulu,96822,808.587.4600,808.587.4637,Sean J E Wong,9,12,High,http://www.roosevelthigh.org/,Roosevelt,Kaimuki-McKinley-Roosevelt,Honolulu,Oahu,0,2023/02/02 00:00:00+00
-157.85431753728,21.3121088844604,218,147,Royal School,1519 Queen Emma Street,Honolulu,96813,808.587.4510,808.587.4518,Eleanor Mae Gonsalves,K,5,Elementary,http://www.royalschoolk5.org/,McKinley,Kaimuki-McKinley-Roosevelt,Honolulu,Oahu,0,2023/02/02 00:00:00+00
-157.91198465376,21.3508908566272,219,239,Salt Lake Elementary,1131 Ala Lilikoi Street,Honolulu,96818,808.305.1600,808.831.7873,Duwayne Fujio Abe,K,6,Elementary,http://www.saltlake.k12.hi.us/,Moanalua,Aiea Moanalua-Radford,Central,Oahu,0,2023/02/02 00:00:00+00
-157.934343328007,21.3811417482512,220,227,Scott Elementary,98-1230 Moanalua Road,Aiea,96701,808.483.7220,808.483.7223,Sandra J Watanabe,K,6,Elementary,http://www.alvahscott.org/,Aiea,Aiea Moanalua-Radford,Central,Oahu,0,2023/02/02 00:00:00+00
-157.884791703036,21.3418712027698,221,228,Shafter Elementary,2 Fort Shafter,Honolulu,96819,808.305.1500,808.832.3562,Alison A Higa,K,6,Elementary,https://www.shafterelementary.com,Moanalua,Aiea Moanalua-Radford,Central,Oahu,0,2023/02/02 00:00:00+00
-158.072686519934,21.490293274143,222,226,Solomon Elementary,2875 Waianae Uka Avenue,Wahiawa,96786,808.305.1800,808.624.9505,Sarah A Omalza,K,5,Elementary,http://www.solomonelementary.org,Leilehua,Leilehua-Mililani-Waialua,Central,Oahu,0,2023/02/02 00:00:00+00
-157.841170543173,21.3098755646538,223,148,Stevenson Middle,1202 Prospect Street,Honolulu,96822,808.587.4520,808.587.4523,Linell K Dilwith,6,8,Middle,http://rlsms.k12.hi.us,Roosevelt,Kaimuki-McKinley-Roosevelt,Honolulu,Oahu,0,2023/02/02 00:00:00+00
-158.050960132023,21.664143926722,224,325,Sunset Beach Elementary,59-360 Kamehameha Highway,Haleiwa,96712,808.638.8777,808.638.8789,Angela Kapualilia Pia,K,6,Elementary,http://www.sunset.k12.hi.us/,Kahuku,Castle-Kahuku,Windward,Oahu,0,2023/02/02 00:00:00+00
-158.018521114357,21.504074833765,225,229,Wahiawa Elementary,1402 Glen Avenue,Wahiawa,96786,808.622.6393,808.622.6394,Jamie Y Oshiro,K,5,Elementary,http://wes.k12.hi.us/,Leilehua,Leilehua-Mililani-Waialua,Central,Oahu,0,2023/02/02 00:00:00+00
-158.01785708717,21.4950114475596,226,230,Wahiawa Middle,275 Rose Street,Wahiawa,96786,808.305.3300,808.622.6506,Ursula Ann Kawaguchi,6,8,Middle,http://wahiawamiddle.com,Leilehua,Leilehua-Mililani-Waialua,Central,Oahu,0,2023/02/02 00:00:00+00
-157.851909548126,21.4826707791823,227,326,Waiahole Elementary,48-215 Waiahole Valley Road,Kaneohe,96744,808.239.3111,808.239.3113,Alexandra P Obra,K,6,Elementary,http://www.waiahole.org/,Castle,Castle-Kahuku,Windward,Oahu,0,2023/02/02 00:00:00+00
-155.074571145927,19.6944255978744,228,384,Waiakea Elementary,180 West Puainako Street,Hilo,96720,808.981.7215,808.981.7218,Ken K Watanabe,K,5,Elementary,http://www.waiakeaelementary.org/,Waiakea,Hilo-Waiakea,Hawaii,Hawaii,0,2023/02/02 00:00:00+00
-155.07745487999,19.7007821147341,229,389,Waiakea High,155 W. Kawili Street,Hilo,96720,808.974.4888,808.974.4880,Kelcy K Koga,9,12,High,http://waiakeahigh.k12.hi.us/,Waiakea,Hilo-Waiakea,Hawaii,Hawaii,0,2023/02/02 00:00:00+00
-155.077257642003,19.6942262374678,230,385,Waiakea Intermediate,200 West Puainako Street,Hilo,96720,808.981.7231,808.981.7237,Lisa N M Souza,6,8,Middle,http://www.waiakeatitans.org/,Waiakea,Hilo-Waiakea,Hawaii,Hawaii,0,2023/02/02 00:00:00+00
-155.067418961436,19.6836612211698,231,386,Waiakeawaena Elementary,2420 Kilauea Avenue,Hilo,96720,808.981.7200,808.981.7205,Kasie Puahala Torres Kaleohano,K,5,Elementary,http://www.waiakeawaena-elementary.com/,Waiakea,Hilo-Waiakea,Hawaii,Hawaii,0,2023/02/02 00:00:00+00
-158.121456348964,21.5763461569788,232,231,Waialua Elementary,67-020 Waialua Beach Road,Waialua,96791,808.637.8228,808.637.8225,Scott B Moore,K,6,Elementary,http://www.waialuae.k12.hi.us,Waialua,Leilehua-Mililani-Waialua,Central,Oahu,0,2023/02/02 00:00:00+00
-158.125417209844,21.5669575203205,233,232,Waialua High and Intermediate,67-160 Farrington Highway,Waialua,96791,808.637.8200,808.637.8209,Christine A Alexander,7,12,Intermediate,http://www.whis.k12.hi.us/,Waialua,Leilehua-Mililani-Waialua,Central,Oahu,0,2023/02/02 00:00:00+00
-158.184524923205,21.4446708714084,234,270,Waianae Elementary,85-220 McArthur Street,Waianae,96792,808.697.7083,808.697.7090,Ray Pikelny,K,6,Elementary,http://wes.nwcomplex.org/,Waianae,Nanakuli-Waianae,Leeward,Oahu,0,2023/02/02 00:00:00+00
-158.199457742131,21.455911281182,235,272,Waianae High,85-251 Farrington Highway,Waianae,96792,808.697.7017,808.697.7018,Disa Hauge,9,12,High,http://whs.nwcomplex.org/,Waianae,Nanakuli-Waianae,Leeward,Oahu,0,2023/02/02 00:00:00+00
-158.193324704164,21.4515568449562,236,273,Waianae Intermediate,85-626 Farrington Highway,Waianae,96792,808.697.7121,808.697.7124,John Charles Wataoka,7,8,Middle,http://wis.nwcomplex.org/,Waianae,Nanakuli-Waianae,Leeward,Oahu,0,2023/02/02 00:00:00+00
-157.954014968552,21.3981462599617,237,288,Waiau Elementary,98-450 Hookanike Street,Pearl City,96782,808.453.6530,808.453.6541,Troy Masao Takazono,K,6,Elementary,http://www.waiauelementary.org,Pearl City,Pearl City-Waipahu,Leeward,Oahu,0,2023/02/02 00:00:00+00
-156.513247344263,20.9344025212716,238,424,Waihee Elementary,2125 Kahekili Highway,Wailuku,96793,808.984.5644,808.984.5648,Paula Masako Inouye,K,5,Elementary,http://waihee.k12.hi.us,Baldwin,Baldwin-Kekaulike-Maui,Maui,Maui,0,2023/02/02 00:00:00+00
-158.011699569117,21.402030984117,239,290,Waikele Elementary,94-1035 Kukula Street,Waipahu,96797,808.677.6100,808.677.6106,Sheldon S Oshio,K,6,Elementary,http://www.waikelees.org,Waipahu,Pearl City-Waipahu,Leeward,Oahu,0,2023/02/02 00:00:00+00
-157.815191731217,21.2681880723761,240,150,Waikiki Elementary,3710 Leahi Avenue,Honolulu,96815,808.971.6900,808.971.6902,Bonnie L Tabor,K,5,Elementary,www.waikikischool.org/,Kalani,Farrington-Kaiser-Kalani,Honolulu,Oahu,0,2023/02/02 00:00:00+00
-155.789300474429,19.9461685485194,241,393,Waikoloa Elementary and Middle,68-1730 Hooko Street,Waikoloa,96738,808.883.6808,808.883.6811,Kristine Kosa-Correia,K,7,Elementary-Middle,http://www.waikoloaschool.org/,Kealakehe,Honokaa-Kealakehe-Kohala-Konawaena,Hawaii,Hawaii,0,2023/02/02 00:00:00+00
-156.505079281569,20.8827891864591,242,425,Wailuku Elementary,355 South High Street,Wailuku,96793,808.984.5622,808.984.5627,Beverly K Stanich,K,5,Elementary,http://wailuku.k12.hi.us,Baldwin,Baldwin-Kekaulike-Maui,Maui,Maui,0,2023/02/02 00:00:00+00
-157.949681514462,21.3907357972033,243,233,Waimalu Elementary,98-825 Moanalua Road,Aiea,96701,808.307.4500,808.483.7213,Glen Keiji Iwamoto,K,6,Elementary,http://www.waimaluelementary.org,Aiea,Aiea Moanalua-Radford,Central,Oahu,0,2023/02/02 00:00:00+00
-157.715807780264,21.3470341395671,244,327,Waimanalo Elementary and Intermediate,41-1330 Kalanianaole Highway,Waimanalo,96795,808.259.0460,808.259.0463,Noel R Richardson,K,8,Elementary-Middle,http://www.waimanaloschool.org/,Kailua,Kailua-Kalaheo,Windward,Oahu,0,2023/02/02 00:00:00+00
-159.672494363363,21.9601293627554,245,464,Waimea Canyon Middle,9555 Huakai Road,Waimea,96796,808.338.6830,808.338.6832,Melissa Ptacek Speetjens,6,8,Middle,http://www.waimeacanyonms.org/,Waimea,Kapaa-Kauai-Waimea,Kauai,Kauai,0,2023/02/02 00:00:00+00
-155.670075421393,20.0194789900779,246,387,Waimea Elementary,67-1225 Mamalahoa Highway,Kamuela,96743,808.887.7636,808.887.7640,Scott S Tamura,K,5,Elementary,http://www.waimeaelementary.k12.hi.us,Honokaa,Honokaa-Kealakehe-Kohala-Konawaena,Hawaii,Hawaii,0,2023/02/02 00:00:00+00
-159.668698219918,21.9573215941531,247,462,Waimea High,9707 Tsuchiya Road,Waimea,96796,808.338.6800,808.338.6807,Mahina Leigh Anguay,9,12,High,www.waimeahighschool.org,Waimea,Kapaa-Kauai-Waimea,Kauai,Kauai,0,2023/02/02 00:00:00+00
-158.015940945941,21.3855083751421,248,274,Waipahu Elementary,94-465 Waipahu Street,Waipahu,96797,808.675.0150,808.675.0121,Keith Chung Hai Hui,K,6,Elementary,http://waipahuelementary.org/,Waipahu,Pearl City-Waipahu,Leeward,Oahu,0,2023/02/02 00:00:00+00
-157.993492765876,21.3903115426576,249,277,Waipahu High,94-1211 Farrington Highway,Waipahu,96797,808.675.0222,808.675.0257,Meryl Chieko Matsumura,9,12,High,http://www.edline.net/pages/waipahu_high_school,Waipahu,Pearl City-Waipahu,Leeward,Oahu,0,2023/02/02 00:00:00+00
-158.014494825579,21.381862938407,250,278,Waipahu Intermediate,94-445 Farrington Highway,Waipahu,96797,808.675.0177,808.675.0181,Randell T Dunn,7,8,Middle,http://www.waipahuintermediate.org,Waipahu,Pearl City-Waipahu,Leeward,Oahu,0,2023/02/02 00:00:00+00
-157.835069911332,21.2966375890871,251,152,Washington Middle,1633 South King Street,Honolulu,96826,808.973.0177,808.973.0181,Michael K Harano,6,8,Middle,http://www.washington.k12.hi.us,Kaimuki,Kaimuki-McKinley-Roosevelt,Honolulu,Oahu,0,2023/02/02 00:00:00+00
-157.919482487232,21.3807463299604,252,235,Webling Elementary,99-370 Paihi Street,Aiea,96701,808.483.7240,808.483.7242,Chad M Matsuda,K,6,Elementary,http://weblingpueo.org,Aiea,Aiea Moanalua-Radford,Central,Oahu,0,2023/02/02 00:00:00+00
-158.039609482178,21.4877720767643,253,236,Wheeler Elementary,1 Wheeler Army Air Field,Wahiawa,967864198,808.305.9500,808.622.6403,Troy Tetsuo Tamura,K,5,Elementary,http://www.wheeler.k12.hi.us,Leilehua,Leilehua-Mililani-Waialua,Central,Oahu,0,2023/02/02 00:00:00+00
-158.037438311934,21.4883077774128,254,237,Wheeler Middle,2 Wheeler Army Air Field,Wahiawa,967864199,808.305.9000,808.622.6529,Samuel E Bennett,6,8,Middle,http://www.wheelm.k12.hi.us/,Leilehua,Leilehua-Mililani-Waialua,Central,Oahu,0,2023/02/02 00:00:00+00
-159.364035153871,21.9762917774812,255,463,Wilcox Elementary,4319 Hardy Street,Lihue,96766,808.274.3150,808.274.3152,Corey Dean Nakamura,K,5,Elementary,http://www.wilcox.k12.hi.us/,Kauai,Kapaa-Kauai-Waimea,Kauai,Kauai,0,2023/02/02 00:00:00+00
-157.785088746032,21.2818356824424,256,153,Wilson Elementary,4945 Kilauea Avenue,Honolulu,96816,808.733.4740,808.733.4746,Ryan A Amine,K,5,Elementary,http://wilsonschoolhawaii.org,Kalani,Farrington-Kaiser-Kalani,Honolulu,Oahu,0,2023/02/02 00:00:00+00
-155.086246995374,19.7254514366225,257,396,Connections PCS,174 Kamehameha Avenue,Hilo,96720,808.961.3664,808.961.2665,John L. Thatcher  II,K,12,Elementary-Middle-High,http://www.connectionscharterschool.org/,Hilo,Hilo-Waiakea,Hawaii,Hawaii,1,2023/02/02 00:00:00+00
-157.810820046353,21.4087399362641,258,546,Hakipuu Learning Center PCS,45-720 Keaahala Road,Kaneohe,96744,808.235.9155,808.235.9160,Charlene Hoe,4,12,Elementary-Middle-High,https://sites.google.com/site/hlctechsite96744/,Castle,Castle-Kahuku,Windward,Oahu,1,2023/02/02 00:00:00+00
-157.828908553635,21.3131713974734,259,540,Halau Ku Mana PCS,2101 Makiki Heights Drive,Honolulu,96822,808.945.1600,808.945.1604,Grandon Keoni Bunag,6,12,Intermediate,http://www.halaukumana.org/,Roosevelt,Kaimuki-McKinley-Roosevelt,Honolulu,Oahu,1,2023/02/02 00:00:00+00
-158.007008296281,21.3880573986432,260,551,Hawai'i Technology Academy PCS,94-450 Mokuola Street,Waipahu,96797,808.676.5444,808.676.5470,Leigh Fitzgerald,K,12,Elementary-Middle-High,https://hi.myhta.org,Waipahu,Pearl City-Waipahu,Leeward,Oahu,1,2023/02/02 00:00:00+00
-154.931333468672,19.5090903321146,261,561,Hawai`i Academy of Arts and Science PCS,15-1397 Homestead Road,Pahoa,96778,808.965.3730,808.965.3733,Steven Hirakami,K,12,Elementary-Middle-High,http://www.haaspcs.org/,Pahoa,Kau-Keaau-Pahoa,Hawaii,Hawaii,1,2023/02/02 00:00:00+00
-155.976474696116,19.6317960938839,262,548,Innovations PCS,75-5815 Queen Kaahumanu Highway,Kailua-Kona,96740,808.327.6205,808.327.6209,Jennifer Hiro,1,8,Elementary-Middle,http://www.ipcs.info/,Kealakehe,Honokaa-Kealakehe-Kohala-Konawaena,Hawaii,Hawaii,1,2023/02/02 00:00:00+00
-155.046437078613,19.7282960752829,263,562,Ka Umeke Kaeo PCS,222 Desha Avenue,Hilo,96720,808.933.3482,808.933.3488,Olani Lilly,PreK,8,Elementary-Middle,http://kaumeke.org/,Waiakea,Hilo-Waiakea,Hawaii,Hawaii,1,2023/02/02 00:00:00+00
-158.144599560978,21.3806527596309,264,545,Ka Waihona O Ka Naauao PCS,89-195 Farrington Highway,Wai'anae,96792,808.620.9030,808.620.9036,Kalehua Krug,K,8,Elementary-Middle,http://www.kawaihonapcs.org/,Nanakuli,Nanakuli-Waianae,Leeward,Oahu,1,2023/02/02 00:00:00+00
-158.194514714807,21.4566712073172,265,275,Kamaile Academy PCS,85-180 Ala Akau Street,Waianae,96792,808.697.7110,808.697.7115,Paul Kepka,K,12,Elementary-Middle-High,http://www.kamaile-academy.org/,Waianae,Nanakuli-Waianae,Leeward,Oahu,1,2023/02/02 00:00:00+00
-155.651386462397,20.0155147903158,266,397,Kanu O Ka Aina PCS,64-1043 Hi'iaka St.,Kamuela,96743,808.887.1117,808.887.0030,Allyson Tamura,K,12,Elementary-Middle-High,http://www.kalo.org/,Honokaa,Honokaa-Kealakehe-Kohala-Konawaena,Hawaii,Hawaii,1,2023/02/02 00:00:00+00
-159.300737323908,22.1392891776599,267,564,Kanuikapono PCS,4333 Kukuihale Road,Anahola,96703,808.823.9160,808.823.9140,Ku'uipo Torio-Kauhane,K,12,Elementary-Middle-High,http://kanuikapono.org/,Kapaa,Kapaa-Kauai-Waimea,Kauai,Kauai,1,2023/02/02 00:00:00+00
-155.633572297367,19.0399182160629,268,552,Kau Learning Academy,94-1581 Kaulua Circle,Naalehu,96772,808.498.0761,808.498.0763,Kathryn Tydlacka-McKown,3,7,Elementary,http://www.kaulearning.com,Kau,Kau-Keaau-Pahoa,Hawaii,Hawaii,1,2023/02/02 00:00:00+00
-159.397766525255,21.9660923033216,269,565,Kawaikini NCPCS,3-1821 J Kaumualii Hwy,Lihue,96766,808.632.2032,808.246.4835,Kaleimakamae Ka'auwai,K,12,Elementary-Middle-High,http://www.kawaikini.com,Kauai,Kapaa-Kauai-Waimea,Kauai,Kauai,1,2023/02/02 00:00:00+00
-155.035613021747,19.7328245676296,270,549,Ke Ana Laahana PCS,162 Baker Avenue,Hilo,96720,808.961.6228,808.961.6229,Kamaka Gunderson,7,12,Intermediate,http://www.kalpcs.com/,Waiakea,Hilo-Waiakea,Hawaii,Hawaii,1,2023/02/02 00:00:00+00
-155.028108999244,19.6047743978988,271,563,Ke Kula 'o Nawahiokalani'opu'u Iki Laboratory PCS,16-120 Opukahaia Street  Suite 2,Keaau,96749,808.982.4260,808.966.7821,Kauanoe Kamana,PreK,8,Elementary-Middle,http://nawahi.org/,Keaau,Kau-Keaau-Pahoa,Hawaii,Hawaii,1,2023/02/02 00:00:00+00
-157.81797975698,21.4104867172167,272,547,Ke Kula 'o Samuel M. Kamakau  LPCS,46-500 Kuneki Street,Kaneohe,96744,808.235.9175,808.235.9173,Meahilahila Kelling,K,12,Elementary-Middle-High,http://www.kamakau.com,Castle,Castle-Kahuku,Windward,Oahu,1,2023/02/02 00:00:00+00
-159.715655245131,21.97251665751,273,556,Ke Kula Niihau O Kekaha LPCS,8135 Kekaha Road,Kekaha,96752,808.337.0481,808.337.1289,Tia Koerte,K,12,Elementary-Middle-High,http://www.hawaiicharterschools.com/school/ke-kula-niihau-kekaha-pcs,Waimea,Kapaa-Kauai-Waimea,Kauai,Kauai,1,2023/02/02 00:00:00+00
-156.44999980011,20.7719019190693,274,554,Kihei Charter School,300 Ohukai Road  #209,Kihei,96753,808.875.0700,808.874.6745,John Colson,K,12,Elementary-Middle-High,http://www.kiheicharter.org/,Maui,Baldwin-Kekaulike-Maui,Maui,Maui,1,2023/02/02 00:00:00+00
-155.920527012333,19.515632097446,275,566,Kona Pacific PCS,79-7595 Mamamlahoa Highway,Kealakekua,96750,808.322.4900,808.322.4906,Shaheer Faltas,K,8,Elementary-Middle,http://www.kppcs.org,Konawaena,Honokaa-Kealakehe-Kohala-Konawaena,Hawaii,Hawaii,1,2023/02/02 00:00:00+00
-154.834125643134,19.4706440636676,276,557,Kua O Ka La NCPCS,14-5322 Kaimu/Kapoho Road - Hwy. 137  Mile Marker 10,Pahoa,96778,808.965.5098,808.965.9618,Pilimai Traub,K,12,Elementary-Middle-High,http://kuaokala.org/,Pahoa,Kau-Keaau-Pahoa,Hawaii,Hawaii,1,2023/02/02 00:00:00+00
-157.039977360802,21.1592239721552,277,411,Kualapuu Elementary PCS,260 Farrington Avenue,Kualapuu,96757,808.567.6900,808.567.6906,Lydia Trinidad,K,6,Elementary,http://kualapuuschool.weebly.com,Molokai,Hana-Lahainaluna-Lanai-Molokai,Maui,Molokai,1,2023/02/02 00:00:00+00
-159.711166776306,21.9690771678244,278,466,Kula Aupuni Niihau PCS,8315 Kekaha Road  Suite P,Kekaha,96752,808.337.2022,808.337.2033,Hedy Sullivan,K,12,Elementary-Middle-High,http://www.kanakapcs.org/,Waimea,Kapaa-Kauai-Waimea,Kauai,Kauai,1,2023/02/02 00:00:00+00
-157.72418918605,21.3931997410179,279,320,Lanikai Elementary PCS,140 Alala Road,Kailua,96734,808.266.7844,808.266.7848,Ed Noh,K,6,Elementary,http://lanikaischool.com/,Kalaheo,Kailua-Kalaheo,Windward,Oahu,1,2023/02/02 00:00:00+00
-155.226440551328,19.9803882683478,280,377,Laupahoehoe Community PCS,35-2065 Old Mamalahoa Highway,Laupahoehoe,96764,808.962.2200,808.962.2202,Michael Okoye,PreK,12,Elementary-Middle-High,http://www.lcpcs.org/,Laupahoehoe,Hilo-Waiakea,Hawaii,Hawaii,1,2023/02/02 00:00:00+00
-157.702325628458,21.3393533311358,281,550,Malama Honua PCS,41-054 Ehukai Street,Waimanalo,96795,808.259.5522,808.259.5525,Denise Espania,K,4,Elementary,http://www.malamahonuapcs.org/,Kailua,Kailua-Kalaheo,Windward,Oahu,1,2023/02/02 00:00:00+00
-157.859634701571,21.3074875428349,282,544,Myron B. Thompson Academy,1040 Richards St.  Ste. 220,Honolulu,96813,808.441.8001,808.683.7062,Diana Oshiro,K,12,Elementary-Middle-High,http://www.ethompson.org/,McKinley,Kaimuki-McKinley-Roosevelt,Honolulu,Oahu,1,2023/02/02 00:00:00+00
-155.108681182008,19.5491924166355,283,398,Na Wai Ola PCS,18-1355 Volcano Highway  P.O. Box 711539,Mountain View,96771,808.968.2318,808.968.0778,Jason Wong,PreK,6,Elementary,http://nawaiolapcs.org/,Keaau,Kau-Keaau-Pahoa,Hawaii,Hawaii,1,2023/02/02 00:00:00+00
-157.79198478743,21.2717312967161,284,567,SEEQS PCS,845 22nd Ave.,Honolulu,96816,808.677.3377, ,Buffy Cushman-Patz,6,8,Middle,http://www.seeqs.org/,Kalani,Farrington-Kaiser-Kalani,Honolulu,Oahu,1,2023/02/02 00:00:00+00
-157.838717371618,21.3058583066871,285,543,University Laboratory,1776 University Avenue  UHS Bldg 3  #121,Honolulu,96822,808.956.7833,808.956.7260,Keoni Jeremiah,K,12,Elementary-Middle-High,http://www.universitylaboratoryschool.org/,Roosevelt,Kaimuki-McKinley-Roosevelt,Honolulu,Oahu,1,2023/02/02 00:00:00+00
-155.240828169945,19.4235803701537,286,560,Volcano School of Arts and Sciences,99-128 Old Volcano Road,Volcano,96785,808.985.9800,808.985.9898,Kalima Cayir,K,8,Elementary-Middle,http://volcanoschool.com/,Keaau,Kau-Keaau-Pahoa,Hawaii,Hawaii,1,2023/02/02 00:00:00+00
-157.822927380669,21.2957984057911,287,541,Voyager PCS,2428 Wilder Avenue,Honolulu,96822,808.521.9770,808.521.9772,Jeffrey Vilardi,K,7,Elementary-Middle,http://voyagerschool.com,McKinley,Kaimuki-McKinley-Roosevelt,Honolulu,Oahu,1,2023/02/02 00:00:00+00
-157.792775019449,21.2764202400359,288,149,Waialae Elementary PCS,1045 19th Avenue,Honolulu,96816,808.733.4880,808.733.4886,Kapono Ciotti,K,5,Elementary,http://www.waialae.edu/,Kalani,Farrington-Kaiser-Kalani,Honolulu,Oahu,1,2023/02/02 00:00:00+00
-155.670185437773,20.0193988082491,289,394,Waimea Middle PCS,67-1229 Mamalahoa Hwy.,Kamuela,96743,808.887.6090,808.887.6087,Amy Kendziorski,6,8,Middle,http://waimeamiddleschool.org/,Honokaa,Honokaa-Kealakehe-Kohala-Konawaena,Hawaii,Hawaii,1,2023/02/02 00:00:00+00
-155.989792617388,19.6344359464787,290,399,West Hawai'i Explorations PCS,73-4460 Queen Kaahumanu Hwy.  PMB 503 Highway  Suite #105,Kailua-Kona,96740,808.327.4751,808.327.4750,Heather Nakakura,6,12,Intermediate,http://www.whea.net/,Kealakehe,Honokaa-Kealakehe-Kohala-Konawaena,Hawaii,Hawaii,1,2023/02/02 00:00:00+00
-158.047620045153,21.3448496483864,291,0,Honouliuli Middle (6th Grade Only),"91-559 Maunakapu St.
",Ewa Beach,96706,808.829.7168, ,Todd Fujimori, ,0,Middle,https://www.honouliuli.k12.hi.us/,Kapolei,Campbell-Kapolei,Honolulu,Oahu,0,2023/02/02 00:00:00+00
-156.443302795033,20.7617365637277,292,0,Kulanihakoʻi High,"Kulanihakoi St &, Piilani Hwy",Kihei,96753,808.727.6700,808.727.6722,Halle Maxwell, ,0,High,https://www.khsmaui.org/,Maui,Baldwin-Kekaulike-Maui,Maui,Maui,0,2023/08/15 00:00:00+00
